the_geom,the_geom_webmercator,facname,addressnum,streetname,address,city,zipcode,boro,borocode,bin,bbl,cd,nta2010,nta2020,council,schooldist,policeprct,ct2010,ct2020,factype,facsubgrp,facgroup,facdomain,servarea,opname,opabbrev,optype,overagency,overabbrev,overlevel,capacity,captype,latitude,longitude,xcoord,ycoord,datasouce,uid
0101000020E61000000E8419FB8ED961C000000000008056C0,,"ACMH, INC",,,,BRONX,,BRONX,2,0,0,0,,,0,,0,,,SUPPORTED SRO-OMH,NON-RESIDENTIAL HOUSING AND HOMELESS SERVICES,HUMAN SERVICES,HEALTH AND HUMAN SERVICES,Local,"ACMH, INC",,,NYC Department of Health and Mental Hygiene,NYCDOHMH,City,0,,0,0,0,0,moeo_socialservicesitelocations,883b69f474151d32674a9598aff84e94
0101000020E61000002591AD3F687D52C0127D31230F544440,0101000020110F00002E95A1212B685FC121C019778BED5241,CAMBA INC,19,WINTHROP STREET,19 WINTHROP STREET,BROOKLYN,11225,BROOKLYN,3,3115690,3050450100,309,BK60,BK0902,40,17,71,079601,079601,"NY NY III SUPPORTED HOUSING-OMH, SUPPORTED HOUSING-OMH",NON-RESIDENTIAL HOUSING AND HOMELESS SERVICES,HUMAN SERVICES,HEALTH AND HUMAN SERVICES,Local,CAMBA INC,,,NYC Department of Health and Mental Hygiene,NYCDOHMH,City,0,,40.6567119592,-73.9594878383,995490.539188,178536.8599,moeo_socialservicesitelocations,00233a82fe4e4f419cb8ba13945ae120
0101000020E61000000E8419FB8ED961C000000000008056C0,,BRONXWORKS INC,,,,,,,0,0,0,0,,,0,,0,,,ADULT OUTREACH SERVICE,NON-RESIDENTIAL HOUSING AND HOMELESS SERVICES,HUMAN SERVICES,HEALTH AND HUMAN SERVICES,Local,BRONXWORKS INC,,,NYC Department of Social Services,NYCDSS,City,0,,0,0,0,0,moeo_socialservicesitelocations,24cc1cf9b872d6d7c470d9360b17aa2f
0101000020E6100000DD598CA5618052C0249DA5D8355A4440,0101000020110F0000F3833F71386D5FC1E3D915066FF45241,ODYSSEY HOUSE INC,120,WALL STREET,120 WALL STREET,NEW YORK,10005,MANHATTAN,1,1000871,1000370001,101,MN25,MN0101,1,02,1,000700,000700,SUPPORTED HOUSING-OMH,NON-RESIDENTIAL HOUSING AND HOMELESS SERVICES,HUMAN SERVICES,HEALTH AND HUMAN SERVICES,Local,ODYSSEY HOUSE INC,,,NYC Department of Health and Mental Hygiene,NYCDOHMH,City,0,,40.7047682577,-74.0059598799,982597.557754,196042.613763,moeo_socialservicesitelocations,011d6c8933e69721018c0db6edc1888b
0101000020E61000002EB33C15F57452C0C3DC396AE8634440,0101000020110F000048EDCFC6D0595FC173C3C9E74DFF5241,WELLLIFE NETWORK INC.,142-02,20 AVENUE,142-02 20 AVENUE,WHITESTONE,11357,QUEENS,4,4099356,4041830075,407,QN23,QN0701,19,25,109,090700,090700,SUPPORTED HOUSING-OMH,NON-RESIDENTIAL HOUSING AND HOMELESS SERVICES,HUMAN SERVICES,HEALTH AND HUMAN SERVICES,Local,WELLLIFE NETWORK INC.,,,NYC Department of Health and Mental Hygiene,NYCDOHMH,City,0,,40.7805302414,-73.827458677,1032034.57919,223692.122924,moeo_socialservicesitelocations,02ad5cf8aa1313e888c572fc9fa487aa
0101000020E61000000E8419FB8ED961C000000000008056C0,,PROJECT HOSPITALITY INC,,,,,,,0,0,0,0,,,0,,0,,,ADULT OUTREACH SERVICE,NON-RESIDENTIAL HOUSING AND HOMELESS SERVICES,HUMAN SERVICES,HEALTH AND HUMAN SERVICES,Local,PROJECT HOSPITALITY INC,,,NYC Department of Social Services,NYCDSS,City,0,,0,0,0,0,moeo_socialservicesitelocations,03308a58d29c6a1b89c3e6b283c510c7
0101000020E61000008B107656CC7852C048D0D11CF56F4440,0101000020110F0000E6870DEF56605FC14562522ED40C5341,PROJECT RENEWAL INC,3114,VILLA AVENUE,3114 VILLA AVENUE,BRONX,10468,BRONX,2,2120106,2033100029,207,BX05,BX0702,11,10,52,041100,041100,SUPPORTED SRO-OMH,NON-RESIDENTIAL HOUSING AND HOMELESS SERVICES,HUMAN SERVICES,HEALTH AND HUMAN SERVICES,Local,PROJECT RENEWAL INC,,,NYC Department of Health and Mental Hygiene,NYCDOHMH,City,0,,40.8746677422,-73.8874717862,1015370.15845,257962.791858,moeo_socialservicesitelocations,0361ced40efac0ba6774e8a706b60419
0101000020E6100000C18714C0297C52C033245DB120544440,0101000020110F00009DA836210E665FC135F6721E9FED5241,CAMBA INC,690,ALBANY AVENUE,690 ALBANY AVENUE,BROOKLYN,11203,BROOKLYN,3,3327709,3048290004,309,BK60,BK0902,40,18,71,080800,080800,"SUPPORTED HOUSING-OMH, SUPPORTED SRO-OMH",NON-RESIDENTIAL HOUSING AND HOMELESS SERVICES,HUMAN SERVICES,HEALTH AND HUMAN SERVICES,Local,CAMBA INC,,,NYC Department of Health and Mental Hygiene,NYCDOHMH,City,0,,40.6572477056,-73.940048237,1000884.13337,178735.140176,moeo_socialservicesitelocations,03a1f9dcea2fcbde0030cdd5e2fd18d8
0101000020E6100000B8F92C97007D52C016CE6F6D94694440,0101000020110F00008930B60E7B675FC1D44D8509AB055341,MIRABAL SISTERS CULTURAL AND COMMUNITY CENTER INC,618,WEST 142 STREET,618 WEST 142 STREET,NEW YORK,10031,MANHATTAN,1,1062333,1020880106,109,MN04,MN0903,7,06,30,022500,022500,HOUSING SUPPORT,NON-RESIDENTIAL HOUSING AND HOMELESS SERVICES,HUMAN SERVICES,HEALTH AND HUMAN SERVICES,Local,MIRABAL SISTERS CULTURAL AND COMMUNITY CENTER INC,,,NYC Department of Youth and Community Development,NYCDYCD,City,0,,40.8248421471,-73.9531610434,997213.223325,239792.911742,moeo_socialservicesitelocations,044bdd4a4828bf03383dadd0fbdb1844
0101000020E6100000689493DA697A52C06629FA427A694440,0101000020110F0000AB791C5515635FC1CD8681AB8D055341,THE BRIDGE INC,425,EAST 161 STREET,425 EAST 161 STREET,BRONX,10451,BRONX,2,2129267,2023830039,203,BX35,BX0301,17,07,42,014100,014100,SUPPORTED SRO-OMH,NON-RESIDENTIAL HOUSING AND HOMELESS SERVICES,HUMAN SERVICES,HEALTH AND HUMAN SERVICES,Local,THE BRIDGE INC,,,NYC Department of Health and Mental Hygiene,NYCDOHMH,City,0,,40.8240436291,-73.9127108038,1008408.58233,239510.553592,moeo_socialservicesitelocations,04cfffc79f3e36b8345b699de5698cd0
0101000020E61000006A63D3748E7952C0E541EF8F176E4440,0101000020110F00006E84EEA9A0615FC1FC8FE3DABB0A5341,VOLUNTEERS OF AMERICA GREATER NEW YORK INC,2388,CRESTON AVENUE,2388 CRESTON AVENUE,BRONX,10468,BRONX,2,2127427,2031650010,205,BX40,BX0503,14,10,46,023703,023703,SUPPORTED SRO-OMH,NON-RESIDENTIAL HOUSING AND HOMELESS SERVICES,HUMAN SERVICES,HEALTH AND HUMAN SERVICES,Local,VOLUNTEERS OF AMERICA GREATER NEW YORK INC,,,NYC Department of Health and Mental Hygiene,NYCDOHMH,City,0,,40.8600940627,-73.899319846,1012099.6312,252649.046275,moeo_socialservicesitelocations,05a5ab9db1077b2109e4f4fad17f4dd5
0101000020E61000005BA68AC4897D52C0FCE20B192C4F4440,0101000020110F00003F6C171164685FC196C83C4C13E85241,OHEL CHILDREN'S HOME AND FAMILY SERVICES INC.,1268,EAST 14 STREET,1268 EAST 14 STREET,BROOKLYN,11230,BROOKLYN,3,3180645,3067330035,314,BK43,BK1403,44,21,70,076800,076800,SUPPORTED HOUSING-OMH,NON-RESIDENTIAL HOUSING AND HOMELESS SERVICES,HUMAN SERVICES,HEALTH AND HUMAN SERVICES,Local,OHEL CHILDREN'S HOME AND FAMILY SERVICES INC.,,,NYC Department of Health and Mental Hygiene,NYCDOHMH,City,0,,40.6185332589,-73.9615336756,994929.007506,164627.072243,moeo_socialservicesitelocations,0730ff758f373e1767facd24a1c182b7
0101000020E6100000E6BB8BF08C7852C0F8CB6A7FD96B4440,0101000020110F0000108FE83EEB5F5FC1CC94DA4A37085341,PHIPPS NEIGHBORHOODS INC,912,EAST 178 STREET,912 EAST 178 STREET,BRONX,10460,BRONX,2,2113165,2031210046,206,BX17,BX0601,17,12,48,036300,036300,SUPPORTED SRO-OMH,NON-RESIDENTIAL HOUSING AND HOMELESS SERVICES,HUMAN SERVICES,HEALTH AND HUMAN SERVICES,Local,PHIPPS NEIGHBORHOODS INC,,,NYC Department of Health and Mental Hygiene,NYCDOHMH,City,0,,40.8425750035,-73.8836022723,1016455.82538,246271.578612,moeo_socialservicesitelocations,0afeeb611f3fb215571accc179a06d1c
0101000020E6100000369AEB54E77752C088BE2A3799704440,0101000020110F0000FB1AACF1D15E5FC161062A828C0D5341,POSTGRADUATE CENTER FOR MENTAL HEALTH,3525,HULL AVENUE,3525 HULL AVENUE,BRONX,10467,BRONX,2,2018639,2033560099,207,BX43,BX0703,11,10,52,043100,043102,SUPPORTED SRO-OMH,NON-RESIDENTIAL HOUSING AND HOMELESS SERVICES,HUMAN SERVICES,HEALTH AND HUMAN SERVICES,Local,POSTGRADUATE CENTER FOR MENTAL HEALTH,,,NYC Department of Health and Mental Hygiene,NYCDOHMH,City,0,,40.8796757656,-73.8734943674,1019233.03574,259792.686071,moeo_socialservicesitelocations,0c1c6f379f99c7aa9c39cdd38d9ebde0
0101000020E6100000520222E0A87D52C0E83E522B14534440,0101000020110F0000C0760DE898685FC1AE653E8472EC5241,CAMBA INC,1720,CHURCH AVENUE,1720 CHURCH AVENUE,BROOKLYN,11226,BROOKLYN,3,3341487,3050970085,314,BK42,BK1401,40,17,70,051200,051200,SUPPORTED HOUSING-OMH,NON-RESIDENTIAL HOUSING AND HOMELESS SERVICES,HUMAN SERVICES,HEALTH AND HUMAN SERVICES,Local,CAMBA INC,,,NYC Department of Health and Mental Hygiene,NYCDOHMH,City,0,,40.6490530154,-73.9634323438,994397.258208,175746.01356,moeo_socialservicesitelocations,0d124f55580af460de846d23d04c349e
0101000020E6100000BDDC1DFEDB7E52C0190F6DDFF1574440,0101000020110F0000B2586793A26A5FC195A41559E5F15241,"INSTITUTE FOR COMMUNITY LIVING, INC.",50,NEVINS STREET,50 NEVINS STREET,BROOKLYN,11217,BROOKLYN,3,3000556,3001727501,302,BK38,BK0202,33,15,84,004100,004100,SUPPORTED HOUSING-OMH,NON-RESIDENTIAL HOUSING AND HOMELESS SERVICES,HUMAN SERVICES,HEALTH AND HUMAN SERVICES,Local,"INSTITUTE FOR COMMUNITY LIVING, INC.",,,NYC Department of Health and Mental Hygiene,NYCDOHMH,City,0,,40.687068871,-73.9821772849,989192.85571,189594.650786,moeo_socialservicesitelocations,0d28ed222f1d7e60799ff1ce4027a804
0101000020E6100000A69C7FF1067C52C0447526AD656B4440,0101000020110F0000B79DB101D3655FC1E2EDAA44B5075341,SERVICES FOR THE UNDERSERVED INC,2148,AMSTERDAM AVENUE,2148 AMSTERDAM AVENUE,NEW YORK,10032,MANHATTAN,1,1062987,1021230067,112,MN36,MN1201,10,06,33,025100,025100,SUPPORTED SRO-OMH,NON-RESIDENTIAL HOUSING AND HOMELESS SERVICES,HUMAN SERVICES,HEALTH AND HUMAN SERVICES,Local,SERVICES FOR THE UNDERSERVED INC,,,NYC Department of Health and Mental Hygiene,NYCDOHMH,City,0,,40.8390404168,-73.9379237892,1001426.64332,244968.485281,moeo_socialservicesitelocations,0db83f8f627e61b4daa482c52eeb2edf
0101000020E6100000B870446A907E52C015A864A2C85C4440,0101000020110F00002D7C2233226A5FC158B4163251F75241,THE DOOR-A CENTER OF ALTERNATIVES INC,710,EAST 9 STREET,710 EAST 9 STREET,NEW YORK,10009,MANHATTAN,1,1004530,1003780010,103,MN28,MN0303,2,01,9,002602,002602,SUPPORTED SRO-OMH,NON-RESIDENTIAL HOUSING AND HOMELESS SERVICES,HUMAN SERVICES,HEALTH AND HUMAN SERVICES,Local,THE DOOR-A CENTER OF ALTERNATIVES INC,,,NYC Department of Health and Mental Hygiene,NYCDOHMH,City,0,,40.7248728744,-73.9775643986,990468.641101,203368.077877,moeo_socialservicesitelocations,0e62d074d08a413b297417fe6d7f8cf7
0101000020E6100000AF767410028552C029C963CBA0524440,0101000020110F00009E1B7C4B14755FC173FBBF5EF1EB5241,PROJECT HOSPITALITY INC,150,RICHMOND TERRACE,150 RICHMOND TERRACE,STATEN ISLAND,10301,STATEN ISLAND,5,5000104,5000120001,501,SI22,SI0101,49,31,120,000700,000700,DROP-IN CENTERS,NON-RESIDENTIAL HOUSING AND HOMELESS SERVICES,HUMAN SERVICES,HEALTH AND HUMAN SERVICES,Local,PROJECT HOSPITALITY INC,,,NYC Department of Social Services,NYCDSS,City,0,,40.6455320588,-74.0782509936,962534.775668,174470.813649,moeo_socialservicesitelocations,0eac4569619ff83e60e7b291643b2522
0101000020E610000066A35B79577C52C0ACA7126197684440,0101000020110F00001241CECB5B665FC1123C160B8F045341,"IRIS HOUSE: A CENTER FOR WOMEN LIVING WITH HIV, INC.",2348,ADAM CLAYTON POWELL JR BOULEVARD,2348 ADAM CLAYTON POWELL JR BOULEVARD,NEW YORK,10030,MANHATTAN,1,1060221,1020230033,110,MN03,MN1002,9,05,32,022800,022800,SUPPORTED HOUSING-OMH,NON-RESIDENTIAL HOUSING AND HOMELESS SERVICES,HUMAN SERVICES,HEALTH AND HUMAN SERVICES,Local,"IRIS HOUSE: A CENTER FOR WOMEN LIVING WITH HIV, INC.",,,NYC Department of Health and Mental Hygiene,NYCDOHMH,City,0,,40.8171197261,-73.9428389925,1000071.80598,236981.050618,moeo_socialservicesitelocations,0f88f8095ba6b0f6966a29cced1abb62
0101000020E6100000095F791BED7952C0358425CF02554440,0101000020110F0000A552207041625FC1D4B7CC469CEE5241,CAMBA INC,603,MOTHER GASTON BOULEVARD,603 MOTHER GASTON BOULEVARD,BROOKLYN,11212,BROOKLYN,3,3416956,3037940028,316,BK81,BK1602,41,23,73,091000,091000,SUPPORTED SRO-OMH,NON-RESIDENTIAL HOUSING AND HOMELESS SERVICES,HUMAN SERVICES,HEALTH AND HUMAN SERVICES,Local,CAMBA INC,,,NYC Department of Health and Mental Hygiene,NYCDOHMH,City,0,,40.6641482291,-73.9050968818,1010578.96126,181257.764215,moeo_socialservicesitelocations,0fdf8c2a9a4da5808d4c9248b22db083
0101000020E61000009EDF67D5C67652C05A990848CB724440,0101000020110F00003919A6E6E75C5FC19A7A6FF303105341,PRAXIS HOUSING INITIATIVES INC,4339,WHITE PLAINS ROAD,4339 WHITE PLAINS ROAD,BRONX,10466,BRONX,2,2118535,2050390007,212,BX62,BX1203,11,11,47,041800,041800,SUPPORTED SRO-OMH,NON-RESIDENTIAL HOUSING AND HOMELESS SERVICES,HUMAN SERVICES,HEALTH AND HUMAN SERVICES,Local,PRAXIS HOUSING INITIATIVES INC,,,NYC Department of Health and Mental Hygiene,NYCDOHMH,City,0,,40.896828655,-73.8558858408,1024092.09617,266049.691546,moeo_socialservicesitelocations,1042507df7c1087c43c1c63d47ed9029
0101000020E6100000FEFBFFDD0D7C52C0EFE76E6B4B664440,0101000020110F0000184577C4DE655FC14F8E214FFB015341,"COLUMBA SERVICES,  INC.",209,EAST 118 STREET,209 EAST 118 STREET,NEW YORK,10035,MANHATTAN,1,1054517,1017830005,111,MN34,MN1102,8,04,25,018800,018800,SUPPORTED SRO-OMH,NON-RESIDENTIAL HOUSING AND HOMELESS SERVICES,HUMAN SERVICES,HEALTH AND HUMAN SERVICES,Local,"COLUMBA SERVICES,  INC.",,,NYC Department of Health and Mental Hygiene,NYCDOHMH,City,0,,40.7991766257,-73.9383463858,1001319.9321,230444.588168,moeo_socialservicesitelocations,11f2b15a8e384b074cae14ba9d8ac869
0101000020E6100000A2AC65AC797F52C0A54DBAC9A4604440,0101000020110F0000F4D89769AE6B5FC17673FED6A4FB5241,URBAN PATHWAYS INC,575,EIGHTH AVENUE,575 EIGHTH AVENUE,NEW YORK,10018,MANHATTAN,1,1013644,1007620033,104,MN15,MN0402,3,02,14,011500,011500,SUPPORTED HOUSING-OMH,NON-RESIDENTIAL HOUSING AND HOMELESS SERVICES,HUMAN SERVICES,HEALTH AND HUMAN SERVICES,Local,URBAN PATHWAYS INC,,,NYC Department of Health and Mental Hygiene,NYCDOHMH,City,0,,40.7550289304,-73.9918013561,986521.45031,214354.19496,moeo_socialservicesitelocations,12612a3966ccbee99420ca45dc851fe0
0101000020E610000031403A81677F52C0737B518947584440,0101000020110F0000E10E1D8D8F6B5FC10020C54B45F25241,ST VINCENT'S SERVICES INC,66,BOERUM PLACE,66 BOERUM PLACE,BROOKLYN,11201,BROOKLYN,3,3002801,3002770001,302,BK09,BK0201,33,15,84,000900,000900,SUPPORTED HOUSING-OMH,NON-RESIDENTIAL HOUSING AND HOMELESS SERVICES,HUMAN SERVICES,HEALTH AND HUMAN SERVICES,Local,ST VINCENT'S SERVICES INC,,,NYC Department of Health and Mental Hygiene,NYCDOHMH,City,0,,40.6896831177,-73.9906924309,986831.209853,190546.7315,moeo_socialservicesitelocations,143e0d40e1f1aae16bc0d0990a4b416e
0101000020E6100000FBE9FF97287D52C081156B5244634440,0101000020110F0000221FC801BF675FC157DB4ADD95FE5241,NEIGHBORHOOD COALITION FOR SHELTER INC,211,EAST 81 STREET,211 EAST 81 STREET,NEW YORK,10028,MANHATTAN,1,1048555,1015270006,108,MN32,MN0803,5,02,19,013800,013800,SUPPORTED SRO-OMH,NON-RESIDENTIAL HOUSING AND HOMELESS SERVICES,HUMAN SERVICES,HEALTH AND HUMAN SERVICES,Local,NEIGHBORHOOD COALITION FOR SHELTER INC,,,NYC Department of Health and Mental Hygiene,NYCDOHMH,City,0,,40.77552252,-73.9556026461,996546.588839,221823.696386,moeo_socialservicesitelocations,14a4a5aa8a7d5be1d88c0f1d28b66604
0101000020E6100000D5F1A57B697A52C007C51A35DF6C4440,0101000020110F0000E3B3DDB314635FC1849BCB1E5D095341,THE JERICHO PROJECT,89,WEST TREMONT AVENUE,89 WEST TREMONT AVENUE,BRONX,10453,BRONX,2,2114451,2028690047,205,BX36,BX0501,14,10,46,024300,024300,SUPPORTED SRO-OMH,NON-RESIDENTIAL HOUSING AND HOMELESS SERVICES,HUMAN SERVICES,HEALTH AND HUMAN SERVICES,Local,THE JERICHO PROJECT,,,NYC Department of Health and Mental Hygiene,NYCDOHMH,City,0,,40.8505617501,-73.9126881711,1008405.21621,249172.093111,moeo_socialservicesitelocations,154f23905b6340e3d800b5c44be497de
0101000020E6100000C02726B1107D52C025A399337B694440,0101000020110F0000E1574C6896675FC1E04891B98E055341,THE FORTUNE SOCIETY INC,625,WEST 140 STREET,625 WEST 140 STREET,NEW YORK,10031,MANHATTAN,1,1089154,1020880016,109,MN04,MN0903,7,06,30,022500,022500,SUPPORTED SRO-OMH,NON-RESIDENTIAL HOUSING AND HOMELESS SERVICES,HUMAN SERVICES,HEALTH AND HUMAN SERVICES,Local,THE FORTUNE SOCIETY INC,,,NYC Department of Health and Mental Hygiene,NYCDOHMH,City,0,,40.8240723135,-73.954143798,996941.381458,239512.289477,moeo_socialservicesitelocations,16284dfa7c930bf54d5ca66da03c7100
0101000020E610000098767D6C8A7E52C0A6CE1A9BE1644440,0101000020110F00004215DC05186A5FC13D71746A65005341,WEST SIDE FEDERATION FOR SENIOR AND SUPPORTIVE HOUSING INC,2345,BROADWAY,2345 BROADWAY,NEW YORK,10024,MANHATTAN,1,1081052,1012330011,107,MN12,MN0702,6,03,20,017100,017100,SUPPORTED SRO-OMH,NON-RESIDENTIAL HOUSING AND HOMELESS SERVICES,HUMAN SERVICES,HEALTH AND HUMAN SERVICES,Local,WEST SIDE FEDERATION FOR SENIOR AND SUPPORTIVE HOUSING INC,,,NYC Department of Health and Mental Hygiene,NYCDOHMH,City,0,,40.7881349447,-73.9771987172,990564.000272,226416.536286,moeo_socialservicesitelocations,177db5272f0e65282d62c6580db7b5db
0101000020E61000002729DC47AB7C52C00970FDE600594440,0101000020110F00007DB36F26EA665FC1A484CAED14F35241,CAMBA INC,854,MYRTLE AVENUE,854 MYRTLE AVENUE,BROOKLYN,11206,BROOKLYN,3,3391267,3017550020,303,BK75,BK0301,36,14,79,025901,025901,SUPPORTED SRO-OMH,NON-RESIDENTIAL HOUSING AND HOMELESS SERVICES,HUMAN SERVICES,HEALTH AND HUMAN SERVICES,Local,CAMBA INC,,,NYC Department of Health and Mental Hygiene,NYCDOHMH,City,0,,40.6953400362,-73.947954144,998682.325923,192611.863522,moeo_socialservicesitelocations,1800d05ef42f592869a3b98c6861d34f
0101000020E61000009D411DAE7F7C52C0BD8C903A58674440,0101000020110F000084891617A0665FC1766725E928035341,WESTON UNITED COMMUNITY RENEWAL INC.,290,LENOX AVENUE,290 LENOX AVENUE,NEW YORK,10027,MANHATTAN,1,1053487,1017220069,110,MN11,MN1001,9,05,28,020000,020000,SUPPORTED HOUSING-OMH,NON-RESIDENTIAL HOUSING AND HOMELESS SERVICES,HUMAN SERVICES,HEALTH AND HUMAN SERVICES,Local,WESTON UNITED COMMUNITY RENEWAL INC.,,,NYC Department of Health and Mental Hygiene,NYCDOHMH,City,0,,40.807380028,-73.945292977,999394.774799,233432.098036,moeo_socialservicesitelocations,1a403f68768bc06aa88c72cb9e1e73fd
0101000020E610000031A84240F07C52C0715596C7CC674440,0101000020110F000096EE9B4D5F675FC1F50502B1AB035341,ALI FORNEY CENTER,321,WEST 125 STREET,321 WEST 125 STREET,NEW YORK,10027,MANHATTAN,1,1059310,1019520019,110,MN11,MN1001,9,05,28,025700,025700,DROP-IN CENTER,NON-RESIDENTIAL HOUSING AND HOMELESS SERVICES,HUMAN SERVICES,HEALTH AND HUMAN SERVICES,Local,ALI FORNEY CENTER,,,NYC Department of Youth and Community Development,NYCDYCD,City,0,,40.810936879,-73.9521637587,997491.999979,234726.871624,moeo_socialservicesitelocations,1a65ad5aee6f6ea6a9c095f4706d6911
0101000020E61000000724070F6D7852C06D502FE21F574440,0101000020110F00009EB9BF17B55F5FC196E7172AFAF05241,CATHOLIC CHARITIES NEIGHBORHOOD SERVICES INC,3060,FULTON STREET,3060 FULTON STREET,BROOKLYN,11208,BROOKLYN,3,3402450,3039580020,305,BK82,BK0501,37,19,75,116800,116800,HOMEBASE HOMELESSNESS PREVENTION,NON-RESIDENTIAL HOUSING AND HOMELESS SERVICES,HUMAN SERVICES,HEALTH AND HUMAN SERVICES,Local,CATHOLIC CHARITIES NEIGHBORHOOD SERVICES INC,,,NYC Department of Social Services,NYCDSS,City,0,,40.6806605083,-73.8816564148,1017073.91635,187281.568077,moeo_socialservicesitelocations,0b7963c15c7891aee91f2c8e14ba1375
0101000020E6100000C5AD105BCF7E52C0C5B270CAB8574440,0101000020110F000041DB571C8D6A5FC1558E456AA5F15241,LUTHERAN SOCIAL SERVICES OF METROPOLITAN NEW YORK INC,510,ATLANTIC AVENUE,510 ATLANTIC AVENUE,BROOKLYN,11217,BROOKLYN,3,3000979,3001850019,302,BK38,BK0202,33,15,84,003900,003900,SUPPORTED SRO-OMH,NON-RESIDENTIAL HOUSING AND HOMELESS SERVICES,HUMAN SERVICES,HEALTH AND HUMAN SERVICES,Local,LUTHERAN SOCIAL SERVICES OF METROPOLITAN NEW YORK INC,,,NYC Department of Health and Mental Hygiene,NYCDOHMH,City,0,,40.685326867,-73.9814059893,989406.897398,188960.03252,moeo_socialservicesitelocations,1c4d048157a8fc84ad5146e9d02086bd
0101000020E61000003DB1FA9BB57C52C00DE93C6E9A674440,0101000020110F00008D2DBDB1FB665FC1A900C33173035341,SAFE HORIZON INC,209,WEST 125 STREET,209 WEST 125 STREET,NEW YORK,10027,MANHATTAN,1,1058660,1019310027,110,MN11,MN1001,9,05,28,022200,022200,DROP-IN CENTER,NON-RESIDENTIAL HOUSING AND HOMELESS SERVICES,HUMAN SERVICES,HEALTH AND HUMAN SERVICES,Local,SAFE HORIZON INC,,,NYC Department of Youth and Community Development,NYCDYCD,City,0,,40.8094003488,-73.9485845521,998483.122311,234167.620438,moeo_socialservicesitelocations,1d0dfc8dfe036d73096354d7dbb4c353
0101000020E61000007210EC0ED47A52C0043E061E766C4440,0101000020110F00001F9240BBC9635FC10CD3F520E7085341,"THE PUERTO RICAN ORGANIZATION TO MOTIVATE, ENLIGHTEN AND SER",1628,UNIVERSITY AVENUE,1628 UNIVERSITY AVENUE,BRONX,10453,BRONX,2,2008825,2028760082,205,BX36,BX0501,14,09,46,021502,021502,SUPPORTED SRO-OMH,NON-RESIDENTIAL HOUSING AND HOMELESS SERVICES,HUMAN SERVICES,HEALTH AND HUMAN SERVICES,Local,"THE PUERTO RICAN ORGANIZATION TO MOTIVATE, ENLIGHTEN AND SER",,,NYC Department of Health and Mental Hygiene,NYCDOHMH,City,0,,40.8473546535,-73.9191930112,1006606.7009,248001.899756,moeo_socialservicesitelocations,1d15e2cb192fc2df83008ddfe4069873
0101000020E6100000BFD2EDD4E17E52C0F7B6829F035C4440,0101000020110F00000E2E7E7EAC6A5FC16326D56B74F65241,"BOWERY RESIDENTS' COMMITTEE, INC.",93,PITT STREET,93 PITT STREET,NEW YORK,10002,MANHATTAN,1,1004101,1003440065,103,MN28,MN0302,2,01,7,002201,002201,"SUPPORTED HOUSING-OMH, SUPPORTED SRO-OMH, NON-MEDICAID CARE COORDINATION (OMH)-OMH",NON-RESIDENTIAL HOUSING AND HOMELESS SERVICES,HUMAN SERVICES,HEALTH AND HUMAN SERVICES,Local,"BOWERY RESIDENTS' COMMITTEE, INC.",,,NYC Department of Health and Mental Hygiene,NYCDOHMH,City,0,,40.718860568,-73.982533676,989091.706626,201177.295919,moeo_socialservicesitelocations,1dc81e0bf86bed6a0d7be8f03cf2831f
0101000020E6100000CD8839F3B57E52C0CF058B4A4F5C4440,0101000020110F0000DB70EAF4616A5FC1BE7EC336C9F65241,HENRY STREET SETTLEMENT,290,EAST THIRD STREET,290 EAST THIRD STREET,NEW YORK,10009,MANHATTAN,1,1004358,1003720018,103,MN28,MN0303,2,01,9,002202,002202,SUPPORTED SRO-OMH,NON-RESIDENTIAL HOUSING AND HOMELESS SERVICES,HUMAN SERVICES,HEALTH AND HUMAN SERVICES,Local,HENRY STREET SETTLEMENT,,,NYC Department of Health and Mental Hygiene,NYCDOHMH,City,0,,40.7211697748,-73.9798553527,989833.950743,202018.770185,dfta_contracts,20a38542ac1d9ca846a7e650678d4939
0101000020E6100000881E7600A77852C03A021D54FC564440,0101000020110F0000A812D48317605FC109288958D2F05241,CYPRESS HILLS LOCAL DEVELOPMENT CORP. INC.,2966,FULTON STREET,2966 FULTON STREET,BROOKLYN,11208,BROOKLYN,3,3087997,3039540019,305,BK82,BK0501,37,19,75,117000,117000,HOUSING SUPPORT,NON-RESIDENTIAL HOUSING AND HOMELESS SERVICES,HUMAN SERVICES,HEALTH AND HUMAN SERVICES,Local,CYPRESS HILLS LOCAL DEVELOPMENT CORP. INC.,,,NYC Department of Youth and Community Development,NYCDYCD,City,0,,40.6795754564,-73.8851929817,1016093.52866,186884.947347,moeo_socialservicesitelocations,20cd481c85eb4a86249c39c8d5d0e593
0101000020E6100000A0FD94A12F7C52C0CC4221D6BA664440,0101000020110F000037B6751E18665FC186A6345078025341,"BAILEY HOUSE, INC",1751,PARK AVENUE,1751 PARK AVENUE,NEW YORK,10035,MANHATTAN,1,1089077,1017700072,111,MN34,MN1102,9,04,25,019600,019600,SUPPORTED HOUSING-OMH,NON-RESIDENTIAL HOUSING AND HOMELESS SERVICES,HUMAN SERVICES,HEALTH AND HUMAN SERVICES,Local,"BAILEY HOUSE, INC",,,NYC Department of Health and Mental Hygiene,NYCDOHMH,City,0,,40.8025767954,-73.9404071764,1000748.52181,231682.993898,moeo_socialservicesitelocations,21abb7547c5eeceac63a161bc6c04370
0101000020E61000005A337A32E37D52C02BEE4DFFB5664440,0101000020110F0000A8C1BEF8FB685FC1381245E272025341,THE BRIDGE INC,248,WEST 108 STREET,248 WEST 108 STREET,NEW YORK,10025,MANHATTAN,1,1056670,1018790057,107,MN09,MN0703,7,03,24,019500,019500,"SUPPORTED HOUSING-OMH, ASSERTIVE COMMUNITY TREATMENT-OMH",NON-RESIDENTIAL HOUSING AND HOMELESS SERVICES,HUMAN SERVICES,HEALTH AND HUMAN SERVICES,Local,THE BRIDGE INC,,,NYC Department of Health and Mental Hygiene,NYCDOHMH,City,0,,40.8024291162,-73.9669920152,993388.419061,231625.298919,moeo_socialservicesitelocations,2300c9aba4b51d0a7f22986b933a5cb3
0101000020E6100000285599DE6A8852C05BC1E737E8514440,0101000020110F0000AE1BA8D7DE7A5FC1C8A4B5C622EB5241,PROJECT HOSPITALITY INC,27,PORT RICHMOND AVENUE,27 PORT RICHMOND AVENUE,STATEN ISLAND,10302,STATEN ISLAND,5,5023694,5010030010,501,SI28,SI0106,49,31,121,020700,020702,DROP-IN CENTER,NON-RESIDENTIAL HOUSING AND HOMELESS SERVICES,HUMAN SERVICES,HEALTH AND HUMAN SERVICES,Local,PROJECT HOSPITALITY INC,,,NYC Department of Youth and Community Development,NYCDYCD,City,0,,40.6398992426,-74.1315227978,947748.387105,172436.328754,moeo_socialservicesitelocations,252aea2228d5315418c7736f2b0f524a
0101000020E610000073CC9671178052C00A5B88D9C05B4440,0101000020110F0000E32BB366BA6C5FC135452A9929F65241,NORTHERN MANHATTAN IMPROVEMENT CORPORATION,111,CENTRE STREET,111 CENTRE STREET,NEW YORK,10013,MANHATTAN,1,1001833,1001690010,101,MN24,MN0102,1,02,5,003100,003100,HOUSING SUPPORT,NON-RESIDENTIAL HOUSING AND HOMELESS SERVICES,HUMAN SERVICES,HEALTH AND HUMAN SERVICES,Local,NORTHERN MANHATTAN IMPROVEMENT CORPORATION,,,NYC Department of Youth and Community Development,NYCDYCD,City,0,,40.716822807,-74.0014308907,983853.341551,200434.397784,moeo_socialservicesitelocations,252ffaaf129b898a949e8d47bcb9c6dd
0101000020E6100000235C216F668052C0DB727C03725A4440,0101000020110F000073C70593406D5FC1FB81986EB2F45241,"BOWERY RESIDENTS' COMMITTEE, INC.",125,MAIDEN LANE,125 MAIDEN LANE,NEW YORK,10038,MANHATTAN,1,1087484,1000707501,101,MN25,MN0101,1,02,1,001502,001502,"SUPPORTED HOUSING-OMH, SUPPORTED SRO-OMH, NON-MEDICAID CARE COORDINATION (OMH)-OMH",NON-RESIDENTIAL HOUSING AND HOMELESS SERVICES,HUMAN SERVICES,HEALTH AND HUMAN SERVICES,Local,"BOWERY RESIDENTS' COMMITTEE, INC.",,,NYC Department of Health and Mental Hygiene,NYCDOHMH,City,0,,40.7066044194,-74.0062520817,982516.589345,196711.588237,moeo_socialservicesitelocations,2621feba77121ad0a09e3f65f11dce4c
0101000020E6100000C47A4096397952C0420C98217F694440,0101000020110F000061E1288110615FC14EA0A32293055341,"PALLADIA, INC.",1015,FOX STREET,1015 FOX STREET,BRONX,10459,BRONX,2,2116192,2027170063,202,BX27,BX0202,17,12,41,012701,012701,SUPPORTED SRO-OMH,NON-RESIDENTIAL HOUSING AND HOMELESS SERVICES,HUMAN SERVICES,HEALTH AND HUMAN SERVICES,Local,"PALLADIA, INC.",,,NYC Department of Health and Mental Hygiene,NYCDOHMH,City,0,,40.8241922368,-73.8941398271,1013548.30841,239570.363308,moeo_socialservicesitelocations,2623f88371d9896186ecd176aa7413fc
0101000020E6100000EC26745F017A52C09FE97CE724574440,0101000020110F00005B836EDC63625FC1CBDF89C9FFF05241,RISEBORO COMMUNITY PARTNERSHIP INC,1875,BROADWAY,1875 BROADWAY,BROOKLYN,11207,BROOKLYN,3,0,3034680065,304,BK78,BK0402,37,32,83,040500,040500,HOMEBASE HOMELESSNESS PREVENTION,NON-RESIDENTIAL HOUSING AND HOMELESS SERVICES,HUMAN SERVICES,HEALTH AND HUMAN SERVICES,Local,RISEBORO COMMUNITY PARTNERSHIP INC,,,NYC Department of Social Services,NYCDSS,City,0,,40.6808137282,-73.9063337934,1010229.31278,187329.10764,moeo_socialservicesitelocations,10f27fd6053b8582ca1e56452a2b31f9
0101000020E61000004399185DD27A52C0D519FEB2AE504440,0101000020110F00008EE45ADAC6635FC1142BD3E5C3E95241,CATHOLIC CHARITIES NEIGHBORHOOD SERVICES INC,1900A,RALPH AVENUE,1900A RALPH AVENUE,BROOKLYN,11236,BROOKLYN,3,3214956,3077630001,318,BK58,BK1801,46,22,63,072000,072000,HOMEBASE HOMELESSNESS PREVENTION,NON-RESIDENTIAL HOUSING AND HOMELESS SERVICES,HUMAN SERVICES,HEALTH AND HUMAN SERVICES,Local,CATHOLIC CHARITIES NEIGHBORHOOD SERVICES INC,,,NYC Department of Social Services,NYCDSS,City,0,,40.630331396,-73.9190895781,1006708.35023,168933.473815,moeo_socialservicesitelocations,1350565d2a4242c129d1ba40f48bce71
0101000020E6100000639F007C6E7C52C0EB3B3DDCA8664440,0101000020110F0000EB77A8E182665FC1ED6FFF2464025341,VOLUNTEERS OF AMERICA GREATER NEW YORK INC,22,EAST 119 STREET,22 EAST 119 STREET,NEW YORK,10035,MANHATTAN,1,1076434,1017450005,111,MN34,MN1102,9,05,25,018400,018400,SUPPORTED SRO-OMH,NON-RESIDENTIAL HOUSING AND HOMELESS SERVICES,HUMAN SERVICES,HEALTH AND HUMAN SERVICES,Local,VOLUNTEERS OF AMERICA GREATER NEW YORK INC,,,NYC Department of Health and Mental Hygiene,NYCDOHMH,City,0,,40.8020282078,-73.9442434312,999686.566029,231482.424917,moeo_socialservicesitelocations,276ea06c487edce585b8070baef618d0
0101000020E6100000FE6C66D0807D52C0ECF6EF059F594440,0101000020110F00009C93A8DB54685FC1BFCAD10EC6F35241,"UNITED JEWISH ORGANIZATIONS OF WILLIAMSBURG, INC",32,PENN STREET,32 PENN STREET,BROOKLYN,11249,BROOKLYN,3,3335305,3022160013,301,BK72,BK0103,33,14,90,053700,053700,HOUSING SUPPORT,NON-RESIDENTIAL HOUSING AND HOMELESS SERVICES,HUMAN SERVICES,HEALTH AND HUMAN SERVICES,Local,"UNITED JEWISH ORGANIZATIONS OF WILLIAMSBURG, INC",,,NYC Department of Youth and Community Development,NYCDYCD,City,0,,40.7001655028,-73.9609871861,995067.478132,194368.045412,moeo_socialservicesitelocations,27d6d94958396968d4047d567f5da6f0
0101000020E610000045E0BD179D7E52C0C78FF4F98B5F4440,0101000020110F00002245E6BB376A5FC1BC7742056AFA5241,POSTGRADUATE CENTER FOR MENTAL HEALTH,158,EAST 35 STREET,158 EAST 35 STREET,NEW YORK,10016,MANHATTAN,1,1018532,1008900053,106,MN20,MN0603,2,02,17,007200,007200,SUPPORTED HOUSING-OMH,NON-RESIDENTIAL HOUSING AND HOMELESS SERVICES,HUMAN SERVICES,HEALTH AND HUMAN SERVICES,Local,POSTGRADUATE CENTER FOR MENTAL HEALTH,,,NYC Department of Health and Mental Hygiene,NYCDOHMH,City,0,,40.7464592407,-73.9783381798,990252.221646,211232.616433,moeo_socialservicesitelocations,2b941fc1dcbc0f3e7ef85f15953145c2
0101000020E6100000520222E0A87D52C0E83E522B14534440,0101000020110F0000C0760DE898685FC1AE653E8472EC5241,CAMBA INC,1720,CHURCH AVENUE,1720 CHURCH AVENUE,BROOKLYN,11226,BROOKLYN,3,3341487,3050970085,314,BK42,BK1401,40,17,70,051200,051200,"NY NY III SUPPORTED HOUSING-OMH, SUPPORTED HOUSING-OMH",NON-RESIDENTIAL HOUSING AND HOMELESS SERVICES,HUMAN SERVICES,HEALTH AND HUMAN SERVICES,Local,CAMBA INC,,,NYC Department of Health and Mental Hygiene,NYCDOHMH,City,0,,40.6490530154,-73.9634323438,994397.258208,175746.01356,moeo_socialservicesitelocations,2bed7eeace9be082a2b6b2a03472bdb2
0101000020E6100000ECEC91874E8052C03FD6BE8E375D4440,0101000020110F0000016855F8176D5FC18C32CF81CDF75241,PROJECT RENEWAL INC,200,VARICK STREET,200 VARICK STREET,NEW YORK,10014,MANHATTAN,1,1008118,1005200001,102,MN24,MN0201,3,02,1,003700,003700,"SUPPORTED SRO-OMH, ON-SITE REHABILITATION-OMH, ASSISTED COMPETITIVE EMPLOYMENT-OMH, HOMELESS PLACEMENT SERVICES (NON-LICENSED PROGRAM)-OMH",NON-RESIDENTIAL HOUSING AND HOMELESS SERVICES,HUMAN SERVICES,HEALTH AND HUMAN SERVICES,Local,PROJECT RENEWAL INC,,,NYC Department of Health and Mental Hygiene,NYCDOHMH,City,0,,40.7282579834,-74.0047930649,982921.538309,204600.618079,moeo_socialservicesitelocations,2c286d42c988e6792d3bbe75ad2a949f
0101000020E6100000A1A5735B5C8052C0A9572915AD5C4440,0101000020110F000010CF2D752F6D5FC1FCF3CC5132F75241,THE DOOR-A CENTER OF ALTERNATIVES INC,555,BROOME STREET,555 BROOME STREET,NEW YORK,10013,MANHATTAN,1,0,1004777502,102,MN24,MN0201,3,02,1,003700,003700,DROP-IN CENTER,NON-RESIDENTIAL HOUSING AND HOMELESS SERVICES,HUMAN SERVICES,HEALTH AND HUMAN SERVICES,Local,THE DOOR-A CENTER OF ALTERNATIVES INC,,,NYC Department of Youth and Community Development,NYCDYCD,City,0,,40.7240320637,-74.0056370376,982687.520987,203060.998487,moeo_socialservicesitelocations,2d2233cde122dbf17ad60b80e2fc3291
0101000020E61000000E8419FB8ED961C000000000008056C0,,SCO FAMILY OF SERVICES,,,,,,,0,0,0,0,,,0,,0,,,SUPPORTED HOUSING-OMH,NON-RESIDENTIAL HOUSING AND HOMELESS SERVICES,HUMAN SERVICES,HEALTH AND HUMAN SERVICES,Local,SCO FAMILY OF SERVICES,,,NYC Department of Health and Mental Hygiene,NYCDOHMH,City,0,,0,0,0,0,moeo_socialservicesitelocations,2e1c48c5a6c34ed009b21359e2cb6f3d
0101000020E6100000788ACDC18E7A52C03C29BE692B674440,0101000020110F0000220B2D0454635FC1E52312A0F6025341,BARRIER FREE LIVING INC,637,EAST 138 STREET,637 EAST 138 STREET,BRONX,10454,BRONX,2,2119743,2025510040,201,BX39,BX0101,8,07,40,002702,002702,SUPPORTED SRO-OMH,NON-RESIDENTIAL HOUSING AND HOMELESS SERVICES,HUMAN SERVICES,HEALTH AND HUMAN SERVICES,Local,BARRIER FREE LIVING INC,,,NYC Department of Health and Mental Hygiene,NYCDOHMH,City,0,,40.8060123611,-73.9149631982,1007791.57631,232940.506172,moeo_socialservicesitelocations,2e65b083abc3a67d21793295fdc4c175
0101000020E6100000CD0250BADC7952C04B772E17796F4440,0101000020110F000090909E9D25625FC1D9F71EE2480C5341,THE JERICHO PROJECT,2701,KINGSBRIDGE TERRACE,2701 KINGSBRIDGE TERRACE,BRONX,10463,BRONX,2,2015674,2032560005,208,BX28,BX0801,14,10,50,027300,027300,SUPPORTED SRO-OMH,NON-RESIDENTIAL HOUSING AND HOMELESS SERVICES,HUMAN SERVICES,HEALTH AND HUMAN SERVICES,Local,THE JERICHO PROJECT,,,NYC Department of Health and Mental Hygiene,NYCDOHMH,City,0,,40.87088289,-73.9040971545,1010773.85351,256578.351577,moeo_socialservicesitelocations,2f16c4ea7e8a59b674741eba3ed5500b
0101000020E6100000DA170BFB8D7F52C0F6477160595F4440,0101000020110F00001C4D04E8D06B5FC1DC011E4C31FA5241,"BOWERY RESIDENTS' COMMITTEE, INC.",131,WEST 25 STREET,131 WEST 25 STREET,NEW YORK,10001,MANHATTAN,1,1015006,1008017503,104,MN13,MN0401,3,02,13,009100,009100,SUPPORTED HOUSING-OMH,NON-RESIDENTIAL HOUSING AND HOMELESS SERVICES,HUMAN SERVICES,HEALTH AND HUMAN SERVICES,Local,"BOWERY RESIDENTS' COMMITTEE, INC.",,,NYC Department of Health and Mental Hygiene,NYCDOHMH,City,0,,40.7449150617,-73.99304081,986178.349915,210669.357084,moeo_socialservicesitelocations,2f44b6acebeb05322f5b7feefaa3e5d4
0101000020E6100000B5B3EE77F08052C03EC1E0DFB35A4440,0101000020110F00006E09230A2B6E5FC1836B9D38FCF45241,MANHATTAN LEGAL SERVICES,40,RECTOR STREET,40 RECTOR STREET,NEW YORK,10006,MANHATTAN,1,1088750,1000557501,101,MN25,MN0101,1,02,1,001300,001300,HOUSING SUPPORT,NON-RESIDENTIAL HOUSING AND HOMELESS SERVICES,HUMAN SERVICES,HEALTH AND HUMAN SERVICES,Local,MANHATTAN LEGAL SERVICES,,,NYC Department of Youth and Community Development,NYCDYCD,City,0,,40.708614335,-74.0146770311,980180.866533,197444.140018,moeo_socialservicesitelocations,30e781661411482c16f54cb0bffddff7
0101000020E61000008598169F9F7952C0E4F527E32A564440,0101000020110F0000935F07D2BD615FC1C3F966CDE7EF5241,HELP SOCIAL SERVICE CORPORATION,116,WILLIAMS AVENUE,116 WILLIAMS AVENUE,BROOKLYN,11207,BROOKLYN,3,3083637,3036990001,305,BK85,BK0502,37,19,75,114400,114400,SHELTER INTAKE,NON-RESIDENTIAL HOUSING AND HOMELESS SERVICES,HUMAN SERVICES,HEALTH AND HUMAN SERVICES,Local,HELP SOCIAL SERVICE CORPORATION,,,NYC Department of Social Services,NYCDSS,City,0,,40.6731838174,-73.9003675198,1011887.28288,184551.139807,moeo_socialservicesitelocations,32b311c3d3f274afeb2520f50d4f9e3d
0101000020E61000000E8419FB8ED961C000000000008056C0,,COMMON GROUND MANAGEMENT CORP,,,,,,,0,0,0,0,,,0,,0,,,ADULT OUTREACH SERVICE,NON-RESIDENTIAL HOUSING AND HOMELESS SERVICES,HUMAN SERVICES,HEALTH AND HUMAN SERVICES,Local,COMMON GROUND MANAGEMENT CORP,,,NYC Department of Social Services,NYCDSS,City,0,,0,0,0,0,moeo_socialservicesitelocations,32c6d13d8fd603fc374850ccb149a3a7
0101000020E61000005D498458777652C0A4E369A1216A4440,0101000020110F0000435E03E2605C5FC18805C28549065341,CATHOLIC CHARITIES COMMUNITY SERVICES ARCHDIOCESE OF NY,2155,BLACKROCK AVENUE,2155 BLACKROCK AVENUE,BRONX,10472,BRONX,2,2119153,2038080038,209,BX59,BX0903,18,08,43,007800,007800,HOMEBASE HOMELESSNESS PREVENTION,NON-RESIDENTIAL HOUSING AND HOMELESS SERVICES,HUMAN SERVICES,HEALTH AND HUMAN SERVICES,Local,CATHOLIC CHARITIES COMMUNITY SERVICES ARCHDIOCESE OF NY,,,NYC Department of Social Services,NYCDSS,City,0,,40.8291513223,-73.8510342877,1025475.29712,241394.489453,moeo_socialservicesitelocations,1ebfc3b5cb8739597f3bc70f8fbbda23
0101000020E61000002273B0B25C7952C0F3BD4A1105554440,0101000020110F0000F1D1EC244C615FC15B901ECE9EEE5241,CATHOLIC CHARITIES NEIGHBORHOOD SERVICES INC,560,LIVONIA AVENUE,560 LIVONIA AVENUE,BROOKLYN,11207,BROOKLYN,3,3418179,3038207501,305,BK85,BK0503,42,19,75,113000,113000,HOMEBASE HOMELESSNESS PREVENTION,NON-RESIDENTIAL HOUSING AND HOMELESS SERVICES,HUMAN SERVICES,HEALTH AND HUMAN SERVICES,Local,CATHOLIC CHARITIES NEIGHBORHOOD SERVICES INC,,,NYC Department of Social Services,NYCDSS,City,0,,40.6642171495,-73.8962828372,1013024.20984,181285.646099,moeo_socialservicesitelocations,24db11b7d3a559a874dd0c2f5d38c069
0101000020E6100000114058CF4C7C52C0232D3106CC6A4440,0101000020110F0000F47D9AAE49665FC11F19EDC808075341,COMMUNITY ACCESS INC,518,WEST 159 STREET,518 WEST 159 STREET,NEW YORK,10032,MANHATTAN,1,1088115,1021170026,112,MN36,MN1201,7,06,33,024500,024500,SUPPORTED SRO-OMH,NON-RESIDENTIAL HOUSING AND HOMELESS SERVICES,HUMAN SERVICES,HEALTH AND HUMAN SERVICES,Local,COMMUNITY ACCESS INC,,,NYC Department of Health and Mental Hygiene,NYCDOHMH,City,0,,40.8343513244,-73.9421881071,1000247.82352,243259.267587,moeo_socialservicesitelocations,32e0d1bf8db38ebbd70d16d88851c294
0101000020E610000044C16721B27B52C02A938E4812594440,0101000020110F00009BC784F142655FC1AA6E176628F35241,CAMBA INC,880,WILLOUGHBY AVENUE,880 WILLOUGHBY AVENUE,BROOKLYN,11221,BROOKLYN,3,3072828,3032040008,304,BK78,BK0401,34,32,83,039300,039300,SUPPORTED SRO-OMH,NON-RESIDENTIAL HOUSING AND HOMELESS SERVICES,HUMAN SERVICES,HEALTH AND HUMAN SERVICES,Local,CAMBA INC,,,NYC Department of Health and Mental Hygiene,NYCDOHMH,City,0,,40.6958704661,-73.9327472223,1002899.05914,192807.986234,moeo_socialservicesitelocations,34a97d702faba97bb32ca88c772ec0a3
0101000020E610000096A9BFAB657D52C09C75EFFB284F4440,0101000020110F0000EDC1ACC026685FC10B2B5DD00FE85241,COUNCIL OF JEWISH ORGANIZATIONS OF FLATBUSH INC,1523,AVENUE M,1523 AVENUE M,BROOKLYN,11230,BROOKLYN,3,3406670,3067350044,314,BK43,BK1403,44,21,70,076800,076800,HOUSING SUPPORT,NON-RESIDENTIAL HOUSING AND HOMELESS SERVICES,HUMAN SERVICES,HEALTH AND HUMAN SERVICES,Local,COUNCIL OF JEWISH ORGANIZATIONS OF FLATBUSH INC,,,NYC Department of Youth and Community Development,NYCDYCD,City,0,,40.6184382364,-73.9593304988,995540.668702,164592.729357,moeo_socialservicesitelocations,34d1eb54e1f5ce47c0067e124d682dbf
0101000020E610000066089456937952C03B632B43BB6C4440,0101000020110F00004B1AC3F4A8615FC1015205C334095341,CENTER FOR URBAN COMMUNITY SERVICES INC,411,EAST 178 STREET,411 EAST 178 STREET,BRONX,10457,BRONX,2,2127101,2030280003,206,BX41,BX0502,15,10,48,037900,037900,SUPPORTED SRO-OMH,NON-RESIDENTIAL HOUSING AND HOMELESS SERVICES,HUMAN SERVICES,HEALTH AND HUMAN SERVICES,Local,CENTER FOR URBAN COMMUNITY SERVICES INC,,,NYC Department of Health and Mental Hygiene,NYCDOHMH,City,0,,40.8494647946,-73.8996178099,1012021.64785,248776.30476,moeo_socialservicesitelocations,379d3f7437da7cb0c696e7a4bb022369
0101000020E61000000E8419FB8ED961C000000000008056C0,,ST. JOSEPH'S HOSPITAL,,,,,,,0,0,0,0,,,0,,0,,,"SUPPORTED HOUSING-OMH, ASSERTIVE COMMUNITY TREATMENT-OMH, SUPPORTED SRO-OMH, RESPITE-OMH",NON-RESIDENTIAL HOUSING AND HOMELESS SERVICES,HUMAN SERVICES,HEALTH AND HUMAN SERVICES,Local,ST. JOSEPH'S HOSPITAL,,,NYC Department of Health and Mental Hygiene,NYCDOHMH,City,0,,0,0,0,0,moeo_socialservicesitelocations,390607ce326a55031bc81a9bcfb8fd29
0101000020E6100000685859C6237F52C0307933E75F5B4440,0101000020110F00003E9548811C6B5FC16E1203F8BCF55241,UNITED JEWISH COUNCIL OF THE EAST SIDE INC,219,HENRY STREET,219 HENRY STREET,NEW YORK,10002,MANHATTAN,1,1003709,1002860006,103,MN28,MN0301,1,01,7,000201,000201,SUPPORTED SRO-OMH,NON-RESIDENTIAL HOUSING AND HOMELESS SERVICES,HUMAN SERVICES,HEALTH AND HUMAN SERVICES,Local,UNITED JEWISH COUNCIL OF THE EAST SIDE INC,,,NYC Department of Health and Mental Hygiene,NYCDOHMH,City,0,,40.7138642314,-73.9865585201,987976.289565,199356.781184,moeo_socialservicesitelocations,3bf7ff7e9c0d159ecaf5cca74ae0872a
0101000020E6100000EECABA106C7A52C07D23513B916C4440,0101000020110F0000E784C71619635FC1589D429205095341,COMMUNITY ACCESS INC,1750,DAVIDSON AVENUE,1750 DAVIDSON AVENUE,BRONX,10453,BRONX,2,2115886,2028610067,205,BX36,BX0501,14,09,46,021700,021700,SUPPORTED SRO-OMH,NON-RESIDENTIAL HOUSING AND HOMELESS SERVICES,HUMAN SERVICES,HEALTH AND HUMAN SERVICES,Local,COMMUNITY ACCESS INC,,,NYC Department of Health and Mental Hygiene,NYCDOHMH,City,0,,40.8481821196,-73.9128457856,1008362.47406,248305.06039,moeo_socialservicesitelocations,3c96af72ef06bf65903a117deb3edf83
0101000020E6100000B8FD6631627552C0DA6C248521614440,0101000020110F000016D4671C8A5A5FC1129ACAB030FC5241,ASIAN AMERICANS FOR EQUALITY INC,133-04,39 AVENUE,133-04 39 AVENUE,FLUSHING,11354,QUEENS,4,0,4049730006,407,QN22,QN0707,20,25,109,087100,087100,HOUSING SUPPORT,NON-RESIDENTIAL HOUSING AND HOMELESS SERVICES,HUMAN SERVICES,HEALTH AND HUMAN SERVICES,Local,ASIAN AMERICANS FOR EQUALITY INC,,,NYC Department of Youth and Community Development,NYCDYCD,City,0,,40.7588354515,-73.8341182242,1030205.21635,215784.440706,moeo_socialservicesitelocations,3e9c9f243fad55d698114123c4da46b9
0101000020E610000095B8CDACAF7952C052A6AE29B86E4440,0101000020110F0000C039CB16D9615FC1B15D6E35700B5341,GEEL COMMUNITY SERVICES INC,2516,GRAND AVENUE,2516 GRAND AVENUE,BRONX,10468,BRONX,2,2014427,2032040009,207,BX30,BX0701,14,10,52,026500,026500,SUPPORTED SRO-OMH,NON-RESIDENTIAL HOUSING AND HOMELESS SERVICES,HUMAN SERVICES,HEALTH AND HUMAN SERVICES,Local,GEEL COMMUNITY SERVICES INC,,,NYC Department of Health and Mental Hygiene,NYCDOHMH,City,0,,40.8649952035,-73.9013473519,1011536.78203,254434.082779,moeo_socialservicesitelocations,4026b129fd1fc50be1feda9436fdf236
0101000020E6100000868FA9CBEF7652C0E54CD3B123734440,0101000020110F000030619C7A2D5D5FC17C41C34A67105341,CATHOLIC CHARITIES COMMUNITY SERVICES ARCHDIOCESE OF NY,4377,BRONX BOULEVARD,4377 BRONX BOULEVARD,BRONX,10466,BRONX,2,2097441,2050350034,212,BX62,BX1203,11,11,47,041800,041800,HOMEBASE HOMELESSNESS PREVENTION,NON-RESIDENTIAL HOUSING AND HOMELESS SERVICES,HUMAN SERVICES,HEALTH AND HUMAN SERVICES,Local,CATHOLIC CHARITIES COMMUNITY SERVICES ARCHDIOCESE OF NY,,,NYC Department of Social Services,NYCDSS,City,0,,40.8995268136,-73.8583859589,1023399.31976,267031.613271,moeo_socialservicesitelocations,2d651eda6a6da057df8d5c26b13d281f
0101000020E61000003EAD936D507752C0C80A4597C3724440,0101000020110F000066B0729ED15D5FC1CDA9614FFB0F5341,UNIQUE PEOPLE SERVICES INC.,4234,VIREO AVENUE,4234 VIREO AVENUE,BRONX,10470,BRONX,2,2019744,2033950019,212,BX62,BX1203,11,11,47,045101,045101,SUPPORTED HOUSING-OMH,NON-RESIDENTIAL HOUSING AND HOMELESS SERVICES,HUMAN SERVICES,HEALTH AND HUMAN SERVICES,Local,UNIQUE PEOPLE SERVICES INC.,,,NYC Department of Health and Mental Hygiene,NYCDOHMH,City,0,,40.8965939604,-73.8642839382,1021770.47532,265960.474326,moeo_socialservicesitelocations,421405612b438a5429ca1daabe7f95b3
0101000020E6100000792BE084267952C0E59F59C6176D4440,0101000020110F000053A7A61DF0605FC1DD716FA29C095341,BRONXWORKS INC,4439,THIRD AVENUE,4439 THIRD AVENUE,BRONX,10457,BRONX,2,2127259,2030487501,206,BX17,BX0602,15,10,48,037504,037504,SUPPORTED SRO-OMH,NON-RESIDENTIAL HOUSING AND HOMELESS SERVICES,HUMAN SERVICES,HEALTH AND HUMAN SERVICES,Local,BRONXWORKS INC,,,NYC Department of Health and Mental Hygiene,NYCDOHMH,City,0,,40.8522880491,-73.8929760161,1013857.90301,249807.098387,moeo_socialservicesitelocations,4287104fb75d90c43d33c80b14799cb9
0101000020E6100000A0327C59697F52C0BF4879960D5D4440,0101000020110F00000B634AAF926B5FC1F06A8A789EF75241,UNIVERSITY SETTLEMENT SOCIETY OF NEW YORK,61,EAST 4 STREET,61 EAST 4 STREET,NEW YORK,10003,MANHATTAN,1,1082642,1004600056,103,MN22,MN0303,2,01,9,003800,003800,HOUSING SUPPORT,NON-RESIDENTIAL HOUSING AND HOMELESS SERVICES,HUMAN SERVICES,HEALTH AND HUMAN SERVICES,Local,UNIVERSITY SETTLEMENT SOCIETY OF NEW YORK,,,NYC Department of Youth and Community Development,NYCDYCD,City,0,,40.7269771665,-73.9908050262,986798.558258,204134.074104,moeo_socialservicesitelocations,42a09d2bfd2d8ba4022e00b5b1dd44f2
0101000020E610000005286FDC9B8852C05BFDDC7C3D514440,0101000020110F000030D5390F327B5FC1584AE5B163EA5241,CATHOLIC CHARITIES OF STATEN ISLAND INC,120,ANDERSON AVENUE,120 ANDERSON AVENUE,STATEN ISLAND,10302,STATEN ISLAND,5,5024253,5010360019,501,SI28,SI0106,49,31,121,021300,021300,HOUSING SUPPORT,NON-RESIDENTIAL HOUSING AND HOMELESS SERVICES,HUMAN SERVICES,HEALTH AND HUMAN SERVICES,Local,CATHOLIC CHARITIES OF STATEN ISLAND INC,,,NYC Department of Youth and Community Development,NYCDYCD,City,0,,40.634688957,-74.1345130052,946915.598501,170539.343321,moeo_socialservicesitelocations,44f43f792a13ff26a9abe185ecd3dfeb
0101000020E6100000A4B74647BC7F52C06FF79EF2565F4440,0101000020110F000012213A8C1F6C5FC104310D932EFA5241,CENTER FOR URBAN COMMUNITY SERVICES INC,202,WEST 24 STREET,202 WEST 24 STREET,NEW YORK,10011,MANHATTAN,1,1087205,1007730134,104,MN13,MN0401,3,02,10,009100,009100,SUPPORTED SRO-OMH,NON-RESIDENTIAL HOUSING AND HOMELESS SERVICES,HUMAN SERVICES,HEALTH AND HUMAN SERVICES,Local,CENTER FOR URBAN COMMUNITY SERVICES INC,,,NYC Department of Health and Mental Hygiene,NYCDOHMH,City,0,,40.7448409345,-73.9958666025,985395.340999,210642.300581,moeo_socialservicesitelocations,4652cc1087931a6313d1297392d43292
0101000020E610000095B8CDACAF7952C052A6AE29B86E4440,0101000020110F0000C039CB16D9615FC1B15D6E35700B5341,GEEL COMMUNITY SERVICES INC,2516,GRAND AVENUE,2516 GRAND AVENUE,BRONX,10468,BRONX,2,2014427,2032040009,207,BX30,BX0701,14,10,52,026500,026500,SUPPORTED HOUSING-OMH,NON-RESIDENTIAL HOUSING AND HOMELESS SERVICES,HUMAN SERVICES,HEALTH AND HUMAN SERVICES,Local,GEEL COMMUNITY SERVICES INC,,,NYC Department of Health and Mental Hygiene,NYCDOHMH,City,0,,40.8649952035,-73.9013473519,1011536.78203,254434.082779,moeo_socialservicesitelocations,46daec28c10dfea377fd148c584948d4
0101000020E61000007BDD534F8A7352C0AA2FC6D9085A4440,0101000020110F000086F0EC9168575FC1B1BE459D3CF45241,ST. JOSEPH'S HOSPITAL,90-10,150 STREET,90-10 150 STREET,JAMAICA,11435,QUEENS,4,4206821,4096790059,412,QN61,QN1201,24,28,103,024000,024000,"SUPPORTED HOUSING-OMH, ASSERTIVE COMMUNITY TREATMENT-OMH, SUPPORTED SRO-OMH, RESPITE-OMH",NON-RESIDENTIAL HOUSING AND HOMELESS SERVICES,HUMAN SERVICES,HEALTH AND HUMAN SERVICES,Local,ST. JOSEPH'S HOSPITAL,,,NYC Department of Health and Mental Hygiene,NYCDOHMH,City,0,,40.703395101,-73.8053167652,1038229.13501,195602.259316,moeo_socialservicesitelocations,47a0f5e575026f56347abeccc5334998
0101000020E61000000EDA1788867A52C0C291F8B375694440,0101000020110F000000856A0B46635FC16CDCB98D88055341,LANTERN COMMUNITY SERVICES INC,863,MELROSE AVENUE,863 MELROSE AVENUE,BRONX,10451,BRONX,2,2116638,2024070023,203,BX35,BX0301,17,07,42,014100,014100,SUPPORTED SRO-OMH,NON-RESIDENTIAL HOUSING AND HOMELESS SERVICES,HUMAN SERVICES,HEALTH AND HUMAN SERVICES,Local,LANTERN COMMUNITY SERVICES INC,,,NYC Department of Health and Mental Hygiene,NYCDOHMH,City,0,,40.8239045105,-73.9144611586,1007924.19527,239459.389768,moeo_socialservicesitelocations,47ab7201365e35405b14a060226c754e
0101000020E6100000665B3596A67F52C04FA23471D85F4440,0101000020110F0000B457C8B3FA6B5FC11CC223BEBFFA5241,THE JERICHO PROJECT,245,WEST 29 STREET,245 WEST 29 STREET,NEW YORK,10001,MANHATTAN,1,1014282,1007790013,105,MN17,MN0501,3,02,14,009500,009500,SUPPORTED HOUSING-OMH,NON-RESIDENTIAL HOUSING AND HOMELESS SERVICES,HUMAN SERVICES,HEALTH AND HUMAN SERVICES,Local,THE JERICHO PROJECT,,,NYC Department of Health and Mental Hygiene,NYCDOHMH,City,0,,40.7487927924,-73.9945426486,985762.111417,212082.109164,moeo_socialservicesitelocations,48325b4ef13675ee191d4f21888c7212
0101000020E6100000DCFCF4CBD47E52C06C4307CE385C4440,0101000020110F0000B4644F5A966A5FC13F220204B0F65241,THE DOOR-A CENTER OF ALTERNATIVES INC,133,PITT STREET,133 PITT STREET,NEW YORK,10002,MANHATTAN,1,1088482,1003450058,103,MN28,MN0302,2,01,7,002201,002201,SUPPORTED SRO-OMH,NON-RESIDENTIAL HOUSING AND HOMELESS SERVICES,HUMAN SERVICES,HEALTH AND HUMAN SERVICES,Local,THE DOOR-A CENTER OF ALTERNATIVES INC,,,NYC Department of Health and Mental Hygiene,NYCDOHMH,City,0,,40.7204835445,-73.9817380808,989312.124241,201768.641014,moeo_socialservicesitelocations,4875343e6117c328102ec98eec796706
0101000020E6100000CA5A0F4AE57852C08DF66F700B6C4440,0101000020110F00007F3C085181605FC15F6A355C6F085341,PHIPPS NEIGHBORHOODS INC,1950,PROSPECT AVENUE,1950 PROSPECT AVENUE,BRONX,10457,BRONX,2,2010058,2029560005,206,BX17,BX0602,17,12,48,036502,036502,SUPPORTED SRO-OMH,NON-RESIDENTIAL HOUSING AND HOMELESS SERVICES,HUMAN SERVICES,HEALTH AND HUMAN SERVICES,Local,PHIPPS NEIGHBORHOODS INC,,,NYC Department of Health and Mental Hygiene,NYCDOHMH,City,0,,40.844099097,-73.8889947083,1014963.10155,246824.926037,moeo_socialservicesitelocations,490a1708d1ba4633a7d84a2456510c0f
0101000020E6100000E90C696B197052C07426D8F9784D4440,0101000020110F0000F51A094A90515FC18A53E17E2CE65241,JEWISH COMMUNITY COUNCIL OF THE ROCKAWAY PENINSULA INC,15-25,CENTRAL AVENUE,15-25 CENTRAL AVENUE,FAR ROCKAWAY,11691,QUEENS,4,4298051,4155450023,414,QN15,QN1401,31,27,101,103202,103202,HOUSING SUPPORT,NON-RESIDENTIAL HOUSING AND HOMELESS SERVICES,HUMAN SERVICES,HEALTH AND HUMAN SERVICES,Local,JEWISH COMMUNITY COUNCIL OF THE ROCKAWAY PENINSULA INC,,,NYC Department of Youth and Community Development,NYCDYCD,City,0,,40.6052543927,-73.7515514879,1053237.81991,159884.724422,moeo_socialservicesitelocations,49c50cb89ee7b33c522d3258bc6a2e4b
0101000020E6100000BDDC1DFEDB7E52C0190F6DDFF1574440,0101000020110F0000B2586793A26A5FC195A41559E5F15241,"INSTITUTE FOR COMMUNITY LIVING, INC.",50,NEVINS STREET,50 NEVINS STREET,BROOKLYN,11217,BROOKLYN,3,3000556,3001727501,302,BK38,BK0202,33,15,84,004100,004100,"NY NY III SUPPORTED HOUSING-OMH, SUPPORTED HOUSING-OMH",NON-RESIDENTIAL HOUSING AND HOMELESS SERVICES,HUMAN SERVICES,HEALTH AND HUMAN SERVICES,Local,"INSTITUTE FOR COMMUNITY LIVING, INC.",,,NYC Department of Health and Mental Hygiene,NYCDOHMH,City,0,,40.687068871,-73.9821772849,989192.85571,189594.650786,moeo_socialservicesitelocations,4c20ce4261571377c5ad5b4de8bf64ee
0101000020E6100000F2E208EBA47A52C091420904C6554440,0101000020110F00005A28BBA879635FC184B058D976EF5241,VOLUNTEERS OF AMERICA GREATER NEW YORK INC,1381,EAST NEW YORK AVENUE,1381 EAST NEW YORK AVENUE,BROOKLYN,11212,BROOKLYN,3,3319475,3014720001,316,BK79,BK1601,41,23,73,036100,036100,SUPPORTED SRO-OMH,NON-RESIDENTIAL HOUSING AND HOMELESS SERVICES,HUMAN SERVICES,HEALTH AND HUMAN SERVICES,Local,VOLUNTEERS OF AMERICA GREATER NEW YORK INC,,,NYC Department of Health and Mental Hygiene,NYCDOHMH,City,0,,40.6701054619,-73.9163158025,1007464.42495,183424.978763,moeo_socialservicesitelocations,4c26b129503f8a4070d61d5084076e22
0101000020E61000002EB33C15F57452C0C3DC396AE8634440,0101000020110F000048EDCFC6D0595FC173C3C9E74DFF5241,WELLLIFE NETWORK INC.,142-02,20 AVENUE,142-02 20 AVENUE,WHITESTONE,11357,QUEENS,4,4099356,4041830075,407,QN23,QN0701,19,25,109,090700,090700,"SUPPORTED HOUSING-OMH, NON-MEDICAID CARE COORDINATION (OMH)-OMH",NON-RESIDENTIAL HOUSING AND HOMELESS SERVICES,HUMAN SERVICES,HEALTH AND HUMAN SERVICES,Local,WELLLIFE NETWORK INC.,,,NYC Department of Health and Mental Hygiene,NYCDOHMH,City,0,,40.7805302414,-73.827458677,1032034.57919,223692.122924,moeo_socialservicesitelocations,4cb79aa3b901683a8a17a3040ec94afe
0101000020E61000005FE13C6EA97552C06B3F8C9ADA624440,0101000020110F00002D7E811D035B5FC1AE21474D1FFE5241,CENTER FOR URBAN COMMUNITY SERVICES INC,130-30,28 AVENUE,130-30 28 AVENUE,FLUSHING,11354,QUEENS,4,4537931,4043270100,407,QN23,QN0701,19,25,109,090700,090700,SUPPORTED SRO-OMH,NON-RESIDENTIAL HOUSING AND HOMELESS SERVICES,HUMAN SERVICES,HEALTH AND HUMAN SERVICES,Local,CENTER FOR URBAN COMMUNITY SERVICES INC,,,NYC Department of Health and Mental Hygiene,NYCDOHMH,City,0,,40.772296256,-73.8384662243,1028991.62176,220686.397084,moeo_socialservicesitelocations,4ccb2a42d53e9320381b0a5ed1621355
0101000020E61000004D8FBE92328052C0E2CCBC8C8F5F4440,0101000020110F000041BDBE7BE86C5FC14DDDC2066EFA5241,WEST SIDE FEDERATION FOR SENIOR AND SUPPORTIVE HOUSING INC,443,WEST 22 STREET,443 WEST 22 STREET,NEW YORK,10011,MANHATTAN,1,1012681,1007200025,104,MN13,MN0401,3,02,10,009300,009300,SUPPORTED SRO-OMH,NON-RESIDENTIAL HOUSING AND HOMELESS SERVICES,HUMAN SERVICES,HEALTH AND HUMAN SERVICES,Local,WEST SIDE FEDERATION FOR SENIOR AND SUPPORTIVE HOUSING INC,,,NYC Department of Health and Mental Hygiene,NYCDOHMH,City,0,,40.7465682909,-74.0030867444,983394.702816,211271.619819,moeo_socialservicesitelocations,4e74b350ea3275169713cd1bbe76f6fc
0101000020E6100000CF047B776B7C52C0ED70E23F57584440,0101000020110F000080B073C17D665FC1EDBA5EE556F25241,SERVICES FOR THE UNDERSERVED INC,31,VAN BUREN STREET,31 VAN BUREN STREET,BROOKLYN,11221,BROOKLYN,3,3394968,3017910072,303,BK75,BK0301,36,16,79,026300,026300,SUPPORTED SRO-OMH,NON-RESIDENTIAL HOUSING AND HOMELESS SERVICES,HUMAN SERVICES,HEALTH AND HUMAN SERVICES,Local,SERVICES FOR THE UNDERSERVED INC,,,NYC Department of Health and Mental Hygiene,NYCDOHMH,City,0,,40.6901626448,-73.9440592485,999763.585641,190726.253704,moeo_socialservicesitelocations,4f6398c017203eb864466c12b4567451
0101000020E61000005128BD363D7952C0167C49BD666F4440,0101000020110F000002D049AA16615FC17613C445340C5341,"WEST END RESIDENCES HDFC, INC.",2808,JEROME AVENUE,2808 JEROME AVENUE,BRONX,10468,BRONX,2,2128677,2033180029,207,BX28,BX0702,14,10,52,040303,040303,SUPPORTED SRO-OMH,NON-RESIDENTIAL HOUSING AND HOMELESS SERVICES,HUMAN SERVICES,HEALTH AND HUMAN SERVICES,Local,"WEST END RESIDENCES HDFC, INC.",,,NYC Department of Health and Mental Hygiene,NYCDOHMH,City,0,,40.8703228576,-73.8943611949,1013466.77303,256377.407523,moeo_socialservicesitelocations,50b4f78558d20f4aec07ee63daaa26c5
0101000020E610000090285A4AAA7A52C0C81878AFB2684440,0101000020110F0000A2A0D8C882635FC1C498F0AFAD045341,CATHOLIC CHARITIES COMMUNITY SERVICES ARCHDIOCESE OF NY,402,EAST 152 STREET,402 EAST 152 STREET,BRONX,10455,BRONX,2,2001346,2023740035,201,BX34,BX0102,17,07,40,006700,006700,HOUSING SUPPORT,NON-RESIDENTIAL HOUSING AND HOMELESS SERVICES,HUMAN SERVICES,HEALTH AND HUMAN SERVICES,Local,CATHOLIC CHARITIES COMMUNITY SERVICES ARCHDIOCESE OF NY,,,NYC Department of Youth and Community Development,NYCDYCD,City,0,,40.8179530465,-73.916643704,1007322.20567,237290.474629,moeo_socialservicesitelocations,50d4fcefe74526ef8de0b4494d0b8552
0101000020E61000008A61CD78F37552C0DB2E4D6C3E584440,0101000020110F000099ADBDE1805B5FC1CEF99D163BF25241,COMMON GROUND MANAGEMENT CORP,100-30,ATLANTIC AVENUE,100-30 ATLANTIC AVENUE,OZONE PARK,11416,QUEENS,4,4196974,4093760014,409,QN54,QN0904,28,27,102,011400,011400,DROP-IN CENTERS,NON-RESIDENTIAL HOUSING AND HOMELESS SERVICES,HUMAN SERVICES,HEALTH AND HUMAN SERVICES,Local,COMMON GROUND MANAGEMENT CORP,,,NYC Department of Social Services,NYCDSS,City,0,,40.6894050005,-73.8429853443,1027794.04943,190484.293667,moeo_socialservicesitelocations,51312f5377dbe00fff5ae96210094f08
0101000020E61000001B13A5E84A7C52C025820A0070664440,0101000020110F0000610CE57346665FC1F964955924025341,LANTERN COMMUNITY SERVICES INC,110,EAST 118 STREET,110 EAST 118 STREET,NEW YORK,10035,MANHATTAN,1,1089692,1016450070,111,MN34,MN1102,8,04,25,018200,018200,SUPPORTED SRO-OMH,NON-RESIDENTIAL HOUSING AND HOMELESS SERVICES,HUMAN SERVICES,HEALTH AND HUMAN SERVICES,Local,LANTERN COMMUNITY SERVICES INC,,,NYC Department of Health and Mental Hygiene,NYCDOHMH,City,0,,40.8002929733,-73.9420720679,1000288.13996,230850.60842,moeo_socialservicesitelocations,5191011611080b7132e09ad7efd1ba0e
0101000020E61000001A465E641A7A52C0396127FF5A684440,0101000020110F000055D4D25B8E625FC1C6FC0C484B045341,BRONXWORKS INC,630,JACKSON AVENUE,630 JACKSON AVENUE,BRONX,10455,BRONX,2,2004558,2026430001,201,BX34,BX0102,8,07,40,007300,007300,RAPID RE-HOUSING,NON-RESIDENTIAL HOUSING AND HOMELESS SERVICES,HUMAN SERVICES,HEALTH AND HUMAN SERVICES,Local,BRONXWORKS INC,,,NYC Department of Social Services,NYCDSS,City,0,,40.8152769987,-73.9078608443,1009754.23983,236317.929943,moeo_socialservicesitelocations,53ec0871a9e8d78ede11944a5e07b5c6
0101000020E6100000734960EA1F7952C09ECFA389536D4440,0101000020110F00000DDB2AE6E4605FC13E890ABDDF095341,THE BRIDGE INC,2265,BATHGATE AVENUE,2265 BATHGATE AVENUE,BRONX,10457,BRONX,2,2127588,2030500076,206,BX01,BX0603,15,10,48,038500,038500,SUPPORTED SRO-OMH,NON-RESIDENTIAL HOUSING AND HOMELESS SERVICES,HUMAN SERVICES,HEALTH AND HUMAN SERVICES,Local,THE BRIDGE INC,,,NYC Department of Health and Mental Hygiene,NYCDOHMH,City,0,,40.8541118669,-73.8925729699,1013968.58971,250471.720866,moeo_socialservicesitelocations,5444e4f0b6f3cce5142c90fbc6512092
0101000020E6100000F22EC3BCC77B52C0C54FFE6321544440,0101000020110F000016DC15A567655FC1CB3F6EE69FED5241,WELLLIFE NETWORK INC.,,,,BROOKLYN,11203,BROOKLYN,3,0,3046170001,309,BK60,BK0902,41,18,71,080800,080800,"SUPPORTED HOUSING-OMH, NON-MEDICAID CARE COORDINATION (OMH)-OMH",NON-RESIDENTIAL HOUSING AND HOMELESS SERVICES,HUMAN SERVICES,HEALTH AND HUMAN SERVICES,Local,WELLLIFE NETWORK INC.,,,NYC Department of Health and Mental Hygiene,NYCDOHMH,City,0,,40.657269,-73.934066,1002543.95043,178744.090972,moeo_socialservicesitelocations,56bcea0984703a18d3fd9809b8ad1332
0101000020E6100000BE546EABAB7952C0797E601F5C6B4440,0101000020110F000022641849D2615FC1E45E0E8BAA075341,LANTERN COMMUNITY SERVICES INC,3859,THIRD AVENUE,3859 THIRD AVENUE,BRONX,10457,BRONX,2,2124395,2029190043,203,BX01,BX0302,16,09,42,016700,016700,SUPPORTED SRO-OMH,NON-RESIDENTIAL HOUSING AND HOMELESS SERVICES,HUMAN SERVICES,HEALTH AND HUMAN SERVICES,Local,LANTERN COMMUNITY SERVICES INC,,,NYC Department of Health and Mental Hygiene,NYCDOHMH,City,0,,40.8387488579,-73.9011028838,1011615.19665,244871.620984,moeo_socialservicesitelocations,574732baa966bee08e3222b78657700d
0101000020E61000006FFEC2D7C57952C0E8700007B16C4440,0101000020110F000064FF47BEFE615FC1AD382C4529095341,POSTGRADUATE CENTER FOR MENTAL HEALTH,304,ECHO PLACE,304 ECHO PLACE,BRONX,10457,BRONX,2,2127530,2028140008,205,BX41,BX0502,15,09,46,038100,038100,SUPPORTED SRO-OMH,NON-RESIDENTIAL HOUSING AND HOMELESS SERVICES,HUMAN SERVICES,HEALTH AND HUMAN SERVICES,Local,POSTGRADUATE CENTER FOR MENTAL HEALTH,,,NYC Department of Health and Mental Hygiene,NYCDOHMH,City,0,,40.849152446,-73.902700368,1011168.95682,248661.542103,moeo_socialservicesitelocations,57eb50ee866ca045674473179fa26c52
0101000020E6100000F2B68F31FA7852C074F0BC8EC66E4440,0101000020110F0000048818D3A4605FC189E6E55F800B5341,POSTGRADUATE CENTER FOR MENTAL HEALTH,2681,MARION AVENUE,2681 MARION AVENUE,BRONX,10458,BRONX,2,2128449,2032870094,207,BX05,BX0702,15,10,52,040502,040502,SUPPORTED SRO-OMH,NON-RESIDENTIAL HOUSING AND HOMELESS SERVICES,HUMAN SERVICES,HEALTH AND HUMAN SERVICES,Local,POSTGRADUATE CENTER FOR MENTAL HEALTH,,,NYC Department of Health and Mental Hygiene,NYCDOHMH,City,0,,40.8654344963,-73.8902706059,1014600.3473,254597.778295,moeo_socialservicesitelocations,589fc496daf23885abff7496bbf7c140
0101000020E610000081DDBF4D437E52C079565624E7584440,0101000020110F0000BFEEE0379F695FC1495AB012F8F25241,"BROOKLYN COMMUNITY HOUSING & SERVICES,INC.",105,CARLTON AVENUE,105 CARLTON AVENUE,BROOKLYN,11205,BROOKLYN,3,3257033,3020440013,302,BK68,BK0203,35,13,88,018501,018501,SUPPORTED SRO-OMH,NON-RESIDENTIAL HOUSING AND HOMELESS SERVICES,HUMAN SERVICES,HEALTH AND HUMAN SERVICES,Local,"BROOKLYN COMMUNITY HOUSING & SERVICES,INC.",,,NYC Department of Health and Mental Hygiene,NYCDOHMH,City,0,,40.6945538923,-73.9728578926,991776.60068,192322.326682,moeo_socialservicesitelocations,597d27b451c3b0513ebad50ee416c675
0101000020E61000005D5F105CA17C52C0139E2EFA60654440,0101000020110F0000B950564CD9665FC10C320E4CF4005341,CATHOLIC CHARITIES COMMUNITY SERVICES ARCHDIOCESE OF NY,125,EAST 105 STREET,125 EAST 105 STREET,NEW YORK,10029,MANHATTAN,1,1081384,1016330010,111,MN33,MN1101,8,04,23,017200,017200,HOUSING SUPPORT,NON-RESIDENTIAL HOUSING AND HOMELESS SERVICES,HUMAN SERVICES,HEALTH AND HUMAN SERVICES,Local,CATHOLIC CHARITIES COMMUNITY SERVICES ARCHDIOCESE OF NY,,,NYC Department of Youth and Community Development,NYCDYCD,City,0,,40.7920220116,-73.94734861,998829.068577,227836.288183,moeo_socialservicesitelocations,59f48971647aced1f2c37bbaf6b9bb8f
0101000020E6100000807C63DC247A52C057998F33E7564440,0101000020110F0000449A1B24A0625FC16C1F7DAFBAF05241,SERVICES FOR THE UNDERSERVED INC,84,MOTHER GASTON BOULEVARD,84 MOTHER GASTON BOULEVARD,BROOKLYN,11233,BROOKLYN,3,3394962,3015420037,316,BK79,BK1601,37,23,73,036900,036900,SUPPORTED SRO-OMH,NON-RESIDENTIAL HOUSING AND HOMELESS SERVICES,HUMAN SERVICES,HEALTH AND HUMAN SERVICES,Local,SERVICES FOR THE UNDERSERVED INC,,,NYC Department of Health and Mental Hygiene,NYCDOHMH,City,0,,40.6789307075,-73.9084998103,1009629.2619,186642.434324,moeo_socialservicesitelocations,5c44fa925667d73da05dfe65026585dc
0101000020E61000006F5111762B7A52C04E149DB085694440,0101000020110F0000879B325AAB625FC15E0F157F9A055341,COMMUNITY ACCESS INC,3251,THIRD AVENUE,3251 THIRD AVENUE,BRONX,10456,BRONX,2,2001229,2023680043,203,BX35,BX0301,17,08,42,018500,018501,SUPPORTED SRO-OMH,NON-RESIDENTIAL HOUSING AND HOMELESS SERVICES,HUMAN SERVICES,HEALTH AND HUMAN SERVICES,Local,COMMUNITY ACCESS INC,,,NYC Department of Health and Mental Hygiene,NYCDOHMH,City,0,,40.8243923919,-73.9089026612,1009462.40988,239638.693688,moeo_socialservicesitelocations,5c7f12955e1743a5bbcb6e13c99b9040
0101000020E61000006BFEB6C5398452C09E83944E834E4440,0101000020110F00004FD32D14C0735FC1C740A37256E75241,ST. JOSEPH'S HOSPITAL,1216,BAY STREET,1216 BAY STREET,STATEN ISLAND,10305,STATEN ISLAND,5,5111279,5028540026,501,SI37,SI0103,49,31,120,000800,000800,"SUPPORTED HOUSING-OMH, ASSERTIVE COMMUNITY TREATMENT-OMH, SUPPORTED SRO-OMH, RESPITE-OMH",NON-RESIDENTIAL HOUSING AND HOMELESS SERVICES,HUMAN SERVICES,HEALTH AND HUMAN SERVICES,Local,ST. JOSEPH'S HOSPITAL,,,NYC Department of Health and Mental Hygiene,NYCDOHMH,City,0,,40.6133821698,-74.0660261426,965918.432042,162754.959509,moeo_socialservicesitelocations,5fe57c6fa1025eaa78a3522971b6b332
0101000020E6100000328E8389EA7B52C04ED299C28E594440,0101000020110F00007C077FC1A2655FC12586D8D6B3F35241,RISEBORO COMMUNITY PARTNERSHIP INC,90,BEAVER STREET,90 BEAVER STREET,BROOKLYN,11206,BROOKLYN,3,0,3031370001,304,BK78,BK0401,34,14,83,038900,038900,HOMEBASE HOMELESSNESS PREVENTION,NON-RESIDENTIAL HOUSING AND HOMELESS SERVICES,HUMAN SERVICES,HEALTH AND HUMAN SERVICES,Local,RISEBORO COMMUNITY PARTNERSHIP INC,,,NYC Department of Social Services,NYCDSS,City,0,,40.6996691947,-73.9361900122,1001943.37246,194191.261082,moeo_socialservicesitelocations,505d85dda5f9f5ad43fa40e835bb8c1a
0101000020E6100000DC69D13A197052C0DC7CF8E1384D4440,0101000020110F000056217FF78F515FC1668F4DCCE4E55241,CATHOLIC CHARITIES NEIGHBORHOOD SERVICES INC,18-47,MOTT AVENUE,18-47 MOTT AVENUE,FAR ROCKAWAY,11691,QUEENS,4,4298245,4155600017,414,QN15,QN1401,31,27,101,101001,101003,HOMEBASE HOMELESSNESS PREVENTION,NON-RESIDENTIAL HOUSING AND HOMELESS SERVICES,HUMAN SERVICES,HEALTH AND HUMAN SERVICES,Local,CATHOLIC CHARITIES NEIGHBORHOOD SERVICES INC,,,NYC Department of Social Services,NYCDSS,City,0,,40.6032984225,-73.7515399023,1053243.05817,159172.126035,moeo_socialservicesitelocations,540e73ed51e0e7ea1527b65d16149b8a
0101000020E610000066089456937952C03B632B43BB6C4440,0101000020110F00004B1AC3F4A8615FC1015205C334095341,COMMON GROUND MANAGEMENT CORP,411,EAST 178 STREET,411 EAST 178 STREET,BRONX,10457,BRONX,2,2127101,2030280003,206,BX41,BX0502,15,10,48,037900,037900,"NY NY III SUPPORTED HOUSING-OASAS, SUPPORTED HOUSING-OASAS",NON-RESIDENTIAL HOUSING AND HOMELESS SERVICES,HUMAN SERVICES,HEALTH AND HUMAN SERVICES,Local,COMMON GROUND MANAGEMENT CORP,,,NYC Department of Health and Mental Hygiene,NYCDOHMH,City,0,,40.8494647946,-73.8996178099,1012021.64785,248776.30476,moeo_socialservicesitelocations,6141c674d14330ffca462a6792c120c5
0101000020E6100000CB542C9AB47C52C027F95BE850674440,0101000020110F0000FE51D4FBF9665FC1A1332DB220035341,WEST SIDE FEDERATION FOR SR & SUPPORTIVE HOUSING INC,152,WEST 123 STREET,152 WEST 123 STREET,NEW YORK,10027,MANHATTAN,1,1057771,1019070155,110,MN11,MN1001,9,05,28,022200,022200,SUPPORTED SRO-OMH,NON-RESIDENTIAL HOUSING AND HOMELESS SERVICES,HUMAN SERVICES,HEALTH AND HUMAN SERVICES,Local,WEST SIDE FEDERATION FOR SR & SUPPORTIVE HOUSING INC,,,NYC Department of Health and Mental Hygiene,NYCDOHMH,City,0,,40.807156606,-73.9485230859,998500.618121,233350.155541,moeo_socialservicesitelocations,6307848793fa49425aaee0507db0e66c
0101000020E6100000B72ACAA2927D52C01DA8949C5A5A4440,0101000020110F0000341C562173685FC12DDEA63698F45241,UNIVERSITY SETTLEMENT SOCIETY OF NEW YORK,157,WILSON STREET,157 WILSON STREET,BROOKLYN,11211,BROOKLYN,3,3059906,3021770001,301,BK72,BK0103,33,14,90,053500,053500,HOUSING SUPPORT,NON-RESIDENTIAL HOUSING AND HOMELESS SERVICES,HUMAN SERVICES,HEALTH AND HUMAN SERVICES,Local,UNIVERSITY SETTLEMENT SOCIETY OF NEW YORK,,,NYC Department of Youth and Community Development,NYCDYCD,City,0,,40.7058902479,-73.9620749447,994764.961285,196453.608462,moeo_socialservicesitelocations,63bbbe8425ae4d31a7249b5ec288e7f4
0101000020E610000021C03BE6D27952C0B4A8C26B1E564440,0101000020110F0000A447CEEB14625FC1AC35B0D7D9EF5241,"WOMEN IN NEED, INC.",91,JUNIUS STREET,91 JUNIUS STREET,BROOKLYN,11212,BROOKLYN,3,3425596,3036967501,316,BK81,BK1602,37,19,73,090800,090800,SUPPORTED SRO-OMH,NON-RESIDENTIAL HOUSING AND HOMELESS SERVICES,HUMAN SERVICES,HEALTH AND HUMAN SERVICES,Local,"WOMEN IN NEED, INC.",,,NYC Department of Health and Mental Hygiene,NYCDOHMH,City,0,,40.6728033736,-73.903497275,1011019.26592,184411.561436,moeo_socialservicesitelocations,66fe8be29ebace83cac42ab3162a593e
0101000020E610000071E7FCCC817752C0C24778FD126A4440,0101000020110F0000C671C27B255E5FC1FD2BF81639065341,VOLUNTEERS OF AMERICA GREATER NEW YORK INC,1150,COMMONWEALTH AVENUE,1150 COMMONWEALTH AVENUE,BRONX,10472,BRONX,2,2088552,2037520013,209,BX55,BX0901,18,12,43,007000,007000,SUPPORTED SRO-OMH,NON-RESIDENTIAL HOUSING AND HOMELESS SERVICES,HUMAN SERVICES,HEALTH AND HUMAN SERVICES,Local,VOLUNTEERS OF AMERICA GREATER NEW YORK INC,,,NYC Department of Health and Mental Hygiene,NYCDOHMH,City,0,,40.8287045328,-73.8672974082,1020974.83398,241224.471826,moeo_socialservicesitelocations,670d201221da5f28b969d508b96195ad
0101000020E61000007BF37FCE817C52C00A4ED85136694440,0101000020110F00002119C8B3A3665FC1E102C06A41055341,PROJECT RENEWAL INC,646,ST NICHOLAS AVENUE,646 ST NICHOLAS AVENUE,NEW YORK,10030,MANHATTAN,1,1087444,1020510025,109,MN04,MN0903,9,05,30,022700,022700,SUPPORTED SRO-OMH,NON-RESIDENTIAL HOUSING AND HOMELESS SERVICES,HUMAN SERVICES,HEALTH AND HUMAN SERVICES,Local,PROJECT RENEWAL INC,,,NYC Department of Health and Mental Hygiene,NYCDOHMH,City,0,,40.8219702058,-73.9454227686,999355.532103,238747.799085,moeo_socialservicesitelocations,685dcf4501edc0a36ab06a92a1eb11a2
0101000020E6100000EF636D856C7C52C04DF96CEDC6674440,0101000020110F0000D0D0FB8B7F665FC1B321E41FA5035341,WEST SIDE FEDERATION FOR SENIOR AND SUPPORTIVE HOUSING INC,109,WEST 129 STREET,109 WEST 129 STREET,NEW YORK,10027,MANHATTAN,1,1057985,1019140026,110,MN03,MN1002,9,05,32,022400,022400,SUPPORTED SRO-OMH,NON-RESIDENTIAL HOUSING AND HOMELESS SERVICES,HUMAN SERVICES,HEALTH AND HUMAN SERVICES,Local,WEST SIDE FEDERATION FOR SENIOR AND SUPPORTIVE HOUSING INC,,,NYC Department of Health and Mental Hygiene,NYCDOHMH,City,0,,40.8107582836,-73.9441236086,999717.710813,234663.120557,moeo_socialservicesitelocations,68a9a2b54d9291d01b4bf246e35608b1
0101000020E6100000E1595CD9257052C0A971B247784D4440,0101000020110F00007504E666A5515FC1490498B72BE65241,SHELTERING ARMS CHILDREN AND FAMILY SERVICES INC,16-00,CENTRAL AVENUE,16-00 CENTRAL AVENUE,FAR ROCKAWAY,11691,QUEENS,4,4297967,4155370147,414,QN15,QN1401,31,27,101,103202,103202,DROP-IN CENTER,NON-RESIDENTIAL HOUSING AND HOMELESS SERVICES,HUMAN SERVICES,HEALTH AND HUMAN SERVICES,Local,SHELTERING ARMS CHILDREN AND FAMILY SERVICES INC,,,NYC Department of Youth and Community Development,NYCDYCD,City,0,,40.6052331563,-73.7523101234,1053027.18861,159876.390923,moeo_socialservicesitelocations,691ec319555df8c656701c3784150264
0101000020E61000004C8EEB8BD57C52C0996F91247F534440,0101000020110F00004CB465F131675FC1EAFFE443EAEC5241,C C M S,226,LINDEN BOULEVARD,226 LINDEN BOULEVARD,BROOKLYN,11226,BROOKLYN,3,3413702,3050880030,317,BK60,BK1701,40,17,67,082000,082000,SUPPORTED SRO-OMH,NON-RESIDENTIAL HOUSING AND HOMELESS SERVICES,HUMAN SERVICES,HEALTH AND HUMAN SERVICES,Local,C C M S,,,NYC Department of Health and Mental Hygiene,NYCDOHMH,City,0,,40.652317592,-73.9505338473,997975.825039,176937.146286,moeo_socialservicesitelocations,6b261005efe85121accfed1a1410ff68
0101000020E61000004D64110F1B7C52C007E3CBF652614440,0101000020110F0000FE76C12CF5655FC1C6DE3C2168FC5241,"HOUR CHILDREN, INC",36-11,12 STREET,36-11 12 STREET,ASTORIA,11106,QUEENS,4,4623435,4003510014,401,QN68,QN0105,26,30,114,004300,004300,SUPPORTED SRO-OMH,NON-RESIDENTIAL HOUSING AND HOMELESS SERVICES,HUMAN SERVICES,HEALTH AND HUMAN SERVICES,Local,"HOUR CHILDREN, INC",,,NYC Department of Health and Mental Hygiene,NYCDOHMH,City,0,,40.7603443615,-73.9391515413,1001106.83779,216296.528293,moeo_socialservicesitelocations,6ca2d1df03d5e3b57d3bc17f65e7fb0d
0101000020E610000029A4CEDF997A52C027BBF1F244684440,0101000020110F00006A9066E666635FC14B3F2E8A32045341,BRONXWORKS INC,455,EAST 148 STREET,455 EAST 148 STREET,BRONX,10455,BRONX,2,2116171,2022930058,201,BX39,BX0101,8,07,40,004300,004300,SUPPORTED SRO-OMH,NON-RESIDENTIAL HOUSING AND HOMELESS SERVICES,HUMAN SERVICES,HEALTH AND HUMAN SERVICES,Local,BRONXWORKS INC,,,NYC Department of Health and Mental Hygiene,NYCDOHMH,City,0,,40.8146041561,-73.9156417382,1007600.71489,236070.619622,moeo_socialservicesitelocations,6ccfd313721e4bcae8af7b8b1051e5cc
0101000020E61000000E8419FB8ED961C000000000008056C0,,BREAKING GROUND HOUSING DEVELOPMENT FUND CORPORATION,,,,BROOKLYN,,BROOKLYN,3,0,0,0,,,0,,0,,,SUPPORTED SRO-OMH,NON-RESIDENTIAL HOUSING AND HOMELESS SERVICES,HUMAN SERVICES,HEALTH AND HUMAN SERVICES,Local,BREAKING GROUND HOUSING DEVELOPMENT FUND CORPORATION,,,NYC Department of Health and Mental Hygiene,NYCDOHMH,City,0,,0,0,0,0,moeo_socialservicesitelocations,6d042efd56e780dd0ed810727f1b8d6b
0101000020E61000001FBD01FFDB7F52C00B7591B5645E4440,0101000020110F0000890F686C556C5FC192C4F2091FF95241,CENTER FOR URBAN COMMUNITY SERVICES INC,112,WEST 14 STREET,112 WEST 14 STREET,NEW YORK,10011,MANHATTAN,1,1010641,1006090031,102,MN23,MN0203,3,02,6,007100,007100,DROP-IN CENTERS,NON-RESIDENTIAL HOUSING AND HOMELESS SERVICES,HUMAN SERVICES,HEALTH AND HUMAN SERVICES,Local,CENTER FOR URBAN COMMUNITY SERVICES INC,,,NYC Department of Social Services,NYCDSS,City,0,,40.7374484028,-73.9978024981,984858.98289,207948.947151,moeo_socialservicesitelocations,6ed5336e84ab47efd2e38bda4d108e13
0101000020E61000002DC4652EC37C52C0E9E7070E61694440,0101000020110F0000CD5463BF12675FC1D2E7206171055341,WEST HARLEM GROUP ASSISTANCE INC,1652,AMSTERDAM AVENUE,1652 AMSTERDAM AVENUE,NEW YORK,10031,MANHATTAN,1,1061799,1020730035,109,MN04,MN0903,7,06,30,022500,022500,SUPPORTED HOUSING-OMH,NON-RESIDENTIAL HOUSING AND HOMELESS SERVICES,HUMAN SERVICES,HEALTH AND HUMAN SERVICES,Local,WEST HARLEM GROUP ASSISTANCE INC,,,NYC Department of Health and Mental Hygiene,NYCDOHMH,City,0,,40.8232743775,-73.9494129179,998250.89019,239222.2932,moeo_socialservicesitelocations,6efa258935faacd2806d01ed15f4b927
0101000020E61000008F946517947952C0A38D73138D6A4440,0101000020110F000087A8483CAA615FC126FD1B20C2065341,URBAN PATHWAYS INC,1344,CLINTON AVENUE,1344 CLINTON AVENUE,BRONX,10456,BRONX,2,2127408,2029340019,203,BX35,BX0301,16,09,42,015100,015100,SUPPORTED SRO-OMH,NON-RESIDENTIAL HOUSING AND HOMELESS SERVICES,HUMAN SERVICES,HEALTH AND HUMAN SERVICES,Local,URBAN PATHWAYS INC,,,NYC Department of Health and Mental Hygiene,NYCDOHMH,City,0,,40.832430297,-73.8996637816,1012016.03823,242569.989209,moeo_socialservicesitelocations,6fd70ab340d9fbc87755cadaccc3c481
0101000020E6100000099A307CD47A52C0D1AC8EC443564440,0101000020110F000092BDDA74CA635FC16C93E5A903F05241,LANTERN COMMUNITY SERVICES INC,403,HOWARD AVENUE,403 HOWARD AVENUE,BROOKLYN,11233,BROOKLYN,3,3395213,3014520005,316,BK79,BK1601,41,16,73,030300,030300,SUPPORTED SRO-OMH,NON-RESIDENTIAL HOUSING AND HOMELESS SERVICES,HUMAN SERVICES,HEALTH AND HUMAN SERVICES,Local,LANTERN COMMUNITY SERVICES INC,,,NYC Department of Health and Mental Hygiene,NYCDOHMH,City,0,,40.6739431088,-73.9192190618,1006657.75683,184822.386184,moeo_socialservicesitelocations,71115632672fcd332d703eed486b95db
0101000020E6100000136583064F7C52C07D624B44D1644440,0101000020110F00004A0EFF714D665FC130C6761653005341,THE DOE FUND INC,345,EAST 102 STREET,345 EAST 102 STREET,NEW YORK,10029,MANHATTAN,1,1086440,1016747501,111,MN33,MN1101,8,04,23,016400,016400,NY NY III SUPPORTED HOUSING-OMH,NON-RESIDENTIAL HOUSING AND HOMELESS SERVICES,HUMAN SERVICES,HEALTH AND HUMAN SERVICES,Local,THE DOE FUND INC,,,NYC Department of Health and Mental Hygiene,NYCDOHMH,City,0,,40.7876363155,-73.9423233302,1000221.61076,226239.304911,moeo_socialservicesitelocations,712450af5e40a2f5bcf026287596efbe
0101000020E61000004AEDA7CEE27852C0FCEAE78D996F4440,0101000020110F00002509BC197D605FC1681445586D0C5341,BRONXWORKS INC,2925,GRAND CONCOURSE,2925 GRAND CONCOURSE,BRONX,10468,BRONX,2,2017617,2033200028,207,BX28,BX0702,11,10,52,040701,040701,HOUSING SUPPORT,NON-RESIDENTIAL HOUSING AND HOMELESS SERVICES,HUMAN SERVICES,HEALTH AND HUMAN SERVICES,Local,BRONXWORKS INC,,,NYC Department of Youth and Community Development,NYCDYCD,City,0,,40.8718736059,-73.8888432163,1014992.17562,256944.294204,moeo_socialservicesitelocations,719f94e2348213f98619be90b2ded0a0
0101000020E6100000F6EBDE86DC7A52C0C7AE30E58E684440,0101000020110F0000402FBB1DD8635FC106A4BF8585045341,VOLUNTEERS OF AMERICA GREATER NEW YORK INC,349,EAST 149 STREET,349 EAST 149 STREET,BRONX,10451,BRONX,2,2000933,2023317501,201,BX34,BX0102,17,07,40,006500,006500,NY NY III SUPPORTED HOUSING-OASAS,NON-RESIDENTIAL HOUSING AND HOMELESS SERVICES,HUMAN SERVICES,HEALTH AND HUMAN SERVICES,Local,VOLUNTEERS OF AMERICA GREATER NEW YORK INC,,,NYC Department of Health and Mental Hygiene,NYCDOHMH,City,0,,40.8168608176,-73.9197098899,1006473.88046,236891.743743,moeo_socialservicesitelocations,73bf79b1974790a936fba8efce89a6ce
0101000020E61000006862D0AD1F7C52C043D22816A6584440,0101000020110F0000ABD8C405FD655FC17464A433AFF25241,COMMUNITY ACCESS INC,910,DEKALB AVENUE,910 DEKALB AVENUE,BROOKLYN,11221,BROOKLYN,3,3389800,3016010004,303,BK35,BK0302,36,16,81,028100,028100,SUPPORTED SRO-OMH,NON-RESIDENTIAL HOUSING AND HOMELESS SERVICES,HUMAN SERVICES,HEALTH AND HUMAN SERVICES,Local,COMMUNITY ACCESS INC,,,NYC Department of Health and Mental Hygiene,NYCDOHMH,City,0,,40.6925685594,-73.9394335299,1001045.79165,191603.651877,moeo_socialservicesitelocations,74109c3957d662d89db6d47e9f4c9fb9
0101000020E610000062404A29107952C0CB99A8FB8D6F4440,0101000020110F0000C49A9023CA605FC1AD6E3859600C5341,PROJECT RENEWAL INC,2865,CRESTON AVENUE,2865 CRESTON AVENUE,BRONX,10468,BRONX,2,0,2033190046,207,BX28,BX0702,14,10,52,040701,040701,SUPPORTED SRO-OMH,NON-RESIDENTIAL HOUSING AND HOMELESS SERVICES,HUMAN SERVICES,HEALTH AND HUMAN SERVICES,Local,PROJECT RENEWAL INC,,,NYC Department of Health and Mental Hygiene,NYCDOHMH,City,0,,40.8715204786,-73.8916114069,1014226.74809,256814.676711,moeo_socialservicesitelocations,74f8a06298284ae846c6ad2009b427d5
0101000020E610000040E84AEB5F7952C03E49B4EF03544440,0101000020110F0000EBCA989D51615FC1B460E3EC7EED5241,SERVICES FOR THE UNDERSERVED INC,373,DEWITT AVENUE,373 DEWITT AVENUE,BROOKLYN,11207,BROOKLYN,3,3389796,3038750054,305,BK82,BK0503,42,19,75,109800,109800,SUPPORTED SRO-OMH,NON-RESIDENTIAL HOUSING AND HOMELESS SERVICES,HUMAN SERVICES,HEALTH AND HUMAN SERVICES,Local,SERVICES FOR THE UNDERSERVED INC,,,NYC Department of Health and Mental Hygiene,NYCDOHMH,City,0,,40.6563701279,-73.8964794379,1012973.04557,178426.694119,moeo_socialservicesitelocations,76bce6247c2e45f6cfb89effa4f20067
0101000020E610000088C43C88B17F52C0D6D3EC59235F4440,0101000020110F0000618B4F4B0D6C5FC1492435BCF4F95241,ST FRANCIS FRIENDS OF THE POOR INC,155,WEST 22 STREET,155 WEST 22 STREET,NEW YORK,10011,MANHATTAN,1,1084999,1007980014,104,MN13,MN0401,3,02,13,009100,009100,SUPPORTED SRO-OMH,NON-RESIDENTIAL HOUSING AND HOMELESS SERVICES,HUMAN SERVICES,HEALTH AND HUMAN SERVICES,Local,ST FRANCIS FRIENDS OF THE POOR INC,,,NYC Department of Health and Mental Hygiene,NYCDOHMH,City,0,,40.7432663347,-73.9952107046,985577.117945,210068.632905,moeo_socialservicesitelocations,7740a0f5dcefbab41f9e61dfa831770c
0101000020E61000001C90584F7C7952C068EDD0C2736C4440,0101000020110F000013E81DD781615FC1C146B77BE4085341,"PIBLY RESIDENTIAL PROGRAMS, INC.",465,EAST TREMONT AVENUE,465 EAST TREMONT AVENUE,BRONX,10457,BRONX,2,2011247,2030340047,206,BX01,BX0602,15,09,48,039500,039500,SUPPORTED SRO-OMH,NON-RESIDENTIAL HOUSING AND HOMELESS SERVICES,HUMAN SERVICES,HEALTH AND HUMAN SERVICES,Local,"PIBLY RESIDENTIAL PROGRAMS, INC.",,,NYC Department of Health and Mental Hygiene,NYCDOHMH,City,0,,40.8472827453,-73.898212277,1012411.42494,247981.750767,moeo_socialservicesitelocations,77d3ed4da8c5d8f6af7e8fb1a0e71e48
0101000020E6100000A60F1FFA427A52C0C59E2C56526B4440,0101000020110F0000265ADD4BD3625FC168F7BD8E9F075341,WEST SIDE FEDERATION FOR SENIOR AND SUPPORTIVE HOUSING INC,1431,COLLEGE AVENUE,1431 COLLEGE AVENUE,BRONX,10456,BRONX,2,2118663,2027860017,204,BX14,BX0403,16,09,44,022500,022500,SUPPORTED SRO-OMH,NON-RESIDENTIAL HOUSING AND HOMELESS SERVICES,HUMAN SERVICES,HEALTH AND HUMAN SERVICES,Local,WEST SIDE FEDERATION FOR SENIOR AND SUPPORTIVE HOUSING INC,,,NYC Department of Health and Mental Hygiene,NYCDOHMH,City,0,,40.8384502144,-73.9103379543,1009059.9309,244760.063775,moeo_socialservicesitelocations,79080bef02726e01cc6b04b82eefb377
0101000020E6100000FE435B26537F52C0EED3A46E1F554440,0101000020110F000097B8ECF96C6B5FC10B461253BCEE5241,CENTER FOR URBAN COMMUNITY SERVICES INC,575,5 AVENUE,575 5 AVENUE,BROOKLYN,11215,BROOKLYN,3,3399109,3010480001,307,BK37,BK0701,39,15,72,014100,014102,SUPPORTED SRO-OMH,NON-RESIDENTIAL HOUSING AND HOMELESS SERVICES,HUMAN SERVICES,HEALTH AND HUMAN SERVICES,Local,CENTER FOR URBAN COMMUNITY SERVICES INC,,,NYC Department of Health and Mental Hygiene,NYCDOHMH,City,0,,40.6650217346,-73.9894500633,987176.82998,181561.920693,moeo_socialservicesitelocations,797ae79b81cff1262fb19ce5c8d203da
0101000020E6100000A9A9FC62847A52C04E961D48AF694440,0101000020110F00009F35B46642635FC107C7682DC9055341,PHIPPS NEIGHBORHOODS INC,927,COURTLANDT AVENUE,927 COURTLANDT AVENUE,BRONX,10451,BRONX,2,2092373,2024090096,203,BX14,BX0401,17,09,42,014300,014300,SUPPORTED SRO-OMH,NON-RESIDENTIAL HOUSING AND HOMELESS SERVICES,HUMAN SERVICES,HEALTH AND HUMAN SERVICES,Local,PHIPPS NEIGHBORHOODS INC,,,NYC Department of Health and Mental Hygiene,NYCDOHMH,City,0,,40.8256616729,-73.9143302406,1007959.80272,240099.623167,moeo_socialservicesitelocations,7a4437340e0f1b0cb351ae08618ee66e
0101000020E61000008910CDE43B7D52C040451C844C534440,0101000020110F0000B3E33ACADF675FC16A167C97B1EC5241,BRIDGING ACCESS TO CARE INC,2261,CHURCH AVENUE,2261 CHURCH AVENUE,BROOKLYN,11226,BROOKLYN,3,3116866,3050890031,314,BK60,BK1401,40,17,70,079602,079602,SUPPORTED HOUSING-OMH,NON-RESIDENTIAL HOUSING AND HOMELESS SERVICES,HUMAN SERVICES,HEALTH AND HUMAN SERVICES,Local,BRIDGING ACCESS TO CARE INC,,,NYC Department of Health and Mental Hygiene,NYCDOHMH,City,0,,40.650772585,-73.9567806245,996242.752613,176373.340658,moeo_socialservicesitelocations,7d816e9ac0b82045db6f805cb922ab81
0101000020E6100000147AAEF9337A52C02D7A1DB2F1544440,0101000020110F000029C17DD0B9625FC1930D9B1D89EE5241,"FUND FOR THE CITY OF NEW YORK, INC.",650,ROCKAWAY AVENUE,650 ROCKAWAY AVENUE,BROOKLYN,11212,BROOKLYN,3,3326506,3035750011,316,BK81,BK1602,41,23,73,092400,092400,HOUSING SUPPORT,NON-RESIDENTIAL HOUSING AND HOMELESS SERVICES,HUMAN SERVICES,HEALTH AND HUMAN SERVICES,Local,"FUND FOR THE CITY OF NEW YORK, INC.",,,NYC Department of Youth and Community Development,NYCDYCD,City,0,,40.6636259689,-73.9094223217,1009379.15216,181066.219789,moeo_socialservicesitelocations,7e07d792a555365147f5d73f8b1414e5
0101000020E6100000A2513BE2A87952C02EEE715E09694440,0101000020110F0000FC90A78DCD615FC1E77D09F80E055341,NEIGHBORHOOD ASSOCIATION FOR INTER-CULTURAL AFFAIRS INC,890,PROSPECT AVENUE,890 PROSPECT AVENUE,BRONX,10459,BRONX,2,2113129,2026907502,202,BX33,BX0202,17,08,41,012901,012901,HOUSING SUPPORT,NON-RESIDENTIAL HOUSING AND HOMELESS SERVICES,HUMAN SERVICES,HEALTH AND HUMAN SERVICES,Local,NEIGHBORHOOD ASSOCIATION FOR INTER-CULTURAL AFFAIRS INC,,,NYC Department of Youth and Community Development,NYCDYCD,City,0,,40.8205984169,-73.9009328446,1011669.72584,238258.806013,moeo_socialservicesitelocations,7e89dd841d68b732cc1dc0eb2171633c
0101000020E61000002421A0EA337752C0FEC9EE80D7554440,0101000020110F000010D47130A15D5FC15BDE5C6E8AEF5241,CAMBA INC,1490,DUMONT AVENUE,1490 DUMONT AVENUE,BROOKLYN,11208,BROOKLYN,3,3395103,3044690001,305,BK82,BK0505,42,19,75,120800,120803,SUPPORTED SRO-OMH,NON-RESIDENTIAL HOUSING AND HOMELESS SERVICES,HUMAN SERVICES,HEALTH AND HUMAN SERVICES,Local,CAMBA INC,,,NYC Department of Health and Mental Hygiene,NYCDOHMH,City,0,,40.6706391492,-73.8625437324,1022380.75762,183638.244608,moeo_socialservicesitelocations,7ee533ada3dd8ce313fa935ba3546a2e
0101000020E6100000520222E0A87D52C0E83E522B14534440,0101000020110F0000C0760DE898685FC1AE653E8472EC5241,CAMBA INC,1720,CHURCH AVENUE,1720 CHURCH AVENUE,BROOKLYN,11226,BROOKLYN,3,3341487,3050970085,314,BK42,BK1401,40,17,70,051200,051200,"SUPPORTED HOUSING-OMH, SUPPORTED SRO-OMH",NON-RESIDENTIAL HOUSING AND HOMELESS SERVICES,HUMAN SERVICES,HEALTH AND HUMAN SERVICES,Local,CAMBA INC,,,NYC Department of Health and Mental Hygiene,NYCDOHMH,City,0,,40.6490530154,-73.9634323438,994397.258208,175746.01356,moeo_socialservicesitelocations,7f35e82b2e30e89a66d9fac9a453cd88
0101000020E6100000B83399186C7A52C0D9388851FD6A4440,0101000020110F00003432252419635FC1AD69841E40075341,THE BRIDGE INC,1305,MORRIS AVENUE,1305 MORRIS AVENUE,BRONX,10456,BRONX,2,2114110,2028160066,204,BX14,BX0403,16,09,44,017902,017902,SUPPORTED SRO-OMH,NON-RESIDENTIAL HOUSING AND HOMELESS SERVICES,HUMAN SERVICES,HEALTH AND HUMAN SERVICES,Local,THE BRIDGE INC,,,NYC Department of Health and Mental Hygiene,NYCDOHMH,City,0,,40.8358556671,-73.9128476618,1008366.42315,243814.073276,moeo_socialservicesitelocations,803c40c0a909084760edd28341e49384
0101000020E6100000DEF92508667B52C079E8E7D4836A4440,0101000020110F00000DB4A4AEC1645FC17F02B4BFB7065341,HELP SOCIAL SERVICE CORPORATION,984,WOODYCREST AVENUE,984 WOODYCREST AVENUE,BRONX,10452,BRONX,2,2129368,2025070015,204,BX26,BX0402,8,09,44,018900,018900,SUPPORTED SRO-OMH,NON-RESIDENTIAL HOUSING AND HOMELESS SERVICES,HUMAN SERVICES,HEALTH AND HUMAN SERVICES,Local,HELP SOCIAL SERVICE CORPORATION,,,NYC Department of Health and Mental Hygiene,NYCDOHMH,City,0,,40.8321481829,-73.9281025285,1004146.27127,242459.467828,moeo_socialservicesitelocations,807b0e4d108b3ca17411de67842deaef
0101000020E61000004B4FB28BD07B52C08A06FE120C604440,0101000020110F0000765E519B76655FC1A6E667A0F9FA5241,THE FORTUNE SOCIETY INC,29-76,NORTHERN BOULEVARD,29-76 NORTHERN BOULEVARD,LONG ISLAND CITY,11101,QUEENS,4,4003410,4002390049,401,QN31,QN0161,26,30,114,017100,017102,SUPPORTED HOUSING-OMH,NON-RESIDENTIAL HOUSING AND HOMELESS SERVICES,HUMAN SERVICES,HEALTH AND HUMAN SERVICES,Local,THE FORTUNE SOCIETY INC,,,NYC Department of Health and Mental Hygiene,NYCDOHMH,City,0,,40.7503684746,-73.9346036192,1002369.46101,212662.897405,moeo_socialservicesitelocations,8140850c9e454c9cee82a44752a5ed52
0101000020E61000003620AAFE0E7A52C097331BF6476A4440,0101000020110F0000CE69CFFF7A625FC1E221E98B74065341,LUTHERAN SOCIAL SERVICES OF METROPOLITAN NEW YORK INC,1182,WASHINGTON AVENUE,1182 WASHINGTON AVENUE,BRONX,10456,BRONX,2,2001314,2023720009,203,BX01,BX0302,16,09,42,014500,014500,SUPPORTED SRO-OMH,NON-RESIDENTIAL HOUSING AND HOMELESS SERVICES,HUMAN SERVICES,HEALTH AND HUMAN SERVICES,Local,LUTHERAN SOCIAL SERVICES OF METROPOLITAN NEW YORK INC,,,NYC Department of Health and Mental Hygiene,NYCDOHMH,City,0,,40.8303210859,-73.9071652089,1009940.98371,241799.237465,moeo_socialservicesitelocations,8278424b9b6773bd77758bb36d2f2dfa
0101000020E6100000BAAA08E26E7E52C0CA1C60FAEC5B4440,0101000020110F00003A47F33DE9695FC16596C80B5BF65241,BARUCH,595,FDR DRIVE,595 FDR DRIVE,NEW YORK,10002,MANHATTAN,1,1078027,1003230001,103,MN28,MN0302,2,01,7,001002,001002,NYCHA COMMUNITY CENTER - URBAN FAMILY CENTER,NON-RESIDENTIAL HOUSING AND HOMELESS SERVICES,HUMAN SERVICES,HEALTH AND HUMAN SERVICES,Local,NYC Housing Authority,NYCHA,Public,NYC Housing Authority,NYCHA,City,0,,40.7181694957,-73.9755177577,991036.606203,200925.982772,nycha_communitycenters,76533dac5496ac12605aafb499a22ff3
0101000020E61000003FF023D2B17952C0DB819FE80B6D4440,0101000020110F000024CDE5BBDC615FC176AF9E4F8F095341,"ACMH, INC",2049,RYER AVENUE,2049 RYER AVENUE,BRONX,10457,BRONX,2,2013665,2031560070,205,BX41,BX0502,15,09,46,038100,038100,SUPPORTED SRO-OMH,NON-RESIDENTIAL HOUSING AND HOMELESS SERVICES,HUMAN SERVICES,HEALTH AND HUMAN SERVICES,Local,"ACMH, INC",,,NYC Department of Health and Mental Hygiene,NYCDOHMH,City,0,,40.8519259238,-73.9014783237,1011505.91146,249672.4028,moeo_socialservicesitelocations,843ff126640bf649ece4e908ac306597
0101000020E6100000645E3501337852C031AF1544BB6B4440,0101000020110F00004EFF737B525F5FC146D44C5A15085341,COMUNILIFE INC,1041,EAST 179 STREET,1041 EAST 179 STREET,BRONX,10460,BRONX,2,2119487,2031400002,206,BX17,BX0601,15,12,48,036100,036100,SUPPORTED SRO-OMH,NON-RESIDENTIAL HOUSING AND HOMELESS SERVICES,HUMAN SERVICES,HEALTH AND HUMAN SERVICES,Local,COMUNILIFE INC,,,NYC Department of Health and Mental Hygiene,NYCDOHMH,City,0,,40.8416524033,-73.8781130806,1017975.08425,245937.506813,moeo_socialservicesitelocations,8494826daf3d5c24d66d3a92ae2c87bf
0101000020E6100000513600B2887952C064DC915A5F684440,0101000020110F0000C80ECBE096615FC12F10C42B50045341,LANTERN COMMUNITY SERVICES INC,745,FOX STREET,745 FOX STREET,BRONX,10455,BRONX,2,2005517,2027070011,202,BX33,BX0202,8,08,41,008500,008500,SUPPORTED SRO-OMH,NON-RESIDENTIAL HOUSING AND HOMELESS SERVICES,HUMAN SERVICES,HEALTH AND HUMAN SERVICES,Local,LANTERN COMMUNITY SERVICES INC,,,NYC Department of Health and Mental Hygiene,NYCDOHMH,City,0,,40.8154099663,-73.8989682205,1012215.67291,236369.088853,moeo_socialservicesitelocations,856e8373e1a58b327e943bf78a0f767d
0101000020E6100000DC810908B17F52C0A54893F6935E4440,0101000020110F000061BA8C710C6C5FC189FD650154F95241,THE NEW YORK FOUNDLING HOSPITAL,590,AVENUE OF THE AMERICAS,590 AVENUE OF THE AMERICAS,NEW YORK,10011,MANHATTAN,1,1068261,1008187501,105,MN13,MN0501,3,02,13,005400,005400,SUPPORTED HOUSING-OMH,NON-RESIDENTIAL HOUSING AND HOMELESS SERVICES,HUMAN SERVICES,HEALTH AND HUMAN SERVICES,Local,THE NEW YORK FOUNDLING HOSPITAL,,,NYC Department of Health and Mental Hygiene,NYCDOHMH,City,0,,40.7388904778,-73.995180139,985585.675421,208474.36976,moeo_socialservicesitelocations,868c91f4540d1ab8829079a97bff5fce
0101000020E61000006820FFED537B52C0C357EDE67A564440,0101000020110F000058FE11EFA2645FC186448B6741F05241,FLATBUSH DEVELOPMENT CORPORATION,129,KINGSBOROUGH 1 WALK,129 KINGSBOROUGH 1 WALK,BROOKLYN,11233,BROOKLYN,3,3324601,3013440001,308,BK61,BK0802,41,16,77,030700,030700,HOUSING SUPPORT,NON-RESIDENTIAL HOUSING AND HOMELESS SERVICES,HUMAN SERVICES,HEALTH AND HUMAN SERVICES,Local,FLATBUSH DEVELOPMENT CORPORATION,,,NYC Department of Youth and Community Development,NYCDYCD,City,0,,40.6756256733,-73.9269976611,1004499.54733,185433.498318,moeo_socialservicesitelocations,86e92f645e0e26e8deec8f5ca16e5af1
0101000020E6100000EF4F01A5207952C0D4DDE61E6C6A4440,0101000020110F0000E1F02C23E6605FC17FE247229D065341,NEIGHBORHOOD COALITION FOR SHELTER INC,1323,LOUIS NINE BOULEVARD,1323 LOUIS NINE BOULEVARD,BRONX,10459,BRONX,2,2116514,2029760020,203,BX75,BX0303,17,12,42,012300,012300,SUPPORTED SRO-OMH,NON-RESIDENTIAL HOUSING AND HOMELESS SERVICES,HUMAN SERVICES,HEALTH AND HUMAN SERVICES,Local,NEIGHBORHOOD COALITION FOR SHELTER INC,,,NYC Department of Health and Mental Hygiene,NYCDOHMH,City,0,,40.8314245821,-73.892617465,1013966.41341,242205.882392,moeo_socialservicesitelocations,87d9d7977bd14248fb4428183f6cfe61
0101000020E610000058CBBA1B797F52C01F6C0E23AE584440,0101000020110F00008060DC73AD6B5FC18B081C38B8F25241,CATHOLIC CHARITIES NEIGHBORHOOD SERVICES INC,191,JORALEMON STREET,191 JORALEMON STREET,BROOKLYN,11201,BROOKLYN,3,3002244,3002550008,302,BK09,BK0201,33,13,84,000900,000900,SUPPORTED HOUSING-OMH,NON-RESIDENTIAL HOUSING AND HOMELESS SERVICES,HUMAN SERVICES,HEALTH AND HUMAN SERVICES,Local,CATHOLIC CHARITIES NEIGHBORHOOD SERVICES INC,,,NYC Department of Health and Mental Hygiene,NYCDOHMH,City,0,,40.692814238,-73.9917668647,986533.136618,191687.460646,moeo_socialservicesitelocations,88872f25a6b48c19a065ee5cfe3a1f85
0101000020E61000004BAC77B7907C52C0555BF81704574440,0101000020110F0000D5094907BD665FC11736C10ADBF05241,BROOKLYN LEGAL SERVICES INC,1360,FULTON STREET,1360 FULTON STREET,BROOKLYN,11216,BROOKLYN,3,3329709,3018620001,303,BK61,BK0301,36,13,79,024700,024700,HOUSING SUPPORT,NON-RESIDENTIAL HOUSING AND HOMELESS SERVICES,HUMAN SERVICES,HEALTH AND HUMAN SERVICES,Local,BROOKLYN LEGAL SERVICES INC,,,NYC Department of Youth and Community Development,NYCDYCD,City,0,,40.6798124278,-73.946332804,999135.389662,186954.975225,moeo_socialservicesitelocations,89395f3c4024fd00935fd2a21d4c997a
0101000020E610000043E974FC317F52C0A944B79339584440,0101000020110F000086BBF9A4346B5FC1BCB412A935F25241,CENTER FOR URBAN COMMUNITY SERVICES INC,160,SCHERMERHORN STREET,160 SCHERMERHORN STREET,BROOKLYN,11201,BROOKLYN,3,3394335,3001700015,302,BK38,BK0202,33,15,84,004300,004300,SUPPORTED SRO-OMH,NON-RESIDENTIAL HOUSING AND HOMELESS SERVICES,HUMAN SERVICES,HEALTH AND HUMAN SERVICES,Local,CENTER FOR URBAN COMMUNITY SERVICES INC,,,NYC Department of Health and Mental Hygiene,NYCDOHMH,City,0,,40.689257111,-73.9874259133,987737.114988,190391.637962,moeo_socialservicesitelocations,8a092025c6cca9a6fb469a9ccbfbd612
0101000020E6100000BE786E17367352C07BD6A1465F654440,0101000020110F0000A3C44584D9565FC1197E7463F2005341,"TRANSITIONAL SERVICES FOR NEW YORK, INC",10-16,162 STREET,10-16 162 STREET,WHITESTONE,11357,QUEENS,4,4104035,4045790001,407,QN49,QN0702,19,25,109,099100,099100,SUPPORTED HOUSING-OMH,NON-RESIDENTIAL HOUSING AND HOMELESS SERVICES,HUMAN SERVICES,HEALTH AND HUMAN SERVICES,Local,"TRANSITIONAL SERVICES FOR NEW YORK, INC",,,NYC Department of Health and Mental Hygiene,NYCDOHMH,City,0,,40.7919700898,-73.8001764851,1039580.74526,227876.099026,moeo_socialservicesitelocations,8af9d2136d5c79b471f2ab6ec700e5b4
0101000020E6100000FD5681543E7C52C0B7D53A37CB6B4440,0101000020110F000007E1291631665FC1E247394227085341,PROJECT RENEWAL INC,651,WEST 168 STREET,651 WEST 168 STREET,NEW YORK,10032,MANHATTAN,1,1063381,1021380079,112,MN36,MN1201,10,06,33,025100,025100,"SUPPORTED SRO-OMH, ON-SITE REHABILITATION-OMH, ASSISTED COMPETITIVE EMPLOYMENT-OMH, HOMELESS PLACEMENT SERVICES (NON-LICENSED PROGRAM)-OMH",NON-RESIDENTIAL HOUSING AND HOMELESS SERVICES,HUMAN SERVICES,HEALTH AND HUMAN SERVICES,Local,PROJECT RENEWAL INC,,,NYC Department of Health and Mental Hygiene,NYCDOHMH,City,0,,40.8421391527,-73.9413043267,1000490.48375,246096.825585,moeo_socialservicesitelocations,8b2c42ab593e5e03863ac0681d6fcc09
0101000020E61000009CCEC653937F52C021D74D1E925F4440,0101000020110F00005AAEF2FCD96B5FC1209BEAE770FA5241,"PALLADIA, INC.",305,7 AVENUE,305 7 AVENUE,NEW YORK,10001,MANHATTAN,1,1015060,1008037502,105,MN17,MN0501,3,02,13,009500,009500,SUPPORTED HOUSING-OMH,NON-RESIDENTIAL HOUSING AND HOMELESS SERVICES,HUMAN SERVICES,HEALTH AND HUMAN SERVICES,Local,"PALLADIA, INC.",,,NYC Department of Health and Mental Hygiene,NYCDOHMH,City,0,,40.746646679,-73.9933671423,986087.877419,211300.233656,moeo_socialservicesitelocations,8c314111cb55432c17bdfa63d79c9b16
0101000020E6100000B6B0BB68777A52C033AD63230C6A4440,0101000020110F00007884855B2C635FC17474276631065341,LUTHERAN SOCIAL SERVICES OF METROPOLITAN NEW YORK INC,355,EAST 165 STREET,355 EAST 165 STREET,BRONX,10456,BRONX,2,2115811,2024280001,204,BX14,BX0401,16,09,44,017500,017500,SUPPORTED SRO-OMH,NON-RESIDENTIAL HOUSING AND HOMELESS SERVICES,HUMAN SERVICES,HEALTH AND HUMAN SERVICES,Local,LUTHERAN SOCIAL SERVICES OF METROPOLITAN NEW YORK INC,,,NYC Department of Health and Mental Hygiene,NYCDOHMH,City,0,,40.8284954294,-73.9135381544,1008177.9999,241132.279172,moeo_socialservicesitelocations,8db9e28ae8bc85c9d44033c47ebef452
0101000020E61000005B65B2FE837952C01A5BAFCF7B694440,0101000020110F00009A3DDCE48E615FC1F993BF688F055341,COMMUNITY ACCESS INC,1022,REV JAMES A POLITE AVENUE,1022 REV JAMES A POLITE AVENUE,BRONX,10459,BRONX,2,2114108,2026910122,202,BX33,BX0202,17,12,41,013100,013100,SUPPORTED SRO-OMH,NON-RESIDENTIAL HOUSING AND HOMELESS SERVICES,HUMAN SERVICES,HEALTH AND HUMAN SERVICES,Local,COMMUNITY ACCESS INC,,,NYC Department of Health and Mental Hygiene,NYCDOHMH,City,0,,40.8240909199,-73.8986813298,1012291.42621,239531.963491,moeo_socialservicesitelocations,8e1091d207bd4900ad4fabc5bb0a22c7
0101000020E6100000631B2942867C52C01A54A57077674440,0101000020110F00002E319C43AB665FC141FE91EE4B035341,"FACES NY, INC.",317,LENOX AVENUE,317 LENOX AVENUE,NEW YORK,10027,MANHATTAN,1,1085673,1019107501,110,MN11,MN1001,9,05,28,022200,022200,SUPPORTED HOUSING-OMH,NON-RESIDENTIAL HOUSING AND HOMELESS SERVICES,HUMAN SERVICES,HEALTH AND HUMAN SERVICES,Local,"FACES NY, INC.",,,NYC Department of Health and Mental Hygiene,NYCDOHMH,City,0,,40.8083325201,-73.9456944853,999283.408445,233779.055409,moeo_socialservicesitelocations,8e5e1e5b494e6f2ce3a1d39a31fa0bbe
0101000020E61000005FA7EECC597D52C0ACA47BED13554440,0101000020110F00003577F09612685FC18A477E71AFEE5241,HOUSING AND FAMILY SERVICES OF GREATER NEW YORK INC,47,MCKEEVER PLACE,47 MCKEEVER PLACE,BROOKLYN,11225,BROOKLYN,3,3388698,3013020001,309,BK63,BK0901,35,17,71,032500,032500,HOUSING SUPPORT,NON-RESIDENTIAL HOUSING AND HOMELESS SERVICES,HUMAN SERVICES,HEALTH AND HUMAN SERVICES,Local,HOUSING AND FAMILY SERVICES OF GREATER NEW YORK INC,,,NYC Department of Youth and Community Development,NYCDYCD,City,0,,40.6646706443,-73.9586059886,995733.847733,181436.545681,moeo_socialservicesitelocations,8e638841020067a920af0e373d815167
0101000020E6100000092752D8A47F52C0931BA19FFB5F4440,0101000020110F000047D465BEF76B5FC10519122FE7FA5241,"ACMH, INC",254,WEST 31 STREET,254 WEST 31 STREET,NEW YORK,10001,MANHATTAN,1,1014347,1007800071,105,MN17,MN0501,3,02,14,010100,010100,SUPPORTED HOUSING-OMH,NON-RESIDENTIAL HOUSING AND HOMELESS SERVICES,HUMAN SERVICES,HEALTH AND HUMAN SERVICES,Local,"ACMH, INC",,,NYC Department of Health and Mental Hygiene,NYCDOHMH,City,0,,40.7498664417,-73.9944363409,985791.542077,212473.275989,moeo_socialservicesitelocations,8e8c77c73af44ed3ea88a7ecbfce7770
0101000020E610000095220A0E877752C0983F53DF266F4440,0101000020110F00004B1677682E5E5FC1104DF38AEC0B5341,CATHOLIC CHARITIES COMMUNITY SERVICES ARCHDIOCESE OF NY,2901,WHITE PLAINS ROAD,2901 WHITE PLAINS ROAD,BRONX,10467,BRONX,2,2054713,2045420001,211,BX07,BX1104,15,11,49,033600,033601,HOMEBASE HOMELESSNESS PREVENTION,NON-RESIDENTIAL HOUSING AND HOMELESS SERVICES,HUMAN SERVICES,HEALTH AND HUMAN SERVICES,Local,CATHOLIC CHARITIES COMMUNITY SERVICES ARCHDIOCESE OF NY,,,NYC Department of Social Services,NYCDSS,City,0,,40.86837379,-73.8676180932,1020864.24375,255677.335343,moeo_socialservicesitelocations,6e242496901ffbcadf71acab8d31790c
0101000020E6100000329D5F96F87B52C0DB58D9530A6A4440,0101000020110F00000ACB1F9FBA655FC1553DDE5D2F065341,"WEST END RESIDENCES HDFC, INC.",267,WEST 154 STREET,267 WEST 154 STREET,NEW YORK,10039,MANHATTAN,1,1076718,1020400006,110,MN03,MN1002,9,05,32,023600,023600,SUPPORTED SRO-OMH,NON-RESIDENTIAL HOUSING AND HOMELESS SERVICES,HUMAN SERVICES,HEALTH AND HUMAN SERVICES,Local,"WEST END RESIDENCES HDFC, INC.",,,NYC Department of Health and Mental Hygiene,NYCDOHMH,City,0,,40.8284401715,-73.9370475708,1001671.87059,241106.597922,moeo_socialservicesitelocations,9063ded3bd0d5797f8fa69a192f99a82
0101000020E61000001967A50B9A7A52C0A10C59EEEC694440,0101000020110F0000C68DDD3067635FC19DDF2B5F0E065341,VOCATIONAL INSTRUCTION PROJECT COMMUNITY SERVICES INC,946,COLLEGE AVENUE,946 COLLEGE AVENUE,BRONX,10456,BRONX,2,2116172,2024230065,204,BX14,BX0401,17,09,44,017300,017300,SUPPORTED SRO-OMH,NON-RESIDENTIAL HOUSING AND HOMELESS SERVICES,HUMAN SERVICES,HEALTH AND HUMAN SERVICES,Local,VOCATIONAL INSTRUCTION PROJECT COMMUNITY SERVICES INC,,,NYC Department of Health and Mental Hygiene,NYCDOHMH,City,0,,40.8275430616,-73.9156521905,1007593.28242,240784.726456,moeo_socialservicesitelocations,911d89cabcf30be1a71e279b780e064b
0101000020E610000031751296B17752C0B16767A2326E4440,0101000020110F00001A51E2A6765E5FC1FE8F8841DA0A5341,POSTGRADUATE CENTER FOR MENTAL HEALTH,2330,BRONX PARK EAST,2330 BRONX PARK EAST,BRONX,10467,BRONX,2,2117625,2043400037,211,BX07,BX1104,15,11,49,033201,033201,SUPPORTED SRO-OMH,NON-RESIDENTIAL HOUSING AND HOMELESS SERVICES,HUMAN SERVICES,HEALTH AND HUMAN SERVICES,Local,POSTGRADUATE CENTER FOR MENTAL HEALTH,,,NYC Department of Health and Mental Hygiene,NYCDOHMH,City,0,,40.8609202388,-73.8702140026,1020150.29008,252960.644971,moeo_socialservicesitelocations,916c28511ce3cc9c89cf0770fc176da6
0101000020E610000088FDF34D407B52C09333BC7A1D564440,0101000020110F00001B123A9981645FC1D938CAC9D8EF5241,ST. JOSEPH'S HOSPITAL,1534,PROSPECT PLACE,1534 PROSPECT PLACE,BROOKLYN,11213,BROOKLYN,3,3402592,3013680040,308,BK61,BK0802,36,17,77,034700,034700,SUPPORTED SRO-OMH,NON-RESIDENTIAL HOUSING AND HOMELESS SERVICES,HUMAN SERVICES,HEALTH AND HUMAN SERVICES,Local,ST. JOSEPH'S HOSPITAL,,,NYC Department of Health and Mental Hygiene,NYCDOHMH,City,0,,40.6727746407,-73.9257998351,1004832.68268,184395.065226,moeo_socialservicesitelocations,93b23febb1b253897ab815fe4eea953a
0101000020E610000086D6571D4F7A52C0C7C0D455F6664440,0101000020110F0000FD24CBE9E7625FC16D5B1A12BB025341,LUTHERAN SOCIAL SERVICES OF METROPOLITAN NEW YORK INC,759,EAST 138 STREET,759 EAST 138 STREET,BRONX,10454,BRONX,2,2004014,2025900102,201,BX39,BX0101,17,07,40,001900,001902,SUPPORTED SRO-OMH,NON-RESIDENTIAL HOUSING AND HOMELESS SERVICES,HUMAN SERVICES,HEALTH AND HUMAN SERVICES,Local,LUTHERAN SOCIAL SERVICES OF METROPOLITAN NEW YORK INC,,,NYC Department of Health and Mental Hygiene,NYCDOHMH,City,0,,40.8043925559,-73.9110787732,1008867.5387,232351.422076,moeo_socialservicesitelocations,95507cf7de45b9bc1916fa1e82d5d7b7
0101000020E6100000528C9902987D52C01B8E3DAF9B534440,0101000020110F000014CA49427C685FC18C0866370AED5241,CAMBA INC,97,CROOKE AVENUE,97 CROOKE AVENUE,BROOKLYN,11226,BROOKLYN,3,3116108,3050590051,314,BK42,BK1401,40,17,70,050804,050804,SUPPORTED SRO-OMH,NON-RESIDENTIAL HOUSING AND HOMELESS SERVICES,HUMAN SERVICES,HEALTH AND HUMAN SERVICES,Local,CAMBA INC,,,NYC Department of Health and Mental Hygiene,NYCDOHMH,City,0,,40.6531886148,-73.9624029635,994682.257026,177252.84727,moeo_socialservicesitelocations,95ecfe0d8b73996da3fc67117fa1751e
0101000020E61000002039B5C3D07952C0E47533635F694440,0101000020110F00008F2B7A4B11625FC1F0B115826F055341,SOUTHEAST BRONX NEIGHBORHOOD CENTERS INC,955,TINTON AVENUE,955 TINTON AVENUE,BRONX,10456,BRONX,2,2091964,2026390001,203,BX35,BX0301,16,08,42,013300,013300,HOUSING SUPPORT,NON-RESIDENTIAL HOUSING AND HOMELESS SERVICES,HUMAN SERVICES,HEALTH AND HUMAN SERVICES,Local,SOUTHEAST BRONX NEIGHBORHOOD CENTERS INC,,,NYC Department of Youth and Community Development,NYCDYCD,City,0,,40.8232234959,-73.9033669728,1010994.95507,239214.464308,moeo_socialservicesitelocations,97e191c379c3013168c19d9c0e2b6aa3
0101000020E6100000A59AF03CAA7E52C09885B01A5E5C4440,0101000020110F000051F606104E6A5FC1B05848D0D9F65241,"BOWERY RESIDENTS' COMMITTEE, INC.",330,EAST 4 STREET,330 EAST 4 STREET,NEW YORK,10009,MANHATTAN,1,1004386,1003730018,103,MN28,MN0303,2,01,9,002601,002601,"SUPPORTED HOUSING-OMH, SUPPORTED SRO-OMH, NON-MEDICAID CARE COORDINATION (OMH)-OMH",NON-RESIDENTIAL HOUSING AND HOMELESS SERVICES,HUMAN SERVICES,HEALTH AND HUMAN SERVICES,Local,"BOWERY RESIDENTS' COMMITTEE, INC.",,,NYC Department of Health and Mental Hygiene,NYCDOHMH,City,0,,40.7216218344,-73.9791405054,990032.062018,202183.515773,moeo_socialservicesitelocations,980c11b4aca66b6411b9fbe0dc36ea88
0101000020E6100000249576226B7C52C07D8F159F89584440,0101000020110F0000BD9A0A317D665FC174BB41518FF25241,PROVIDENCE HOUSE INC.,273,KOSCIUSKO STREET,273 KOSCIUSKO STREET,BROOKLYN,11221,BROOKLYN,3,0,3017810061,303,BK75,BK0301,36,16,79,026100,026100,SUPPORTED SRO-OMH,NON-RESIDENTIAL HOUSING AND HOMELESS SERVICES,HUMAN SERVICES,HEALTH AND HUMAN SERVICES,Local,PROVIDENCE HOUSE INC.,,,NYC Department of Health and Mental Hygiene,NYCDOHMH,City,0,,40.6916998727,-73.9440389789,999768.849047,191286.314398,moeo_socialservicesitelocations,994bcf5098688892b57891eb86a29435
0101000020E6100000EA2B56318A7952C0E058A6DB896A4440,0101000020110F00007B76ED6B99615FC1FFB36783BE065341,URBAN PATHWAYS INC,1351,BOSTON ROAD,1351 BOSTON ROAD,BRONX,10456,BRONX,2,2128618,2029340050,203,BX35,BX0301,16,09,42,015100,015100,SUPPORTED SRO-OMH,NON-RESIDENTIAL HOUSING AND HOMELESS SERVICES,HUMAN SERVICES,HEALTH AND HUMAN SERVICES,Local,URBAN PATHWAYS INC,,,NYC Department of Health and Mental Hygiene,NYCDOHMH,City,0,,40.8323320928,-73.8990596142,1012183.27061,242534.401892,moeo_socialservicesitelocations,99788ffaa1a432d3a7c73c306fb66288
0101000020E6100000DA170BFB8D7F52C0F6477160595F4440,0101000020110F00001C4D04E8D06B5FC1DC011E4C31FA5241,"BOWERY RESIDENTS' COMMITTEE, INC.",131,WEST 25 STREET,131 WEST 25 STREET,NEW YORK,10001,MANHATTAN,1,1015006,1008017503,104,MN13,MN0401,3,02,13,009100,009100,"SUPPORTED HOUSING-OMH, SUPPORTED SRO-OMH, NON-MEDICAID CARE COORDINATION (OMH)-OMH",NON-RESIDENTIAL HOUSING AND HOMELESS SERVICES,HUMAN SERVICES,HEALTH AND HUMAN SERVICES,Local,"BOWERY RESIDENTS' COMMITTEE, INC.",,,NYC Department of Health and Mental Hygiene,NYCDOHMH,City,0,,40.7449150617,-73.99304081,986178.349915,210669.357084,moeo_socialservicesitelocations,9c4019236a51f571cfb2c81e5f3e03c1
0101000020E610000050841CF2748852C0EE70A755AB514440,0101000020110F0000CFD637F5EF7A5FC117752DA2DEEA5241,PROJECT HOSPITALITY INC,100,PARK AVENUE,100 PARK AVENUE,STATEN ISLAND,10302,STATEN ISLAND,5,5023730,5010050025,501,SI28,SI0106,49,31,121,020700,020702,SUPPORTED HOUSING-OMH,NON-RESIDENTIAL HOUSING AND HOMELESS SERVICES,HUMAN SERVICES,HEALTH AND HUMAN SERVICES,Local,PROJECT HOSPITALITY INC,,,NYC Department of Health and Mental Hygiene,NYCDOHMH,City,0,,40.6380412169,-74.1321378022,947576.683503,171759.657302,moeo_socialservicesitelocations,9c495863e1d6dd8f013d17b40ce69237
0101000020E6100000BA3F0D054B7A52C0E8233C60F8534440,0101000020110F000034482AF5E0625FC15423B8FB71ED5241,CENTER FOR URBAN COMMUNITY SERVICES INC,39,HEGEMAN AVENUE,39 HEGEMAN AVENUE,BROOKLYN,11212,BROOKLYN,3,3082733,3036220056,316,BK81,BK1602,42,23,73,089600,089600,SUPPORTED SRO-OMH,NON-RESIDENTIAL HOUSING AND HOMELESS SERVICES,HUMAN SERVICES,HEALTH AND HUMAN SERVICES,Local,CENTER FOR URBAN COMMUNITY SERVICES INC,,,NYC Department of Health and Mental Hygiene,NYCDOHMH,City,0,,40.6560173311,-73.9108288411,1008991.76055,178293.781465,moeo_socialservicesitelocations,9c70570145b79b70b9dbc5fdbd6f7421
0101000020E6100000967FB4F3C47E52C01A52467063574440,0101000020110F000062AB5B707B6A5FC102837BD245F15241,LUTHERAN SOCIAL SERVICES OF METROPOLITAN NEW YORK INC,334,BERGEN STREET,334 BERGEN STREET,BROOKLYN,11217,BROOKLYN,3,3005989,3003890023,302,BK38,BK0601,33,15,84,012700,012700,SUPPORTED SRO-OMH,NON-RESIDENTIAL HOUSING AND HOMELESS SERVICES,HUMAN SERVICES,HEALTH AND HUMAN SERVICES,Local,LUTHERAN SOCIAL SERVICES OF METROPOLITAN NEW YORK INC,,,NYC Department of Health and Mental Hygiene,NYCDOHMH,City,0,,40.6827221248,-73.980770995,989583.216196,188011.087418,moeo_socialservicesitelocations,9dc0cb242b62c88cac53b13ec9f55c5f
0101000020E6100000B15D00C00B7D52C0172A273B5E564440,0101000020110F0000AB5351038E675FC1E23B384C21F05241,C C M S,691,PROSPECT PLACE,691 PROSPECT PLACE,BROOKLYN,11216,BROOKLYN,3,3390836,3012240048,308,BK61,BK0802,35,17,77,022100,022100,SUPPORTED SRO-OMH,NON-RESIDENTIAL HOUSING AND HOMELESS SERVICES,HUMAN SERVICES,HEALTH AND HUMAN SERVICES,Local,C C M S,,,NYC Department of Health and Mental Hygiene,NYCDOHMH,City,0,,40.6747507037,-73.9538421635,997053.529804,185109.657316,moeo_socialservicesitelocations,9f43c6c7d8868ccb90a8d090a99346f5
0101000020E610000045C0B81CC07F52C0B2866F773A614440,0101000020110F000028984F0F266C5FC1809C68A94CFC5241,CLINTON HOUSING DEVELOPMENT CO INC,502,WEST 42 STREET,502 WEST 42 STREET,NEW YORK,10036,MANHATTAN,1,1088934,1010700034,104,MN13,MN0401,3,02,10,011700,011700,SUPPORTED SRO-OMH,NON-RESIDENTIAL HOUSING AND HOMELESS SERVICES,HUMAN SERVICES,HEALTH AND HUMAN SERVICES,Local,CLINTON HOUSING DEVELOPMENT CO INC,,,NYC Department of Health and Mental Hygiene,NYCDOHMH,City,0,,40.7595967574,-73.9961005978,985330.262927,216018.32097,moeo_socialservicesitelocations,a1cad90d6e660e45f23f303eb6a856bd
0101000020E61000001EEA3543E47A52C06135A5BB92684440,0101000020110F00001FA38941E5635FC1442B48D489045341,CARDINAL MCCLOSKEY SCHOOL & HOME FOR CHILDREN,333,EAST 149 STREET,333 EAST 149 STREET,BRONX,10451,BRONX,2,2000937,2023310051,201,BX34,BX0102,17,07,40,006500,006500,DROP-IN CENTER,NON-RESIDENTIAL HOUSING AND HOMELESS SERVICES,HUMAN SERVICES,HEALTH AND HUMAN SERVICES,Local,CARDINAL MCCLOSKEY SCHOOL & HOME FOR CHILDREN,,,NYC Department of Youth and Community Development,NYCDYCD,City,0,,40.8169779351,-73.9201820396,1006343.15307,236934.294417,moeo_socialservicesitelocations,a3b2cff681aebd796ba096cae0b1a9e5
0101000020E6100000F2E86070387C52C059CD1FB81E544440,0101000020110F00000F6B751427665FC1193BD1E89CED5241,CAMBA INC,560,WINTHROP STREET,560 WINTHROP STREET,BROOKLYN,11203,BROOKLYN,3,3424559,3048290005,309,BK60,BK0902,40,18,71,080800,080800,SUPPORTED SRO-OMH,NON-RESIDENTIAL HOUSING AND HOMELESS SERVICES,HUMAN SERVICES,HEALTH AND HUMAN SERVICES,Local,CAMBA INC,,,NYC Department of Health and Mental Hygiene,NYCDOHMH,City,0,,40.6571874765,-73.9409447622,1000635.39954,178713.028069,moeo_socialservicesitelocations,a503f41736926c18fab58c146bef4640
0101000020E61000009F1EFF03ED7A52C0E7762B8935684440,0101000020110F0000E0F2BC1FF4635FC1425F503E21045341,"BOWERY RESIDENTS' COMMITTEE, INC.",357,EAST 145 STREET,357 EAST 145 STREET,BRONX,10454,BRONX,2,2115798,2023070001,201,BX39,BX0101,8,07,40,004300,004300,NY NY III SUPPORTED HOUSING-OASAS,NON-RESIDENTIAL HOUSING AND HOMELESS SERVICES,HUMAN SERVICES,HEALTH AND HUMAN SERVICES,Local,"BOWERY RESIDENTS' COMMITTEE, INC.",,,NYC Department of Health and Mental Hygiene,NYCDOHMH,City,0,,40.8141337837,-73.920716285,1006196.21492,235897.93415,moeo_socialservicesitelocations,a67048853e4c14d07a41391db16685f6
0101000020E6100000F1355F39CD7A52C08FBA56D7906A4440,0101000020110F0000BB13771FBE635FC171360F5AC6065341,BRONXWORKS INC,1130,GRAND CONCOURSE,1130 GRAND CONCOURSE,BRONX,10456,BRONX,2,2002833,2024620042,204,BX14,BX0401,16,09,44,018102,018102,HOMEBASE HOMELESSNESS PREVENTION,NON-RESIDENTIAL HOUSING AND HOMELESS SERVICES,HUMAN SERVICES,HEALTH AND HUMAN SERVICES,Local,BRONXWORKS INC,,,NYC Department of Social Services,NYCDSS,City,0,,40.8325452016,-73.9187758853,1006727.10931,242606.372097,moeo_socialservicesitelocations,89d3830761c9ebec17b91cc44652f191
0101000020E61000009993BDC7F37A52C024EE1D2DF3544440,0101000020110F0000118C479DFF635FC13B7AF3C58AEE5241,RISEBORO COMMUNITY PARTNERSHIP INC,145,EAST 98 STREET,145 EAST 98 STREET,BROOKLYN,11212,BROOKLYN,3,3393311,3035480001,316,BK81,BK1704,41,17,73,089200,089200,HOMEBASE HOMELESSNESS PREVENTION,NON-RESIDENTIAL HOUSING AND HOMELESS SERVICES,HUMAN SERVICES,HEALTH AND HUMAN SERVICES,Local,RISEBORO COMMUNITY PARTNERSHIP INC,,,NYC Department of Social Services,NYCDSS,City,0,,40.6636711497,-73.921129165,1006131.28458,181079.53908,moeo_socialservicesitelocations,8b817e5060dc40da92b6adcd347c7a47
0101000020E61000001FD0DF0BCA7852C0048488C39F6F4440,0101000020110F00009B0AAD0A53605FC13CF5AA51740C5341,POSTGRADUATE CENTER FOR MENTAL HEALTH,2950,GRAND CONCOURSE,2950 GRAND CONCOURSE,BRONX,10458,BRONX,2,2017191,2033060001,207,BX05,BX0702,11,10,52,041300,041300,SUPPORTED SRO-OMH,NON-RESIDENTIAL HOUSING AND HOMELESS SERVICES,HUMAN SERVICES,HEALTH AND HUMAN SERVICES,Local,POSTGRADUATE CENTER FOR MENTAL HEALTH,,,NYC Department of Health and Mental Hygiene,NYCDOHMH,City,0,,40.8720631044,-73.8873319323,1015410.05619,257013.869901,moeo_socialservicesitelocations,a6faa4991dd32937393c84b3a85d6700
0101000020E6100000328E8389EA7B52C04ED299C28E594440,0101000020110F00007C077FC1A2655FC12586D8D6B3F35241,RISEBORO COMMUNITY PARTNERSHIP INC,90,BEAVER STREET,90 BEAVER STREET,BROOKLYN,11206,BROOKLYN,3,0,3031370001,304,BK78,BK0401,34,14,83,038900,038900,RAPID RE-HOUSING,NON-RESIDENTIAL HOUSING AND HOMELESS SERVICES,HUMAN SERVICES,HEALTH AND HUMAN SERVICES,Local,RISEBORO COMMUNITY PARTNERSHIP INC,,,NYC Department of Social Services,NYCDSS,City,0,,40.6996691947,-73.9361900122,1001943.37246,194191.261082,moeo_socialservicesitelocations,a6ff362c15180d56df854081145f1545
0101000020E6100000F5F65EEC677B52C0129D8CE39D584440,0101000020110F0000A0EA24E5C4645FC18299F004A6F25241,CAMBA INC,12,PATCHEN AVENUE,12 PATCHEN AVENUE,BROOKLYN,11221,BROOKLYN,3,3393735,3016120039,303,BK35,BK0302,36,16,81,038700,038700,SUPPORTED SRO-OMH,NON-RESIDENTIAL HOUSING AND HOMELESS SERVICES,HUMAN SERVICES,HEALTH AND HUMAN SERVICES,Local,CAMBA INC,,,NYC Department of Health and Mental Hygiene,NYCDOHMH,City,0,,40.6923183854,-73.9282179758,1004156.07022,191514.855754,moeo_socialservicesitelocations,a98e24536ea80d8f55df623ef9d0e56e
0101000020E610000075659217AC7952C0B1141A06A86A4440,0101000020110F0000D58FC800D3615FC12A01CA5FE0065341,COMMUNITY ACCESS INC,1363,FRANKLIN AVENUE,1363 FRANKLIN AVENUE,BRONX,10456,BRONX,2,2114128,2029310073,203,BX35,BX0301,16,09,42,014900,014900,SUPPORTED SRO-OMH,NON-RESIDENTIAL HOUSING AND HOMELESS SERVICES,HUMAN SERVICES,HEALTH AND HUMAN SERVICES,Local,COMMUNITY ACCESS INC,,,NYC Department of Health and Mental Hygiene,NYCDOHMH,City,0,,40.8332526804,-73.9011286667,1011610.3226,242869.152726,moeo_socialservicesitelocations,a9d6ab797bbe8eeb8fd90679910a4720
0101000020E6100000902D0C99ED7E52C0C82108AA185E4440,0101000020110F0000D61FE17AC06A5FC1D87C8ACDC9F85241,COMMUNITY ACCESS INC,315,2 AVENUE,315 2 AVENUE,NEW YORK,10003,MANHATTAN,1,1019588,1008990026,106,MN21,MN0602,2,02,13,004800,004800,"SUPPORTED SRO-OMH, CRISIS/RESPITE BEDS-OMH",NON-RESIDENTIAL HOUSING AND HOMELESS SERVICES,HUMAN SERVICES,HEALTH AND HUMAN SERVICES,Local,COMMUNITY ACCESS INC,,,NYC Department of Health and Mental Hygiene,NYCDOHMH,City,0,,40.7351276911,-73.983251821,988891.501968,207103.87482,moeo_socialservicesitelocations,abed1cd9feaef5b710ecb54eebe675e2
0101000020E61000004CC895189C7952C0489D66511B554440,0101000020110F0000734D09D5B7615FC12FAACBB7B7EE5241,C C M S,402,SNEDIKER AVENUE,402 SNEDIKER AVENUE,BROOKLYN,11207,BROOKLYN,3,0,3037990026,305,BK85,BK0503,42,19,75,113200,113200,SUPPORTED SRO-OMH,NON-RESIDENTIAL HOUSING AND HOMELESS SERVICES,HUMAN SERVICES,HEALTH AND HUMAN SERVICES,Local,C C M S,,,NYC Department of Health and Mental Hygiene,NYCDOHMH,City,0,,40.6648961784,-73.9001523463,1011950.41199,181531.787939,moeo_socialservicesitelocations,afca6ea2ecee909741b16be5246590b9
0101000020E61000000E8419FB8ED961C000000000008056C0,,FEDERATION OF ORGANIZATIONS FOR THE NEW YORK STATE MENTALLY,,,,,,,0,0,0,0,,,0,,0,,,SUPPORTED HOUSING-OMH,NON-RESIDENTIAL HOUSING AND HOMELESS SERVICES,HUMAN SERVICES,HEALTH AND HUMAN SERVICES,Local,FEDERATION OF ORGANIZATIONS FOR THE NEW YORK STATE MENTALLY,,,NYC Department of Health and Mental Hygiene,NYCDOHMH,City,0,,0,0,0,0,moeo_socialservicesitelocations,b011a780617d48e5bb5c012fc0b4134e
0101000020E6100000FA977276377B52C0AA9567FC026C4440,0101000020110F00005A5F6F9472645FC1E303B1DE65085341,SERVICES FOR THE UNDERSERVED INC,1434,UNDERCLIFF AVENUE,1434 UNDERCLIFF AVENUE,BRONX,10452,BRONX,2,2128323,2025370006,204,BX26,BX0402,16,09,44,020100,020100,SUPPORTED SRO-OMH,NON-RESIDENTIAL HOUSING AND HOMELESS SERVICES,HUMAN SERVICES,HEALTH AND HUMAN SERVICES,Local,SERVICES FOR THE UNDERSERVED INC,,,NYC Department of Health and Mental Hygiene,NYCDOHMH,City,0,,40.8438411241,-73.9252601739,1004929.20432,246720.298606,moeo_socialservicesitelocations,b08b764098f27f954d3f042f590ede40
0101000020E6100000A17D4F9DF87952C03F6F52977F564440,0101000020110F00002103EDFB54625FC13DEDCBA746F05241,"INSTITUTE FOR COMMUNITY LIVING, INC.",2384,ATLANTIC AVENUE,2384 ATLANTIC AVENUE,BROOKLYN,11233,BROOKLYN,3,3038665,3014370001,316,BK79,BK1601,37,23,73,036502,036502,"SUPPORTED HOUSING-OMH, NON-MEDICAID CARE COORDINATION (OMH)-OMH",NON-RESIDENTIAL HOUSING AND HOMELESS SERVICES,HUMAN SERVICES,HEALTH AND HUMAN SERVICES,Local,"INSTITUTE FOR COMMUNITY LIVING, INC.",,,NYC Department of Health and Mental Hygiene,NYCDOHMH,City,0,,40.6757687712,-73.905799224,1010379.55779,185491.244804,moeo_socialservicesitelocations,b11d8d611879652b6dff032f426512d9
0101000020E6100000B1BB6A17E57D52C033D1083612574440,0101000020110F0000CEBC7630FF685FC17BD232DAEAF05241,CATHOLIC CHARITIES NEIGHBORHOOD SERVICES INC,683,DEAN STREET,683 DEAN STREET,BROOKLYN,11238,BROOKLYN,3,3027676,3011300075,308,BK64,BK0801,35,13,77,020300,020300,SUPPORTED SRO-OMH,NON-RESIDENTIAL HOUSING AND HOMELESS SERVICES,HUMAN SERVICES,HEALTH AND HUMAN SERVICES,Local,CATHOLIC CHARITIES NEIGHBORHOOD SERVICES INC,,,NYC Department of Health and Mental Hygiene,NYCDOHMH,City,0,,40.6802432578,-73.9671076335,993373.125191,187109.092045,moeo_socialservicesitelocations,b34ca939a02e72d892be50f8889571f3
0101000020E6100000BDDC1DFEDB7E52C0190F6DDFF1574440,0101000020110F0000B2586793A26A5FC195A41559E5F15241,"INSTITUTE FOR COMMUNITY LIVING, INC.",50,NEVINS STREET,50 NEVINS STREET,BROOKLYN,11217,BROOKLYN,3,3000556,3001727501,302,BK38,BK0202,33,15,84,004100,004100,"SUPPORTED HOUSING-OMH, NON-MEDICAID CARE COORDINATION (OMH)-OMH",NON-RESIDENTIAL HOUSING AND HOMELESS SERVICES,HUMAN SERVICES,HEALTH AND HUMAN SERVICES,Local,"INSTITUTE FOR COMMUNITY LIVING, INC.",,,NYC Department of Health and Mental Hygiene,NYCDOHMH,City,0,,40.687068871,-73.9821772849,989192.85571,189594.650786,moeo_socialservicesitelocations,b359ec94ab0cb384bc842751143e4845
0101000020E6100000F3D1305ED07E52C032C412E5625F4440,0101000020110F0000C3777ED48E6A5FC14C3C9AF73BFA5241,GRAND CENTRAL NEIGHBORHOOD SOCIAL SERVICES CORPORATION,120,EAST 32 STREET,120 EAST 32 STREET,NEW YORK,10016,MANHATTAN,1,1018469,1008870087,105,MN20,MN0603,2,02,14,007200,007200,DROP-IN CENTERS,NON-RESIDENTIAL HOUSING AND HOMELESS SERVICES,HUMAN SERVICES,HEALTH AND HUMAN SERVICES,Local,GRAND CENTRAL NEIGHBORHOOD SOCIAL SERVICES CORPORATION,,,NYC Department of Social Services,NYCDSS,City,0,,40.7452055302,-73.9814677692,989385.147885,210775.650618,moeo_socialservicesitelocations,b39bd6e1b035f69909190c012cba321a
0101000020E6100000552027BD0F7F52C01AC6E24B65614440,0101000020110F0000A0E3D378FA6A5FC10E1D77AF7CFC5241,ENCORE COMMUNITY SERVICES,220,WEST 49 STREET,220 WEST 49 STREET,NEW YORK,10019,MANHATTAN,1,1024781,1010200049,105,MN17,MN0502,3,02,18,012500,012500,SUPPORTED SRO-OMH,NON-RESIDENTIAL HOUSING AND HOMELESS SERVICES,HUMAN SERVICES,HEALTH AND HUMAN SERVICES,Local,ENCORE COMMUNITY SERVICES,,,NYC Department of Health and Mental Hygiene,NYCDOHMH,City,0,,40.7609038216,-73.9853356254,988312.435301,216494.843286,moeo_socialservicesitelocations,b3a1ce32b57aed011dba96ef2a5021a9
0101000020E6100000CAAA87E93E7D52C0CD7EA5213A534440,0101000020110F00002EB1C9EAE4675FC165EBFA029DEC5241,CAMBA INC,2244,CHURCH AVENUE,2244 CHURCH AVENUE,BROOKLYN,11226,BROOKLYN,3,3117228,3051030042,314,BK95,BK1701,40,17,70,079400,079400,HOMEBASE HOMELESSNESS PREVENTION,NON-RESIDENTIAL HOUSING AND HOMELESS SERVICES,HUMAN SERVICES,HEALTH AND HUMAN SERVICES,Local,CAMBA INC,,,NYC Department of Social Services,NYCDSS,City,0,,40.6502115309,-73.9569648577,996191.730985,176168.908038,moeo_socialservicesitelocations,9a32cef1e24ee392536986eb862de5f8
0101000020E61000008D1AB01BE37952C0BF06C372596C4440,0101000020110F00002E62127430625FC18288F2F0C6085341,"THE PUERTO RICAN ORGANIZATION TO MOTIVATE, ENLIGHTEN AND SER",300,EAST 175 STREET,300 EAST 175 STREET,BRONX,10457,BRONX,2,2112731,2028910039,205,BX41,BX0502,15,09,46,023100,023100,SUPPORTED HOUSING-OMH,NON-RESIDENTIAL HOUSING AND HOMELESS SERVICES,HUMAN SERVICES,HEALTH AND HUMAN SERVICES,Local,"THE PUERTO RICAN ORGANIZATION TO MOTIVATE, ENLIGHTEN AND SER",,,NYC Department of Health and Mental Hygiene,NYCDOHMH,City,0,,40.8464797452,-73.9044865815,1010675.8442,247687.232736,moeo_socialservicesitelocations,b449906112f34eaea29c981c6ed26d3a
0101000020E6100000F7E90F3D5C7852C09CE4ACA3D36F4440,0101000020110F00003701A285985F5FC129AD8695AE0C5341,"THE PUERTO RICAN ORGANIZATION TO MOTIVATE, ENLIGHTEN AND SER",245,EAST MOSHOLU PARKWAY NORTH,245 EAST MOSHOLU PARKWAY NORTH,BRONX,10467,BRONX,2,2117814,2033350041,207,BX43,BX0703,11,10,52,041900,041900,SUPPORTED SRO-OMH,NON-RESIDENTIAL HOUSING AND HOMELESS SERVICES,HUMAN SERVICES,HEALTH AND HUMAN SERVICES,Local,"THE PUERTO RICAN ORGANIZATION TO MOTIVATE, ENLIGHTEN AND SER",,,NYC Department of Health and Mental Hygiene,NYCDOHMH,City,0,,40.8736462203,-73.8806297923,1017262.84713,257593.115982,moeo_socialservicesitelocations,b54e8e8c7f84ee702cac3622d4c16790
0101000020E6100000C8F4ED7A147C52C0021E68326D674440,0101000020110F00009BBF1300EA655FC19EE8387040035341,CAMBA INC,2027,MADISON AVENUE,2027 MADISON AVENUE,NEW YORK,10035,MANHATTAN,1,1054197,1017530052,111,MN03,MN1102,9,05,25,020600,020600,SUPPORTED SRO-OMH,NON-RESIDENTIAL HOUSING AND HOMELESS SERVICES,HUMAN SERVICES,HEALTH AND HUMAN SERVICES,Local,CAMBA INC,,,NYC Department of Health and Mental Hygiene,NYCDOHMH,City,0,,40.8080199248,-73.9387500123,1001205.92787,233666.433907,moeo_socialservicesitelocations,b6b5d32445eb05ba78f111278d5df731
0101000020E610000082F4C922797A52C0D736EE05ED6A4440,0101000020110F000058CE654A2F635FC12E8EBBD32D075341,THE BRIDGE INC,262,EAST 169 STREET,262 EAST 169 STREET,BRONX,10456,BRONX,2,2002615,2024500029,204,BX14,BX0401,16,09,44,017901,017901,NY NY III SUPPORTED HOUSING-OASAS,NON-RESIDENTIAL HOUSING AND HOMELESS SERVICES,HUMAN SERVICES,HEALTH AND HUMAN SERVICES,Local,THE BRIDGE INC,,,NYC Department of Health and Mental Hygiene,NYCDOHMH,City,0,,40.835358373,-73.9136435481,1008146.36758,243632.672574,moeo_socialservicesitelocations,b9520c68b33273a38515b0de543f6765
0101000020E6100000CA7CC1392A7A52C08FAB913BD7564440,0101000020110F0000BE02E940A9625FC161E860CDA8F05241,SERVICES FOR THE UNDERSERVED INC,21,TRUXTON STREET,21 TRUXTON STREET,BROOKLYN,11233,BROOKLYN,3,3420452,3015420044,316,BK79,BK1601,37,23,73,036900,036900,SUPPORTED SRO-OMH,NON-RESIDENTIAL HOUSING AND HOMELESS SERVICES,HUMAN SERVICES,HEALTH AND HUMAN SERVICES,Local,SERVICES FOR THE UNDERSERVED INC,,,NYC Department of Health and Mental Hygiene,NYCDOHMH,City,0,,40.6784433804,-73.9088272469,1009538.62618,186464.792447,moeo_socialservicesitelocations,ba4da0eb0fac205d72485a81db41a420
0101000020E61000003E5ADE2D867A52C0D4C41FEEF46A4440,0101000020110F0000BF17297245635FC125CCF6B336075341,THE BRIDGE INC,232,EAST 169 STREET,232 EAST 169 STREET,BRONX,10456,BRONX,2,2127481,2024530061,204,BX14,BX0401,16,09,44,017901,017901,"SUPPORTED HOUSING-OMH, ASSERTIVE COMMUNITY TREATMENT-OMH",NON-RESIDENTIAL HOUSING AND HOMELESS SERVICES,HUMAN SERVICES,HEALTH AND HUMAN SERVICES,Local,THE BRIDGE INC,,,NYC Department of Health and Mental Hygiene,NYCDOHMH,City,0,,40.8355996757,-73.9144396473,1007925.98696,243720.371876,moeo_socialservicesitelocations,ba4ed6aeb00727be730c533f8051ca46
0101000020E6100000D4900B67007952C0CB1F5B5B956E4440,0101000020110F00008576FE5EAF605FC16424E31E490B5341,THE JERICHO PROJECT,355,EAST 194 STREET,355 EAST 194 STREET,BRONX,10458,BRONX,2,2116613,2032820065,207,BX05,BX0702,15,10,52,040502,040502,SUPPORTED SRO-OMH,NON-RESIDENTIAL HOUSING AND HOMELESS SERVICES,HUMAN SERVICES,HEALTH AND HUMAN SERVICES,Local,THE JERICHO PROJECT,,,NYC Department of Health and Mental Hygiene,NYCDOHMH,City,0,,40.8639330097,-73.8906495674,1014496.21227,254050.597609,moeo_socialservicesitelocations,bbce8154a474b677a5c8de49db6ce184
0101000020E610000006C2A94A187A52C0E786E259266A4440,0101000020110F0000E92D7ACA8A625FC1EBE12ED24E065341,VOLUNTEERS OF AMERICA GREATER NEW YORK INC,1138,WASHINGTON AVENUE,1138 WASHINGTON AVENUE,BRONX,10456,BRONX,2,2001292,2023710017,203,BX35,BX0301,16,09,42,018500,018501,SUPPORTED SRO-OMH,NON-RESIDENTIAL HOUSING AND HOMELESS SERVICES,HUMAN SERVICES,HEALTH AND HUMAN SERVICES,Local,VOLUNTEERS OF AMERICA GREATER NEW YORK INC,,,NYC Department of Health and Mental Hygiene,NYCDOHMH,City,0,,40.8292953831,-73.9077326447,1009784.34592,241425.370549,moeo_socialservicesitelocations,bbd5498367be2aa2c2bfb6a4460d65fa
0101000020E61000002ABE3E7C1A7D52C05841157CE8514440,0101000020110F0000FF66DA0AA7675FC14152041323EB5241,CAMBA INC,1247,FLATBUSH AVENUE,1247 FLATBUSH AVENUE,BROOKLYN,11226,BROOKLYN,3,3394972,3052100017,314,BK95,BK1401,45,22,70,079000,079001,SUPPORTED SRO-OMH,NON-RESIDENTIAL HOUSING AND HOMELESS SERVICES,HUMAN SERVICES,HEALTH AND HUMAN SERVICES,Local,CAMBA INC,,,NYC Department of Health and Mental Hygiene,NYCDOHMH,City,0,,40.6399073703,-73.9547415359,996810.615415,172415.132056,moeo_socialservicesitelocations,bc9e80ede64da0dd80ce04e0ce374200
0101000020E6100000273DAEEA997C52C0B32CB12AE4654440,0101000020110F00002A12DAA7CC665FC1BD1C597887015341,GOOD SHEPHERD SERVICES,55,EAST 110 STREET,55 EAST 110 STREET,NEW YORK,10029,MANHATTAN,1,1087365,1016160024,111,MN33,MN1101,8,04,23,017402,017402,SUPPORTED SRO-OMH,NON-RESIDENTIAL HOUSING AND HOMELESS SERVICES,HUMAN SERVICES,HEALTH AND HUMAN SERVICES,Local,GOOD SHEPHERD SERVICES,,,NYC Department of Health and Mental Hygiene,NYCDOHMH,City,0,,40.7960255975,-73.9468943313,998953.973158,229295.008787,dycd_afterschoolprograms,bced80622f14e68f14e5856f9f16f955
0101000020E610000070C174199C7952C059EA3CF71C694440,0101000020110F0000830B84D6B7615FC19F2755F624055341,GEEL COMMUNITY SERVICES INC,870,EAST 162 STREET,870 EAST 162 STREET,BRONX,10459,BRONX,2,2102490,2026900027,202,BX33,BX0202,17,08,41,012901,012901,SUPPORTED SRO-OMH,NON-RESIDENTIAL HOUSING AND HOMELESS SERVICES,HUMAN SERVICES,HEALTH AND HUMAN SERVICES,Local,GEEL COMMUNITY SERVICES INC,,,NYC Department of Health and Mental Hygiene,NYCDOHMH,City,0,,40.8211964656,-73.9001525532,1011885.44582,238476.941871,moeo_socialservicesitelocations,bdbb12abb88f91ef537a05b81a45d1f5
0101000020E610000030E2A9DBFE7E52C0DEAC21DF835D4440,0101000020110F000021E757CCDD6A5FC1FAD0200923F85241,VOLUNTEERS OF AMERICA GREATER NEW YORK INC,331,EAST 12 STREET,331 EAST 12 STREET,NEW YORK,10003,MANHATTAN,1,1006502,1004540052,103,MN22,MN0303,2,01,9,004000,004001,SUPPORTED SRO-OMH,NON-RESIDENTIAL HOUSING AND HOMELESS SERVICES,HUMAN SERVICES,HEALTH AND HUMAN SERVICES,Local,VOLUNTEERS OF AMERICA GREATER NEW YORK INC,,,NYC Department of Health and Mental Hygiene,NYCDOHMH,City,0,,40.7305869021,-73.9843053016,988599.842337,205449.469073,moeo_socialservicesitelocations,bdf591fb2739626a83f23a5a90f70832
0101000020E610000055E6267F5C7752C05CADD3C39A6B4440,0101000020110F00002BF6661EE65D5FC19ABDB4DDF0075341,HELP SOCIAL SERVICE CORPORATION,1860,EAST TREMONT AVENUE,1860 EAST TREMONT AVENUE,BRONX,10460,BRONX,2,2028718,2039270001,209,BX08,BX0901,18,12,43,021601,021601,HOMEBASE HOMELESSNESS PREVENTION,NON-RESIDENTIAL HOUSING AND HOMELESS SERVICES,HUMAN SERVICES,HEALTH AND HUMAN SERVICES,Local,HELP SOCIAL SERVICE CORPORATION,,,NYC Department of Social Services,NYCDSS,City,0,,40.8406605517,-73.8650205493,1021598.23151,245581.44992,moeo_socialservicesitelocations,9ff7c13432c69b8ab782468a649be12f
0101000020E61000009C9161926A7E52C0AC0E3CD9B6654440,0101000020110F0000A6FB48EBE1695FC107562AA154015341,LANTERN COMMUNITY SERVICES INC,319,WEST 94 STREET,319 WEST 94 STREET,NEW YORK,10025,MANHATTAN,1,1034178,1012530010,107,MN12,MN0702,6,03,24,018300,018300,SUPPORTED SRO-OMH,NON-RESIDENTIAL HOUSING AND HOMELESS SERVICES,HUMAN SERVICES,HEALTH AND HUMAN SERVICES,Local,LANTERN COMMUNITY SERVICES INC,,,NYC Department of Health and Mental Hygiene,NYCDOHMH,City,0,,40.7946425953,-73.9752546264,991101.676931,228787.643745,moeo_socialservicesitelocations,beb25a00711f580efca6c3e83bf62d07
0101000020E6100000B97AC526397752C06B6D3FE0906F4440,0101000020110F0000093BD114AA5D5FC103070399630C5341,HELP SOCIAL SERVICE CORPORATION,815,BURKE AVENUE,815 BURKE AVENUE,BRONX,10467,BRONX,2,2056409,2046050012,212,BX44,BX1201,12,11,47,037200,037200,HOMEBASE HOMELESSNESS PREVENTION,NON-RESIDENTIAL HOUSING AND HOMELESS SERVICES,HUMAN SERVICES,HEALTH AND HUMAN SERVICES,Local,HELP SOCIAL SERVICE CORPORATION,,,NYC Department of Social Services,NYCDSS,City,0,,40.8716087633,-73.8628632474,1022177.49478,256857.984897,moeo_socialservicesitelocations,a6a0d8936459b8f6f604abe869cae86d
0101000020E6100000A4B74647BC7F52C06FF79EF2565F4440,0101000020110F000012213A8C1F6C5FC104310D932EFA5241,GOOD SHEPHERD SERVICES,202,WEST 24 STREET,202 WEST 24 STREET,NEW YORK,10011,MANHATTAN,1,1087205,1007730134,104,MN13,MN0401,3,02,10,009100,009100,SUPPORTED SRO-OMH,NON-RESIDENTIAL HOUSING AND HOMELESS SERVICES,HUMAN SERVICES,HEALTH AND HUMAN SERVICES,Local,GOOD SHEPHERD SERVICES,,,NYC Department of Health and Mental Hygiene,NYCDOHMH,City,0,,40.7448409345,-73.9958666025,985395.340999,210642.300581,dycd_afterschoolprograms,c31de516e442b8e9420fe411376f3b3b
0101000020E61000004E0AC9E4157852C0D9A2C500E16A4440,0101000020110F00002E30C308215F5FC15E7E865520075341,CHILDREN'S ARTS & SCIENCE WORKSHOPS INC,1619,EAST 174 STREET,1619 EAST 174 STREET,BRONX,10472,BRONX,2,2092909,2038860002,209,BX08,BX0901,18,12,43,006200,006200,HOUSING SUPPORT,NON-RESIDENTIAL HOUSING AND HOMELESS SERVICES,HUMAN SERVICES,HEALTH AND HUMAN SERVICES,Local,CHILDREN'S ARTS & SCIENCE WORKSHOPS INC,,,NYC Department of Youth and Community Development,NYCDYCD,City,0,,40.8349915471,-73.8763362847,1018470.13437,243511.400151,moeo_socialservicesitelocations,c5d49765d2bb8553d459d2cac332239f
0101000020E6100000C21DCBB3B87F52C0B30255A115614440,0101000020110F000013F82F79196C5FC17770F45B23FC5241,UNDER 21,460,WEST 41 STREET,460 WEST 41 STREET,NEW YORK,10036,MANHATTAN,1,1080924,1010500001,104,MN15,MN0402,3,02,10,011500,011500,SUPPORTED HOUSING-OMH,NON-RESIDENTIAL HOUSING AND HOMELESS SERVICES,HUMAN SERVICES,HEALTH AND HUMAN SERVICES,Local,UNDER 21,,,NYC Department of Health and Mental Hygiene,NYCDOHMH,City,0,,40.7584726012,-73.9956483354,985455.574859,215608.760017,moeo_socialservicesitelocations,c5ea0adad02d91b35b739202acb2bfc0
0101000020E6100000F34ADCBCB47952C08B61BFDD986A4440,0101000020110F000038E646B0E1615FC1CF591C5CCF065341,LOWER EASTSIDE SERVICE CENTER INC,1331,FRANKLIN AVENUE,1331 FRANKLIN AVENUE,BRONX,10456,BRONX,2,0,2029310082,203,BX35,BX0301,16,09,42,014900,014900,SUPPORTED SRO-OMH,NON-RESIDENTIAL HOUSING AND HOMELESS SERVICES,HUMAN SERVICES,HEALTH AND HUMAN SERVICES,Local,LOWER EASTSIDE SERVICE CENTER INC,,,NYC Department of Health and Mental Hygiene,NYCDOHMH,City,0,,40.832790106,-73.9016563561,1011464.4862,242700.455498,nysdoh_healthfacilities,c69429df7c1f005fecc7d60f7f5a00c9
0101000020E6100000A2AC65AC797F52C0A54DBAC9A4604440,0101000020110F0000F4D89769AE6B5FC17673FED6A4FB5241,URBAN PATHWAYS INC,575,EIGHTH AVENUE,575 EIGHTH AVENUE,NEW YORK,10018,MANHATTAN,1,1013644,1007620033,104,MN15,MN0402,3,02,14,011500,011500,"NY NY III SUPPORTED HOUSING-OASAS, SUPPORTED HOUSING-OMH",NON-RESIDENTIAL HOUSING AND HOMELESS SERVICES,HUMAN SERVICES,HEALTH AND HUMAN SERVICES,Local,URBAN PATHWAYS INC,,,NYC Department of Health and Mental Hygiene,NYCDOHMH,City,0,,40.7550289304,-73.9918013561,986521.45031,214354.19496,moeo_socialservicesitelocations,c7b5fc7dd8c03752642d02bcd4ab663c
0101000020E6100000635677561F8052C01143BF98D1574440,0101000020110F000025EE5CCFC76C5FC1CEFDAD32C1F15241,POSTGRADUATE CENTER FOR MENTAL HEALTH,177,COLUMBIA STREET,177 COLUMBIA STREET,BROOKLYN,11231,BROOKLYN,3,3394970,3003190007,306,BK33,BK0601,39,15,76,004700,004700,SUPPORTED SRO-OMH,NON-RESIDENTIAL HOUSING AND HOMELESS SERVICES,HUMAN SERVICES,HEALTH AND HUMAN SERVICES,Local,POSTGRADUATE CENTER FOR MENTAL HEALTH,,,NYC Department of Health and Mental Hygiene,NYCDOHMH,City,0,,40.6860838828,-74.0019127047,983719.53294,189235.293856,moeo_socialservicesitelocations,c846d224c6c13a55b125e755e4a7bff6
0101000020E6100000E1F35372137352C0C8AD75E62E5A4440,0101000020110F00003A2535AB9E565FC10F4FEE3D67F45241,SHELTERING ARMS CHILDREN AND FAMILY SERVICES INC,89-74,162 STREET,89-74 162 STREET,JAMAICA,11432,QUEENS,4,4208875,4097607501,412,QN61,QN1201,24,28,103,044601,044601,DROP-IN CENTER,NON-RESIDENTIAL HOUSING AND HOMELESS SERVICES,HUMAN SERVICES,HEALTH AND HUMAN SERVICES,Local,SHELTERING ARMS CHILDREN AND FAMILY SERVICES INC,,,NYC Department of Youth and Community Development,NYCDYCD,City,0,,40.7045562819,-73.7980619263,1040239.67989,196029.865011,moeo_socialservicesitelocations,c8a1a0fe6612581f6f1af168dfaaa4c8
0101000020E61000007919A63BA57952C0908D5EAC1B6A4440,0101000020110F0000C5E52B5AC7615FC1696C01D642065341,COMMUNITY ACCESS INC,1189,TINTON AVENUE,1189 TINTON AVENUE,BRONX,10456,BRONX,2,2113382,2026620019,203,BX35,BX0301,17,09,42,013500,013500,SUPPORTED SRO-OMH,NON-RESIDENTIAL HOUSING AND HOMELESS SERVICES,HUMAN SERVICES,HEALTH AND HUMAN SERVICES,Local,COMMUNITY ACCESS INC,,,NYC Department of Health and Mental Hygiene,NYCDOHMH,City,0,,40.8289695222,-73.9007100226,1011727.94132,241308.772521,moeo_socialservicesitelocations,ca3b5db787f60b67f9fd0adaa5d86666
0101000020E6100000768346AB7C7752C0C7E89AE42B574440,0101000020110F0000556749C41C5E5FC1775B399D07F15241,SCO FAMILY OF SERVICES,398,GRANT AVENUE,398 GRANT AVENUE,BROOKLYN,11208,BROOKLYN,3,3093771,3041740072,305,BK83,BK0505,37,19,75,118600,118600,DROP-IN CENTER,NON-RESIDENTIAL HOUSING AND HOMELESS SERVICES,HUMAN SERVICES,HEALTH AND HUMAN SERVICES,Local,SCO FAMILY OF SERVICES,,,NYC Department of Youth and Community Development,NYCDYCD,City,0,,40.6810270074,-73.8669841948,1021143.21487,187420.932828,moeo_socialservicesitelocations,cbf033c0d087b51296dad9617cb4e3cb
0101000020E61000000E8419FB8ED961C000000000008056C0,,"BOWERY RESIDENTS' COMMITTEE, INC.",,,,,,,0,0,0,0,,,0,,0,,,ADULT OUTREACH SERVICE,NON-RESIDENTIAL HOUSING AND HOMELESS SERVICES,HUMAN SERVICES,HEALTH AND HUMAN SERVICES,Local,"BOWERY RESIDENTS' COMMITTEE, INC.",,,NYC Department of Social Services,NYCDSS,City,0,,0,0,0,0,moeo_socialservicesitelocations,cd59eceb8fe9c3003db5fe59b380b5de
0101000020E61000007225BCD4EF7952C008A2B137016A4440,0101000020110F00004E747E1046625FC172D3382425065341,HELP SOCIAL SERVICE CORPORATION,1122,FRANKLIN AVENUE,1122 FRANKLIN AVENUE,BRONX,10456,BRONX,2,2004260,2026130001,203,BX35,BX0301,16,09,42,018500,018502,SHELTER INTAKE,NON-RESIDENTIAL HOUSING AND HOMELESS SERVICES,HUMAN SERVICES,HEALTH AND HUMAN SERVICES,Local,HELP SOCIAL SERVICE CORPORATION,,,NYC Department of Social Services,NYCDSS,City,0,,40.8281621565,-73.9052631228,1010468.21513,241013.22427,moeo_socialservicesitelocations,cdc7dc0b0516d128863abae05fe59a8c
0101000020E61000004C35A9DE0D7952C08E99FAD8816C4440,0101000020110F0000CEC81D3FC6605FC175F37F4CF4085341,CENTER FOR URBAN COMMUNITY SERVICES INC,623,EAST 179 STREET,623 EAST 179 STREET,BRONX,10457,BRONX,2,2119193,2030690101,206,BX17,BX0602,15,10,48,037300,037300,SUPPORTED SRO-OMH,NON-RESIDENTIAL HOUSING AND HOMELESS SERVICES,HUMAN SERVICES,HEALTH AND HUMAN SERVICES,Local,CENTER FOR URBAN COMMUNITY SERVICES INC,,,NYC Department of Health and Mental Hygiene,NYCDOHMH,City,0,,40.8477126336,-73.8914715438,1014276.17641,248140.614057,moeo_socialservicesitelocations,ceac50321fdfaae40c2a227807c29f6b
0101000020E6100000C97A9E55047952C0E270B483CF6C4440,0101000020110F00008ED2C20CB6605FC1CC601B804B095341,CENTER FOR URBAN COMMUNITY SERVICES INC,600,EAST 181 STREET,600 EAST 181 STREET,BRONX,10457,BRONX,2,2012032,2030700008,206,BX17,BX0602,15,10,48,037300,037300,SUPPORTED SRO-OMH,NON-RESIDENTIAL HOUSING AND HOMELESS SERVICES,HUMAN SERVICES,HEALTH AND HUMAN SERVICES,Local,CENTER FOR URBAN COMMUNITY SERVICES INC,,,NYC Department of Health and Mental Hygiene,NYCDOHMH,City,0,,40.8500828391,-73.8908895537,1014436.1178,249004.369163,moeo_socialservicesitelocations,cfd464a603188c937590d3f3403dc8aa
0101000020E61000001EC79DA76C7952C0BFEDFF2F3F6C4440,0101000020110F00007FB2953F67615FC1E29B3175A9085341,LANTERN COMMUNITY SERVICES INC,507,EAST 176 STREET,507 EAST 176 STREET,BRONX,10457,BRONX,2,2117932,2029240042,206,BX01,BX0602,15,09,48,039500,039500,SUPPORTED SRO-OMH,NON-RESIDENTIAL HOUSING AND HOMELESS SERVICES,HUMAN SERVICES,HEALTH AND HUMAN SERVICES,Local,LANTERN COMMUNITY SERVICES INC,,,NYC Department of Health and Mental Hygiene,NYCDOHMH,City,0,,40.8456783291,-73.8972567595,1012676.47173,247397.510366,moeo_socialservicesitelocations,d2000421e87cf0bd111913c994748e8b
0101000020E610000043FE57C1267952C0EACE602F556B4440,0101000020110F0000FCB05C84F0605FC1865A56C1A2075341,POSTGRADUATE CENTER FOR MENTAL HEALTH,,CROTONA PARK,None CROTONA PARK,BRONX,10457,BRONX,2,0,2029420001,203,BX99,BX0391,17,09,42,016300,016300,SUPPORTED SRO-OMH,NON-RESIDENTIAL HOUSING AND HOMELESS SERVICES,HUMAN SERVICES,HEALTH AND HUMAN SERVICES,Local,POSTGRADUATE CENTER FOR MENTAL HEALTH,,,NYC Department of Health and Mental Hygiene,NYCDOHMH,City,0,,40.8385371417,-73.8929904332,1013860.03479,244797.123172,moeo_socialservicesitelocations,d341c4cad564ccce41d64a9f5e911387
0101000020E6100000C1F03CD1BA7E52C07741DA6B2D5D4440,0101000020110F00007C0F65396A6A5FC13BF7A625C2F75241,COMMUNITY ACCESS INC,535,EAST 11 STREET,535 EAST 11 STREET,NEW YORK,10009,MANHATTAN,1,1089794,1004050045,103,MN22,MN0303,2,01,9,003400,003400,"SUPPORTED SRO-OMH, CRISIS/RESPITE BEDS-OMH",NON-RESIDENTIAL HOUSING AND HOMELESS SERVICES,HUMAN SERVICES,HEALTH AND HUMAN SERVICES,Local,COMMUNITY ACCESS INC,,,NYC Department of Health and Mental Hygiene,NYCDOHMH,City,0,,40.7279486476,-73.9801524248,989751.044891,204488.504297,moeo_socialservicesitelocations,d49a3cedc372d8d3e06acd8a0b040e72
0101000020E61000002EA7F882BE7A52C07C3424BEAA544440,0101000020110F00000DCDDA21A5635FC14667D6AC39EE5241,AFRICAN AMERICAN PLANNING COMMISSION INC,278,GRAFTON STREET,278 GRAFTON STREET,BROOKLYN,11212,BROOKLYN,3,0,3035660006,316,BK81,BK1602,41,23,73,089400,089400,SUPPORTED SRO-OMH,NON-RESIDENTIAL HOUSING AND HOMELESS SERVICES,HUMAN SERVICES,HEALTH AND HUMAN SERVICES,Local,AFRICAN AMERICAN PLANNING COMMISSION INC,,,NYC Department of Health and Mental Hygiene,NYCDOHMH,City,0,,40.6614606553,-73.9178779058,1007034.04231,180275.023177,moeo_socialservicesitelocations,d51061ed6a28eb2291ffb4af4544fac3
0101000020E6100000652558DE577F52C013CE7D5E30614440,0101000020110F0000F744D0FD746B5FC1292A095741FC5241,SAMARITAN DAYTOP VILLAGE INC,321,WEST 44 STREET,321 WEST 44 STREET,NEW YORK,10036,MANHATTAN,1,1080878,1010350017,104,MN15,MN0402,3,02,14,012100,012101,RAPID RE-HOUSING,NON-RESIDENTIAL HOUSING AND HOMELESS SERVICES,HUMAN SERVICES,HEALTH AND HUMAN SERVICES,Local,SAMARITAN DAYTOP VILLAGE INC,,,NYC Department of Social Services,NYCDSS,City,0,,40.759288608,-73.9897380693,987092.90614,215906.194545,moeo_socialservicesitelocations,d72c6c924c290925da8543d8e35c136f
0101000020E6100000363A4B28657C52C0526CAA0369594440,0101000020110F00002E11E50973665FC171FE158E89F35241,COMUNILIFE INC,179,THROOP AVENUE,179 THROOP AVENUE,BROOKLYN,11206,BROOKLYN,3,3425715,3017230002,303,BK78,BK0302,36,14,79,028501,028501,SUPPORTED SRO-OMH,NON-RESIDENTIAL HOUSING AND HOMELESS SERVICES,HUMAN SERVICES,HEALTH AND HUMAN SERVICES,Local,COMUNILIFE INC,,,NYC Department of Health and Mental Hygiene,NYCDOHMH,City,0,,40.6985172827,-73.943674157,999868.42264,193770.162379,moeo_socialservicesitelocations,d86b427107cb11a032c5a250970ea6a8
0101000020E61000006028BED8687F52C082675CA9CA5C4440,0101000020110F0000E1D69BD4916B5FC10417AE7753F75241,COMMUNITY ACCESS INC,29,EAST SECOND STREET,29 EAST SECOND STREET,NEW YORK,10003,MANHATTAN,1,1087254,1004570128,103,MN22,MN0303,2,01,9,003602,003602,SUPPORTED SRO-OMH,NON-RESIDENTIAL HOUSING AND HOMELESS SERVICES,HUMAN SERVICES,HEALTH AND HUMAN SERVICES,Local,COMMUNITY ACCESS INC,,,NYC Department of Health and Mental Hygiene,NYCDOHMH,City,0,,40.72493474,-73.9907743322,986807.144032,203389.955752,moeo_socialservicesitelocations,d8fed8db1dcbda4224659441336e843a
0101000020E6100000D015A27BC27952C0F74C4B2E316D4440,0101000020110F00003E2F4409F9615FC15CD03E29B9095341,BRONXWORKS INC,2070,GRAND CONCOURSE,2070 GRAND CONCOURSE,BRONX,10457,BRONX,2,2013631,2031560009,205,BX41,BX0502,15,10,46,023502,023502,HOUSING SUPPORT,NON-RESIDENTIAL HOUSING AND HOMELESS SERVICES,HUMAN SERVICES,HEALTH AND HUMAN SERVICES,Local,BRONXWORKS INC,,,NYC Department of Youth and Community Development,NYCDYCD,City,0,,40.8530633799,-73.9024952971,1011224.10571,250086.506401,moeo_socialservicesitelocations,d9eb829d680ad00c8b9d4de411030989
0101000020E610000049A31EE70A7952C049410AAC926C4440,0101000020110F00001E83F534C1605FC195B03E3007095341,VOCATIONAL INSTRUCTION PROJECT COMMUNITY SERVICES INC,2031,HUGHES AVENUE,2031 HUGHES AVENUE,BRONX,10457,BRONX,2,2012018,2030690093,206,BX17,BX0602,15,10,48,037300,037300,SUPPORTED SRO-OMH,NON-RESIDENTIAL HOUSING AND HOMELESS SERVICES,HUMAN SERVICES,HEALTH AND HUMAN SERVICES,Local,VOCATIONAL INSTRUCTION PROJECT COMMUNITY SERVICES INC,,,NYC Department of Health and Mental Hygiene,NYCDOHMH,City,0,,40.8482260751,-73.8912904547,1014326.04549,248327.742197,moeo_socialservicesitelocations,dbcd9cdba1c698bfbc3d901acf9d822e
0101000020E6100000C34D0C15887C52C048BC23A4E1574440,0101000020110F00008A5EAA5CAE665FC16E360B2BD3F15241,POSTGRADUATE CENTER FOR MENTAL HEALTH,500,GATES AVENUE,500 GATES AVENUE,BROOKLYN,11216,BROOKLYN,3,3426345,3018140017,303,BK75,BK0301,36,13,79,026500,026500,SUPPORTED SRO-OMH,NON-RESIDENTIAL HOUSING AND HOMELESS SERVICES,HUMAN SERVICES,HEALTH AND HUMAN SERVICES,Local,POSTGRADUATE CENTER FOR MENTAL HEALTH,,,NYC Department of Health and Mental Hygiene,NYCDOHMH,City,0,,40.6865735217,-73.9458057993,999280.038228,189418.327128,moeo_socialservicesitelocations,dc0ad682a3e9081d724afe0d2aff5897
0101000020E610000074BB267CD97E52C0750DE6C7CD584440,0101000020110F0000A500F6509E6A5FC19B252BAADBF25241,UNIVERSITY SETTLEMENT SOCIETY OF NEW YORK,177,MYRTLE AVENUE,177 MYRTLE AVENUE,BROOKLYN,11201,BROOKLYN,3,3257034,3020500001,302,BK38,BK0202,35,13,88,001500,001501,HOUSING SUPPORT,NON-RESIDENTIAL HOUSING AND HOMELESS SERVICES,HUMAN SERVICES,HEALTH AND HUMAN SERVICES,Local,UNIVERSITY SETTLEMENT SOCIETY OF NEW YORK,,,NYC Department of Youth and Community Development,NYCDYCD,City,0,,40.693779933,-73.9820242285,989234.8018,192039.695926,moeo_socialservicesitelocations,dcb3a4f17eee23b0ac994b544595a9c4
0101000020E6100000E3F5EDC2A47F52C0E7483C16F05F4440,0101000020110F00004FF70F9AF76B5FC1A5100F40DAFA5241,URBAN PATHWAYS INC,257,WEST 30 STREET,257 WEST 30 STREET,NEW YORK,10001,MANHATTAN,1,1014337,1007800009,105,MN17,MN0501,3,02,14,010100,010100,DROP-IN CENTERS,NON-RESIDENTIAL HOUSING AND HOMELESS SERVICES,HUMAN SERVICES,HEALTH AND HUMAN SERVICES,Local,URBAN PATHWAYS INC,,,NYC Department of Social Services,NYCDSS,City,0,,40.7495143697,-73.9944312407,985792.963359,212345.004915,moeo_socialservicesitelocations,e0df3f2ee2f795802255b5d069713ae6
0101000020E61000006590D77C137952C0248648C34A6D4440,0101000020110F000007FA02CACF605FC17B3BB8E2D5095341,BRONXWORKS INC,4511,3 AVENUE,4511 3 AVENUE,BRONX,10457,BRONX,2,2128231,2030517501,206,BX01,BX0603,15,10,48,038500,038500,SUPPORTED SRO-OMH,NON-RESIDENTIAL HOUSING AND HOMELESS SERVICES,HUMAN SERVICES,HEALTH AND HUMAN SERVICES,Local,BRONXWORKS INC,,,NYC Department of Health and Mental Hygiene,NYCDOHMH,City,0,,40.8538440803,-73.8918144324,1014178.55175,250374.414313,moeo_socialservicesitelocations,e3c0887bc70018149454b7b5c7dc54b4
0101000020E6100000794E87DA967C52C0BC63249C4A574440,0101000020110F0000F8FFE373C7665FC1B9A8E8032AF15241,PROVIDENCE HOUSE INC.,178,HALSEY STREET,178 HALSEY STREET,BROOKLYN,11216,BROOKLYN,3,3322633,3018440050,303,BK75,BK0301,36,13,79,024900,024900,SUPPORTED SRO-OMH,NON-RESIDENTIAL HOUSING AND HOMELESS SERVICES,HUMAN SERVICES,HEALTH AND HUMAN SERVICES,Local,PROVIDENCE HOUSE INC.,,,NYC Department of Health and Mental Hygiene,NYCDOHMH,City,0,,40.6819644144,-73.9467073748,999031.019938,187738.942498,moeo_socialservicesitelocations,e43ee1675f4535f828cf83ac956a7f96
0101000020E610000046347B56F47C52C0D6271CA5FE664440,0101000020110F00000977B83E66675FC181E8EF64C4025341,CECIL HOUSING DEVELOPMENT FUND,206,WEST 118 STREET,206 WEST 118 STREET,NEW YORK,10026,MANHATTAN,1,1058396,1019230038,110,MN11,MN1001,9,03,28,021800,021800,SUPPORTED SRO-OMH,NON-RESIDENTIAL HOUSING AND HOMELESS SERVICES,HUMAN SERVICES,HEALTH AND HUMAN SERVICES,Local,CECIL HOUSING DEVELOPMENT FUND,,,NYC Department of Health and Mental Hygiene,NYCDOHMH,City,0,,40.8046461474,-73.9524131972,997424.195666,232434.898,moeo_socialservicesitelocations,e6cd75066ae9ad64b7ea4f61e1d39b36
0101000020E61000000E8419FB8ED961C000000000008056C0,,COMMON GROUND MANAGEMENT CORP,,,,BROOKLYN,,BROOKLYN,3,0,0,0,,,0,,0,,,"NY NY III SUPPORTED HOUSING-OASAS, SUPPORTED HOUSING-OASAS",NON-RESIDENTIAL HOUSING AND HOMELESS SERVICES,HUMAN SERVICES,HEALTH AND HUMAN SERVICES,Local,COMMON GROUND MANAGEMENT CORP,,,NYC Department of Health and Mental Hygiene,NYCDOHMH,City,0,,0,0,0,0,moeo_socialservicesitelocations,e7713b4cbf3cfd9cba8d9acae597de11
0101000020E6100000EB8EBBF5EE7C52C094D41597EA674440,0101000020110F00000EAC2C1C5D675FC199828824CD035341,PROJECT RENEWAL INC,351,WEST 126 STREET,351 WEST 126 STREET,NEW YORK,10027,MANHATTAN,1,1059332,1019530012,109,MN06,MN0902,9,05,26,021303,021303,NY NY III SUPPORTED HOUSING-OASAS,NON-RESIDENTIAL HOUSING AND HOMELESS SERVICES,HUMAN SERVICES,HEALTH AND HUMAN SERVICES,Local,PROJECT RENEWAL INC,,,NYC Department of Health and Mental Hygiene,NYCDOHMH,City,0,,40.8118466244,-73.9520849544,997513.633231,235058.336162,moeo_socialservicesitelocations,e7959b17d9e8f119935d3c522b097c91
0101000020E6100000422F5A807D7E52C0ABBCB3C5F45B4440,0101000020110F0000149DA712026A5FC155BEA9C763F65241,LAVANBURG HOMES,126,BARUCH PLACE,126 BARUCH PLACE,NEW YORK,10002,MANHATTAN,1,1077594,1003250001,103,MN28,MN0302,2,01,7,001002,001002,NYCHA COMMUNITY CENTER - URBAN FAMILY CENTER - SHELTERS,NON-RESIDENTIAL HOUSING AND HOMELESS SERVICES,HUMAN SERVICES,HEALTH AND HUMAN SERVICES,Local,NYC Housing Authority,NYCHA,Public,NYC Housing Authority,NYCHA,City,0,,40.7184073573,-73.9764099956,990789.249855,201012.575155,nycha_communitycenters,d4af8e43d72a621c4c35db88e12b48cc
0101000020E6100000E770F98AAD7852C0FF1B2677E76F4440,0101000020110F00006E3E28A022605FC133823DDAC40C5341,WEST BRONX HOUSING AND NEIGHBORHOOD RESOURCE CENTER INC,220,EAST 204 STREET,220 EAST 204 STREET,BRONX,10458,BRONX,2,2017268,2033090010,207,BX05,BX0702,11,10,52,041300,041300,HOUSING SUPPORT,NON-RESIDENTIAL HOUSING AND HOMELESS SERVICES,HUMAN SERVICES,HEALTH AND HUMAN SERVICES,Local,WEST BRONX HOUSING AND NEIGHBORHOOD RESOURCE CENTER INC,,,NYC Department of Youth and Community Development,NYCDYCD,City,0,,40.8742512641,-73.8855922167,1015890.15932,257811.725846,moeo_socialservicesitelocations,e821593a1d151e20adcacb9f13b3d4d1
0101000020E610000049E5B2F7EE7852C05ED527ED8D684440,0101000020110F0000A6118DC191605FC14D20666F84045341,BRONXWORKS INC,800,BARRETTO STREET,800 BARRETTO STREET,BRONX,10474,BRONX,2,2006002,2027400100,202,BX27,BX0201,17,08,41,009300,009301,DROP-IN CENTERS,NON-RESIDENTIAL HOUSING AND HOMELESS SERVICES,HUMAN SERVICES,HEALTH AND HUMAN SERVICES,Local,BRONXWORKS INC,,,NYC Department of Social Services,NYCDSS,City,0,,40.8168312494,-73.8895854228,1014812.18437,236890.047481,moeo_socialservicesitelocations,e86c2c9f499246acda273e1432e2113e
0101000020E6100000D5C7684CA27952C06AF62C1353554440,0101000020110F000029941D5EC2615FC1DD57C825F6EE5241,SERVICES FOR THE UNDERSERVED INC,350,SNEDIKER AVENUE,350 SNEDIKER AVENUE,BROOKLYN,11207,BROOKLYN,3,3401200,3037820140,305,BK85,BK0502,42,19,75,113400,113400,SUPPORTED SRO-OMH,NON-RESIDENTIAL HOUSING AND HOMELESS SERVICES,HUMAN SERVICES,HEALTH AND HUMAN SERVICES,Local,SERVICES FOR THE UNDERSERVED INC,,,NYC Department of Health and Mental Hygiene,NYCDOHMH,City,0,,40.6665977452,-73.9005309125,1011844.6837,182151.596832,moeo_socialservicesitelocations,e8f839e3e4f004dc1a4462421e1bebb8
0101000020E6100000C4237101A67852C040F34483C06B4440,0101000020110F000030F7A6D215605FC1785F373E1B085341,LOWER EASTSIDE SERVICE CENTER INC,1932,CROTONA PARKWAY,1932 CROTONA PARKWAY,BRONX,10460,BRONX,2,2115777,2029850031,206,BX17,BX0601,17,12,48,035900,035900,SUPPORTED SRO-OMH,NON-RESIDENTIAL HOUSING AND HOMELESS SERVICES,HUMAN SERVICES,HEALTH AND HUMAN SERVICES,Local,LOWER EASTSIDE SERVICE CENTER INC,,,NYC Department of Health and Mental Hygiene,NYCDOHMH,City,0,,40.8418125233,-73.8851321797,1016032.88327,245993.219935,nysdoh_healthfacilities,e9f99d3ece7d3fe5f912aaf557242b80
0101000020E610000023CA8AC2D57952C070D682BA87684440,0101000020110F000067B4B4C719625FC119EDD57A7D045341,GEEL COMMUNITY SERVICES INC,706,UNION AVENUE,706 UNION AVENUE,BRONX,10455,BRONX,2,2004944,2026750036,201,BX34,BX0102,17,08,40,007900,007900,SUPPORTED SRO-OMH,NON-RESIDENTIAL HOUSING AND HOMELESS SERVICES,HUMAN SERVICES,HEALTH AND HUMAN SERVICES,Local,GEEL COMMUNITY SERVICES INC,,,NYC Department of Health and Mental Hygiene,NYCDOHMH,City,0,,40.8166421065,-73.9036718711,1010913.20576,236816.534811,moeo_socialservicesitelocations,ebfc50d4ec70f95ec8f744b79f941f92
0101000020E61000005A337A32E37D52C02BEE4DFFB5664440,0101000020110F0000A8C1BEF8FB685FC1381245E272025341,THE BRIDGE INC,248,WEST 108 STREET,248 WEST 108 STREET,NEW YORK,10025,MANHATTAN,1,1056670,1018790057,107,MN09,MN0703,7,03,24,019500,019500,SUPPORTED HOUSING-OMH,NON-RESIDENTIAL HOUSING AND HOMELESS SERVICES,HUMAN SERVICES,HEALTH AND HUMAN SERVICES,Local,THE BRIDGE INC,,,NYC Department of Health and Mental Hygiene,NYCDOHMH,City,0,,40.8024291162,-73.9669920152,993388.419061,231625.298919,moeo_socialservicesitelocations,ec2a65b4fa478a58d78fbf2b099a9a1b
0101000020E610000039A1DDC2117952C048EDC4CF796C4440,0101000020110F0000BB3845DBCC605FC161DDC846EB085341,CENTER FOR URBAN COMMUNITY SERVICES INC,614,EAST 179 STREET,614 EAST 179 STREET,BRONX,10457,BRONX,2,2119194,2030680077,206,BX17,BX0602,17,12,48,037300,037300,SUPPORTED SRO-OMH,NON-RESIDENTIAL HOUSING AND HOMELESS SERVICES,HUMAN SERVICES,HEALTH AND HUMAN SERVICES,Local,CENTER FOR URBAN COMMUNITY SERVICES INC,,,NYC Department of Health and Mental Hygiene,NYCDOHMH,City,0,,40.8474673949,-73.8917090572,1014210.57493,248051.18306,moeo_socialservicesitelocations,ec320189a8345e3a9d748969d692292b
0101000020E6100000352671182D7A52C07F4A16EEB9544440,0101000020110F0000103ED920AE625FC1BED5CEAD4AEE5241,CAMBA INC,730,ROCKAWAY AVENUE,730 ROCKAWAY AVENUE,BROOKLYN,11212,BROOKLYN,3,3397844,3035890038,316,BK81,BK1602,42,23,73,091600,091600,SUPPORTED SRO-OMH,NON-RESIDENTIAL HOUSING AND HOMELESS SERVICES,HUMAN SERVICES,HEALTH AND HUMAN SERVICES,Local,CAMBA INC,,,NYC Department of Health and Mental Hygiene,NYCDOHMH,City,0,,40.6619241343,-73.9090024096,1009496.29328,180446.314721,moeo_socialservicesitelocations,ed2d03f1a705e8b7ad23ce91046258ed
0101000020E6100000DFDB15675F7952C0B430C16D216F4440,0101000020110F00007E9207BD50615FC15D6FD76DE60B5341,CENTER FOR URBAN COMMUNITY SERVICES INC,2700,JEROME AVENUE,2700 JEROME AVENUE,BRONX,10468,BRONX,2,2129358,2033177501,207,BX28,BX0702,14,10,52,040304,040304,SUPPORTED SRO-OMH,NON-RESIDENTIAL HOUSING AND HOMELESS SERVICES,HUMAN SERVICES,HEALTH AND HUMAN SERVICES,Local,CENTER FOR URBAN COMMUNITY SERVICES INC,,,NYC Department of Health and Mental Hygiene,NYCDOHMH,City,0,,40.8682076638,-73.896447917,1012890.55468,255606.070824,moeo_socialservicesitelocations,efe1cd7073c29bc582536f0362a6bf51
0101000020E610000058E5C015B27E52C0B0E1C73F145C4440,0101000020110F0000CC0533645B6A5FC1A03A4A0D87F65241,FLATBUSH DEVELOPMENT CORPORATION,111,COLUMBIA STREET,111 COLUMBIA STREET,NEW YORK,10002,MANHATTAN,1,1004070,1003350001,103,MN28,MN0302,2,01,7,002201,002201,HOUSING SUPPORT,NON-RESIDENTIAL HOUSING AND HOMELESS SERVICES,HUMAN SERVICES,HEALTH AND HUMAN SERVICES,Local,FLATBUSH DEVELOPMENT CORPORATION,,,NYC Department of Youth and Community Development,NYCDYCD,City,0,,40.7193679551,-73.9796194441,989899.495633,201362.327097,moeo_socialservicesitelocations,f0576f94fb40dc90aa3999e37d630ee1
0101000020E61000000E8419FB8ED961C000000000008056C0,,COMMON GROUND MANAGEMENT CORP,,,,BROOKLYN,,BROOKLYN,3,0,0,0,,,0,,0,,,SUPPORTED HOUSING-OMH,NON-RESIDENTIAL HOUSING AND HOMELESS SERVICES,HUMAN SERVICES,HEALTH AND HUMAN SERVICES,Local,COMMON GROUND MANAGEMENT CORP,,,NYC Department of Health and Mental Hygiene,NYCDOHMH,City,0,,0,0,0,0,moeo_socialservicesitelocations,f10e1452ddc9b767326e3696e06b3f3c
0101000020E61000006529155E217B52C0470EB2A102684440,0101000020110F00004DAB870C4D645FC193AFE21EE8035341,"WESTHAB, INC.",2640,3 AVENUE,2640 3 AVENUE,BRONX,10454,BRONX,2,2000752,2023150030,201,BX39,BX0101,8,07,40,004100,004100,DROP-IN CENTERS,NON-RESIDENTIAL HOUSING AND HOMELESS SERVICES,HUMAN SERVICES,HEALTH AND HUMAN SERVICES,Local,"Westhab, Inc.",,,NYC Department of Social Services,NYCDSS,City,0,,40.8125803105,-73.9239115915,1005312.22647,235331.164119,moeo_socialservicesitelocations,f1dbf1e71879e49cdf34ca76d3de3b97
0101000020E61000000FC059C6007A52C050C167844E6D4440,0101000020110F0000A8E05ED862625FC1EE0BEA19DA095341,THE JERICHO PROJECT,2065,WALTON AVENUE,2065 WALTON AVENUE,BRONX,10453,BRONX,2,2129079,2031790060,205,BX41,BX0502,14,10,46,024100,024100,SUPPORTED SRO-OMH,NON-RESIDENTIAL HOUSING AND HOMELESS SERVICES,HUMAN SERVICES,HEALTH AND HUMAN SERVICES,Local,THE JERICHO PROJECT,,,NYC Department of Health and Mental Hygiene,NYCDOHMH,City,0,,40.8539586548,-73.9062972905,1010171.95798,250411.541137,moeo_socialservicesitelocations,f2b1c7dca6bde90746a84e7686a06355
0101000020E6100000E51774C8107352C0E3B6AB1D165A4440,0101000020110F00009EA8F9249A565FC1DA86BB794BF45241,CATHOLIC CHARITIES NEIGHBORHOOD SERVICES INC,161-10,JAMAICA AVENUE,161-10 JAMAICA AVENUE,JAMAICA,11432,QUEENS,4,4440641,4101010015,412,QN61,QN1201,27,28,103,044601,044601,HOMEBASE HOMELESSNESS PREVENTION,NON-RESIDENTIAL HOUSING AND HOMELESS SERVICES,HUMAN SERVICES,HEALTH AND HUMAN SERVICES,Local,CATHOLIC CHARITIES NEIGHBORHOOD SERVICES INC,,,NYC Department of Social Services,NYCDSS,City,0,,40.7037999238,-73.7978993538,1040285.39069,195754.405801,moeo_socialservicesitelocations,cd12951ceaeda765ba81021f8e6db11d
0101000020E61000006F2198AEB27A52C05C7034C8BB694440,0101000020110F0000EFFED90991635FC131ED1A35D7055341,SERVICES FOR THE UNDERSERVED INC,284,EAST 162 STREET,284 EAST 162 STREET,BRONX,10451,BRONX,2,2128995,2024217501,204,BX14,BX0401,17,09,44,017300,017300,SUPPORTED SRO-OMH,NON-RESIDENTIAL HOUSING AND HOMELESS SERVICES,HUMAN SERVICES,HEALTH AND HUMAN SERVICES,Local,SERVICES FOR THE UNDERSERVED INC,,,NYC Department of Health and Mental Hygiene,NYCDOHMH,City,0,,40.8260431537,-73.9171558843,1007177.65164,240237.858261,moeo_socialservicesitelocations,f432b035e8b63683cb34afb988f604f5
0101000020E610000060B2A182787C52C01AB3AC67EA674440,0101000020110F0000120756E993665FC1A6FD54EFCC035341,HOUSING WORKS INC,145,WEST 130 STREET,145 WEST 130 STREET,NEW YORK,10027,MANHATTAN,1,1058027,1019150012,110,MN03,MN1002,9,05,32,022600,022600,SUPPORTED SRO-OMH,NON-RESIDENTIAL HOUSING AND HOMELESS SERVICES,HUMAN SERVICES,HEALTH AND HUMAN SERVICES,Local,HOUSING WORKS INC,,,NYC Department of Health and Mental Hygiene,NYCDOHMH,City,0,,40.8118409723,-73.9448553638,999514.897918,235057.454173,moeo_socialservicesitelocations,f59bf306bfa372ba34e2034e115a39ab
0101000020E6100000DCFCF4CBD47E52C06C4307CE385C4440,0101000020110F0000B4644F5A966A5FC13F220204B0F65241,CENTER FOR URBAN COMMUNITY SERVICES INC,133,PITT STREET,133 PITT STREET,NEW YORK,10002,MANHATTAN,1,1088482,1003450058,103,MN28,MN0302,2,01,7,002201,002201,SUPPORTED SRO-OMH,NON-RESIDENTIAL HOUSING AND HOMELESS SERVICES,HUMAN SERVICES,HEALTH AND HUMAN SERVICES,Local,CENTER FOR URBAN COMMUNITY SERVICES INC,,,NYC Department of Health and Mental Hygiene,NYCDOHMH,City,0,,40.7204835445,-73.9817380808,989312.124241,201768.641014,moeo_socialservicesitelocations,f8141cb245a286873b2e66c5605381c1
0101000020E6100000A12BD7ECD97E52C03B0615F566614440,0101000020110F00004EFA5F109F6A5FC12F5C3A8C7EFC5241,JEWISH BOARD OF FAMILY AND CHILDREN'S SERVICES INC,135,WEST 50 STREET,135 WEST 50 STREET,NEW YORK,10020,MANHATTAN,1,1022708,1010030005,105,MN17,MN0502,4,02,18,013100,013100,SUPPORTED HOUSING-OMH,NON-RESIDENTIAL HOUSING AND HOMELESS SERVICES,HUMAN SERVICES,HEALTH AND HUMAN SERVICES,Local,JEWISH BOARD OF FAMILY AND CHILDREN'S SERVICES INC,,,NYC Department of Health and Mental Hygiene,NYCDOHMH,City,0,,40.7609545092,-73.9820510959,989222.336541,216513.479817,moeo_socialservicesitelocations,f8516c5e48d84a619e3337eb96216973
0101000020E6100000B6A7AE135D7952C08839A38037694440,0101000020110F00002D6CADC94C615FC188A593BE42055341,URBAN PATHWAYS INC,975,KELLY STREET,975 KELLY STREET,BRONX,10459,BRONX,2,2114693,2027037501,202,BX33,BX0202,17,08,41,008700,008700,"NY NY III SUPPORTED HOUSING-OASAS, SUPPORTED HOUSING-OMH",NON-RESIDENTIAL HOUSING AND HOMELESS SERVICES,HUMAN SERVICES,HEALTH AND HUMAN SERVICES,Local,URBAN PATHWAYS INC,,,NYC Department of Health and Mental Hygiene,NYCDOHMH,City,0,,40.8220063016,-73.8963059627,1012949.74263,238773.231153,moeo_socialservicesitelocations,f9a760e79cfe0a680418d1a9ecd2e5d1
0101000020E610000060D3DCF6EB7C52C0F5230DE1B2544440,0101000020110F0000AD8C910558675FC104B6DFC842EE5241,PROVIDENCE HOUSE INC.,329,LINCOLN ROAD,329 LINCOLN ROAD,BROOKLYN,11225,BROOKLYN,3,3035375,3013290059,309,BK60,BK0902,40,17,71,080000,080000,SUPPORTED SRO-OMH,NON-RESIDENTIAL HOUSING AND HOMELESS SERVICES,HUMAN SERVICES,HEALTH AND HUMAN SERVICES,Local,PROVIDENCE HOUSE INC.,,,NYC Department of Health and Mental Hygiene,NYCDOHMH,City,0,,40.6617089571,-73.9519021184,997594.279727,180358.470046,moeo_socialservicesitelocations,fa40c1ce7bfc91ee99a7a0121375784d
0101000020E610000033A9E862177E52C08586CFC2E8654440,0101000020110F00006C4FC89E54695FC1F7FBCC9F8C015341,LANTERN COMMUNITY SERVICES INC,2612,BROADWAY,2612 BROADWAY,NEW YORK,10025,MANHATTAN,1,1056409,1018700045,107,MN12,MN0703,7,03,24,018700,018700,SUPPORTED SRO-OMH,NON-RESIDENTIAL HOUSING AND HOMELESS SERVICES,HUMAN SERVICES,HEALTH AND HUMAN SERVICES,Local,LANTERN COMMUNITY SERVICES INC,,,NYC Department of Health and Mental Hygiene,NYCDOHMH,City,0,,40.7961658009,-73.9701773897,992507.309747,229343.038257,moeo_socialservicesitelocations,faf1f794dffa054a9c9899d4cdf81b7b
0101000020E61000008B6AD6F3FF7E52C0284390C392554440,0101000020110F0000333D3FA8DF6A5FC1511EE5753DEF5241,LUTHERAN SOCIAL SERVICES OF METROPOLITAN NEW YORK INC,357,9 STREET,357 9 STREET,BROOKLYN,11215,BROOKLYN,3,3022136,3010057502,306,BK37,BK0602,39,15,78,013700,013700,SUPPORTED SRO-OMH,NON-RESIDENTIAL HOUSING AND HOMELESS SERVICES,HUMAN SERVICES,HEALTH AND HUMAN SERVICES,Local,LUTHERAN SOCIAL SERVICES OF METROPOLITAN NEW YORK INC,,,NYC Department of Health and Mental Hygiene,NYCDOHMH,City,0,,40.6685413792,-73.9843721008,988585.361581,182844.437111,moeo_socialservicesitelocations,fb074cc8da2908d5282de5c9cea8ccab
0101000020E61000000F7B00B0797F52C0C3DA5DE812614440,0101000020110F0000B153B76FAE6B5FC13C3C7E4E20FC5241,PROJECT RENEWAL INC,351,WEST 42 STREET,351 WEST 42 STREET,NEW YORK,10036,MANHATTAN,1,1024937,1010330006,104,MN15,MN0402,3,02,14,012100,012101,"SUPPORTED SRO-OMH, ON-SITE REHABILITATION-OMH, ASSISTED COMPETITIVE EMPLOYMENT-OMH, HOMELESS PLACEMENT SERVICES (NON-LICENSED PROGRAM)-OMH",NON-RESIDENTIAL HOUSING AND HOMELESS SERVICES,HUMAN SERVICES,HEALTH AND HUMAN SERVICES,Local,PROJECT RENEWAL INC,,,NYC Department of Health and Mental Hygiene,NYCDOHMH,City,0,,40.7583895168,-73.9918022156,986521.09759,215578.566004,moeo_socialservicesitelocations,fb42a2a52cf8a7cf473f58a669406ac7
0101000020E6100000F906A5B4867A52C06CDCF54033674440,0101000020110F0000945B175746635FC16BD93F6CFF025341,BARRIER FREE LIVING INC,616,EAST 139 STREET,616 EAST 139 STREET,BRONX,10454,BRONX,2,2127488,2025510030,201,BX39,BX0101,8,07,40,002702,002702,SUPPORTED SRO-OMH,NON-RESIDENTIAL HOUSING AND HOMELESS SERVICES,HUMAN SERVICES,HEALTH AND HUMAN SERVICES,Local,BARRIER FREE LIVING INC,,,NYC Department of Health and Mental Hygiene,NYCDOHMH,City,0,,40.8062516406,-73.9144717798,1007927.53536,233027.816548,moeo_socialservicesitelocations,fb60bedd35be67544abce8945a352740
0101000020E6100000BCB7EF41217E52C0506D6C1929594440,0101000020110F00003D6D316365695FC1F814F4F441F35241,"BROOKLYN COMMUNITY HOUSING & SERVICES,INC.",40,VANDERBILT AVENUE,40 VANDERBILT AVENUE,BROOKLYN,11205,BROOKLYN,3,3395153,3020330001,302,BK68,BK0203,35,13,88,021100,021100,SUPPORTED SRO-OMH,NON-RESIDENTIAL HOUSING AND HOMELESS SERVICES,HUMAN SERVICES,HEALTH AND HUMAN SERVICES,Local,"BROOKLYN COMMUNITY HOUSING & SERVICES,INC.",,,NYC Department of Health and Mental Hygiene,NYCDOHMH,City,0,,40.696566751,-73.9707798805,992352.596028,193055.855906,moeo_socialservicesitelocations,fbd301ded6519ea743ee345e230f8b4f
0101000020E610000029F37B80AA7952C0C87E367D07684440,0101000020110F00006AD64D4DD0615FC1C4864C92ED035341,BRONXWORKS INC,630,SOUTHERN BOULEVARD,630 SOUTHERN BOULEVARD,BRONX,10455,BRONX,2,2004141,2026030150,202,BX33,BX0202,8,08,41,008300,008300,HOUSING SUPPORT,NON-RESIDENTIAL HOUSING AND HOMELESS SERVICES,HUMAN SERVICES,HEALTH AND HUMAN SERVICES,Local,BRONXWORKS INC,,,NYC Department of Youth and Community Development,NYCDYCD,City,0,,40.8127285495,-73.901031609,1011645.62941,235391.501351,moeo_socialservicesitelocations,fce0516fbd6758fd2c5bdc721d305ad5
0101000020E6100000FBED785E0B7B52C0FD0E41D3D6574440,0101000020110F00006A56ACAE27645FC127D4D40DC7F15241,HOUSING WORKS INC,874,JEFFERSON AVENUE,874 JEFFERSON AVENUE,BROOKLYN,11221,BROOKLYN,3,3039849,3014870017,303,BK35,BK0302,41,16,81,037500,037500,SUPPORTED SRO-OMH,NON-RESIDENTIAL HOUSING AND HOMELESS SERVICES,HUMAN SERVICES,HEALTH AND HUMAN SERVICES,Local,HOUSING WORKS INC,,,NYC Department of Health and Mental Hygiene,NYCDOHMH,City,0,,40.6862434454,-73.9225689106,1005724.58403,189302.912522,moeo_socialservicesitelocations,ffeaa79c278241f706fc725d2cdb52d4
0101000020E6100000920C2D3EE47A52C0631C1E46D6564440,0101000020110F00009C5EFC38E5635FC1D52080BAA7F05241,CAMBA INC,1958,FULTON STREET,1958 FULTON STREET,BROOKLYN,11233,BROOKLYN,3,3042090,3015480019,303,BK79,BK1601,41,16,81,030100,030100,HOMEBASE HOMELESSNESS PREVENTION,NON-RESIDENTIAL HOUSING AND HOMELESS SERVICES,HUMAN SERVICES,HEALTH AND HUMAN SERVICES,Local,CAMBA INC,,,NYC Department of Social Services,NYCDSS,City,0,,40.6784141207,-73.9201808391,1006389.48602,186451.058707,moeo_socialservicesitelocations,e39b8ff50245771feed5f7bff5b0c427
0101000020E61000001A465E641A7A52C0396127FF5A684440,0101000020110F000055D4D25B8E625FC1C6FC0C484B045341,BRONXWORKS INC,630,JACKSON AVENUE,630 JACKSON AVENUE,BRONX,10455,BRONX,2,2004558,2026430001,201,BX34,BX0102,8,07,40,007300,007300,HOMEBASE HOMELESSNESS PREVENTION,NON-RESIDENTIAL HOUSING AND HOMELESS SERVICES,HUMAN SERVICES,HEALTH AND HUMAN SERVICES,Local,BRONXWORKS INC,,,NYC Department of Social Services,NYCDSS,City,0,,40.8152769987,-73.9078608443,1009754.23983,236317.929943,moeo_socialservicesitelocations,e53a143c53601a154fb0888e3831799b
0101000020E6100000E5074636027952C09DD5429394684440,0101000020110F0000D381D571B2605FC19F568AE58B045341,CATHOLIC CHARITIES COMMUNITY SERVICES ARCHDIOCESE OF NY,890,GARRISON AVENUE,890 GARRISON AVENUE,BRONX,10474,BRONX,2,2005939,2027390015,202,BX27,BX0201,17,08,41,009300,009301,HOMEBASE HOMELESSNESS PREVENTION,NON-RESIDENTIAL HOUSING AND HOMELESS SERVICES,HUMAN SERVICES,HEALTH AND HUMAN SERVICES,Local,CATHOLIC CHARITIES COMMUNITY SERVICES ARCHDIOCESE OF NY,,,NYC Department of Social Services,NYCDSS,City,0,,40.8170341567,-73.8907600107,1014486.9725,236963.566232,moeo_socialservicesitelocations,e6030d95c4709171e7a3571da7733993
0101000020E6100000384DD99A9A7B52C02547F0A0AC554440,0101000020110F000066B999FB1A655FC1946D096C5AEF5241,CAMBA INC,1117,EASTERN PARKWAY,1117 EASTERN PARKWAY,BROOKLYN,11213,BROOKLYN,3,3259314,3013900044,308,BK61,BK0802,35,17,77,035100,035101,HOMEBASE HOMELESSNESS PREVENTION,NON-RESIDENTIAL HOUSING AND HOMELESS SERVICES,HUMAN SERVICES,HEALTH AND HUMAN SERVICES,Local,CAMBA INC,,,NYC Department of Social Services,NYCDSS,City,0,,40.6693307089,-73.931311333,1003304.81027,183139.096411,moeo_socialservicesitelocations,ed77d700d2a7adfa36dce2d520769a60
0101000020E610000006B901D8AB7A52C0E6B105FC7D594440,0101000020110F00006E6E4D6C85635FC1D777E20BA1F35241,RISEBORO COMMUNITY PARTNERSHIP INC,1475,MYRTLE AVENUE,1475 MYRTLE AVENUE,BROOKLYN,11237,BROOKLYN,3,3075697,3033090002,304,BK77,BK0402,37,32,83,043300,043300,HOMEBASE HOMELESSNESS PREVENTION,NON-RESIDENTIAL HOUSING AND HOMELESS SERVICES,HUMAN SERVICES,HEALTH AND HUMAN SERVICES,Local,RISEBORO COMMUNITY PARTNERSHIP INC,,,NYC Department of Social Services,NYCDSS,City,0,,40.6991572404,-73.9167385121,1007337.10265,194009.268755,moeo_socialservicesitelocations,f8003a21981b6b79efdc49770b6323d5
