the_geom,the_geom_webmercator,facname,addressnum,streetname,address,city,zipcode,boro,borocode,bin,bbl,cd,nta2010,nta2020,council,schooldist,policeprct,ct2010,ct2020,factype,facsubgrp,facgroup,facdomain,servarea,opname,opabbrev,optype,overagency,overabbrev,overlevel,capacity,captype,latitude,longitude,xcoord,ycoord,datasouce,uid
0101000020E61000000E8419FB8ED961C000000000008056C0,,NYCDOS WEST 59TH STREET MTS,,,,NEW YORK,10023,MANHATTAN,1,0,0,0,,,0,,0,,,TRANSFER STATION,SOLID WASTE TRANSFER AND CARTING,SOLID WASTE,CORE INFRASTRUCTURE AND TRANSPORTATION,Regional,NYC Department of Sanitation,NYCDSNY,Public,NYC Department of Sanitation,NYCDSNY,City,0,,0,0,0,0,nysdec_solidwaste,4f8a615fc7c5c911a72dac9d46580960
0101000020E61000005D6577B0337252C0372FFE8820554440,0101000020110F0000D499339822555FC16E08358FBDEE5241,QE13G GARAGE,153-67,146 AVENUE,153-67 146 AVENUE,JAMAICA,11434,QUEENS,4,4433112,4150010073,413,QN03,QN1306,31,29,105,030600,030600,DSNY GARAGE,SOLID WASTE TRANSFER AND CARTING,SOLID WASTE,CORE INFRASTRUCTURE AND TRANSPORTATION,Regional,NYC Department of Sanitation,NYCDSNY,Public,NYC Department of Sanitation,NYCDSNY,City,0,,40.6650553929,-73.7844048654,1044061.67149,181647.611661,dsny_garages,003cd3ba509c232e37fba53e178728d9
0101000020E6100000D9B9AC0BFF7152C0BB1B6076E54C4440,0101000020110F000086C6832CC9545FC14FF2C97B87E55241,QE14G GARAGE,51-10,ALMEDA AVENUE,51-10 ALMEDA AVENUE,FAR ROCKAWAY,11691,QUEENS,4,4616024,4159800100,414,QN12,QN1491,31,27,101,097203,097207,DSNY GARAGE,SOLID WASTE TRANSFER AND CARTING,SOLID WASTE,CORE INFRASTRUCTURE AND TRANSPORTATION,Regional,NYC Department of Sanitation,NYCDSNY,Public,NYC Department of Sanitation,NYCDSNY,City,0,,40.6007526373,-73.7811917486,1045011.59,158222.673264,dsny_garages,0059b283716adf863a6f58fa7239a918
0101000020E610000014AEBBDC7C7B52C0A3457BB952674440,0101000020110F0000C63D4276E8645FC1B51612BC22035341,WMNY LLC HARLEM RIVER YARD,98,LINCOLN AVENUE,98 LINCOLN AVENUE,BRONX,10454,BRONX,2,2000682,2023080001,201,BX39,BX0101,8,07,40,001900,001901,TRANSFER STATION,SOLID WASTE TRANSFER AND CARTING,SOLID WASTE,CORE INFRASTRUCTURE AND TRANSPORTATION,Regional,"Waste Management of NY; LLC",Non-public,Non-public,NYS Department of Environmental Conservation,NYSDEC,State,0,,40.8072120529,-73.9294959857,1003767.97063,233374.024243,nysdec_solidwaste,039e05ba3b1d482ea21f7a58a37fa36b
0101000020E61000001A3177A1367F52C075370E34044A4440,0101000020110F0000C975A0883C6B5FC11F595BEF4EE25241,BKS13G GARAGE,2012,NEPTUNE AVENUE,2012 NEPTUNE AVENUE,BROOKLYN,11224,BROOKLYN,3,3387557,3070180007,313,BK21,BK1302,47,21,60,032600,032600,DSNY GARAGE,SOLID WASTE TRANSFER AND CARTING,SOLID WASTE,CORE INFRASTRUCTURE AND TRANSPORTATION,Regional,NYC Department of Sanitation,NYCDSNY,Public,NYC Department of Sanitation,NYCDSNY,City,0,,40.5782532758,-73.9877093944,987664.172749,149949.939311,dsny_garages,06d5eb86702a284106b3f9e667cfda4e
0101000020E6100000DA85B50FCD7A52C081869D20CB5B4440,0101000020110F00003E55B2D8BD635FC18A65631D35F65241,NEW STYLE RECYCLING CORP,49-10,GRAND AVENUE,49-10 GRAND AVENUE,MASPETH,11378,QUEENS,4,4059004,4026110126,405,QN30,QN0501,30,24,104,053500,053502,TRANSFER STATION,SOLID WASTE TRANSFER AND CARTING,SOLID WASTE,CORE INFRASTRUCTURE AND TRANSPORTATION,Regional,Antoinette Cristina,Non-public,Non-public,NYS Department of Environmental Conservation,NYSDEC,State,0,,40.7171364563,-73.9187659526,1006768.85087,200559.108061,nysdec_solidwaste,0b0a3c54389907c05c7387fa70b3228e
0101000020E61000000E8419FB8ED961C000000000008056C0,,DSNY NORTH SHORE HOUSEHOLD SPECIAL WASTE DROP-OFF FACILITY,,,,FLUSHING,11354,QUEENS,4,0,0,0,,,0,,0,,,TRANSFER STATION,SOLID WASTE TRANSFER AND CARTING,SOLID WASTE,CORE INFRASTRUCTURE AND TRANSPORTATION,Regional,NYC Department of Sanitation,NYCDSNY,Public,NYC Department of Sanitation,NYCDSNY,City,0,,0,0,0,0,nysdec_solidwaste,0b2033eb003975854690b6ee2f3a5e1b
0101000020E6100000C17BA660A27F52C0E12443F3E0554440,0101000020110F0000B414718DF36B5FC166604F0295EF5241,BKS06G GARAGE,127,2 AVENUE,127 2 AVENUE,BROOKLYN,11215,BROOKLYN,3,3022747,3010200001,306,BK37,BK0601,39,15,78,011700,011700,DSNY GARAGE,SOLID WASTE TRANSFER AND CARTING,SOLID WASTE,CORE INFRASTRUCTURE AND TRANSPORTATION,Regional,NYC Department of Sanitation,NYCDSNY,Public,NYC Department of Sanitation,NYCDSNY,City,0,,40.670927437,-73.9942857391,985835.145955,183713.410659,dsny_garages,0d3c81c03fea4a17cfb2ccacaf618963
0101000020E61000001D30D311977F52C01410A3EBA3624440,0101000020110F0000411E4A58E06B5FC1A04123FAE1FD5241,MN07G GARAGE,650,WEST 57 STREET,650 WEST 57 STREET,NEW YORK,10019,MANHATTAN,1,1087609,1011040001,104,MN15,MN0402,6,02,18,013500,013502,DSNY GARAGE,SOLID WASTE TRANSFER AND CARTING,SOLID WASTE,CORE INFRASTRUCTURE AND TRANSPORTATION,Regional,NYC Department of Sanitation,NYCDSNY,Public,NYC Department of Sanitation,NYCDSNY,City,0,,40.7706274551,-73.9935955587,986023.947474,220037.209152,dsny_garages,0e37baddfc5ee0a3336b148c5fdc5945
0101000020E6100000B3E380E8967F52C03A28C0FD93624440,0101000020110F000050D01912E06B5FC1B25D0C1DD0FD5241,MN03A GARAGE,786,12 AVENUE,786 12 AVENUE,NEW YORK,10019,MANHATTAN,1,1027163,1011030044,104,MN15,MN0402,6,02,18,013500,013502,DSNY GARAGE,SOLID WASTE TRANSFER AND CARTING,SOLID WASTE,CORE INFRASTRUCTURE AND TRANSPORTATION,Regional,NYC Department of Sanitation,NYCDSNY,Public,NYC Department of Sanitation,NYCDSNY,City,0,,40.7701413338,-73.9935857069,986026.689254,219860.099194,dsny_garages,0fa11070a00cc65102241be550ce3372
0101000020E61000006C6FD4C6047952C06E8186DDE6674440,0101000020110F00002A970FCDB6605FC1AC7782F6C8035341,TRI-STATE TRANSFER ASSOCIATES INC (ASBESTOS),1199,RANDALL AVENUE,1199 RANDALL AVENUE,BRONX,10474,BRONX,2,2088212,2027650074,202,BX27,BX0201,17,08,41,009300,009302,TRANSFER STATION,SOLID WASTE TRANSFER AND CARTING,SOLID WASTE,CORE INFRASTRUCTURE AND TRANSPORTATION,Regional,Jaime Byrne Baranoff,Non-public,Non-public,NYS Department of Environmental Conservation,NYSDEC,State,0,,40.8117329506,-73.8909165459,1014446.04968,235032.09452,nysdec_solidwaste,11e23e1d6413e9bc577bbc9ef65da60f
0101000020E61000006BBE95A2F28452C018418BB238514440,0101000020110F00009CAE3B16FA745FC16E0B75555EEA5241,SI LCU GARAGE,66,SWAN STREET,66 SWAN STREET,STATEN ISLAND,10301,STATEN ISLAND,5,5013317,5005040049,501,SI37,SI0102,49,31,120,002100,002100,DSNY GARAGE,SOLID WASTE TRANSFER AND CARTING,SOLID WASTE,CORE INFRASTRUCTURE AND TRANSPORTATION,Regional,NYC Department of Sanitation,NYCDSNY,Public,NYC Department of Sanitation,NYCDSNY,City,0,,40.6345427681,-74.0773092705,962792.577179,170466.886341,dsny_garages,161ab5911bd2f58371a04c220ed3d3b2
0101000020E61000000CB8E21E8E7852C08AC94846C96A4440,0101000020110F0000FA857640ED5F5FC18721C7B205075341,BX03A GARAGE,1661,WEST FARMS ROAD,1661 WEST FARMS ROAD,BRONX,10460,BRONX,2,2010954,2030150049,203,BX75,BX0303,17,12,42,016100,016100,DSNY GARAGE,SOLID WASTE TRANSFER AND CARTING,SOLID WASTE,CORE INFRASTRUCTURE AND TRANSPORTATION,Regional,NYC Department of Sanitation,NYCDSNY,Public,NYC Department of Sanitation,NYCDSNY,City,0,,40.8342674119,-73.8836743557,1016439.90024,243244.789519,dsny_garages,16b94090f82551f9aeee78d849152ad9
0101000020E61000000089CDF2B27752C0B09C7A4D99544440,0101000020110F0000F4043DF7785E5FC13653352626EE5241,BKN05G GARAGE,606,MILFORD STREET,606 MILFORD STREET,BROOKLYN,11208,BROOKLYN,3,3099068,3045620001,305,BK82,BK0503,42,19,75,107800,107800,DSNY GARAGE,SOLID WASTE TRANSFER AND CARTING,SOLID WASTE,CORE INFRASTRUCTURE AND TRANSPORTATION,Regional,NYC Department of Sanitation,NYCDSNY,Public,NYC Department of Sanitation,NYCDSNY,City,0,,40.6609284256,-73.8702971468,1020235.1786,180097.078163,dsny_garages,19d8e9ee1f98a0d89c453c1e742ef2cc
0101000020E6100000D77DF0B3707B52C0647F8BFEE4684440,0101000020110F00009C8BDDCED3645FC180618525E6045341,MN09G GARAGE,125,EAST 149 STREET,125 EAST 149 STREET,BRONX,10451,BRONX,2,2001102,2023520028,204,BX63,BX0401,8,07,44,006300,006301,DSNY GARAGE,SOLID WASTE TRANSFER AND CARTING,SOLID WASTE,CORE INFRASTRUCTURE AND TRANSPORTATION,Regional,NYC Department of Sanitation,NYCDSNY,Public,NYC Department of Sanitation,NYCDSNY,City,0,,40.819488352,-73.9287538389,1003969.7849,237846.883645,dsny_garages,1a0f541af7a741c6e85d8ca7b37a4c1e
0101000020E6100000779A8032267652C0C822EA3892624440,0101000020110F0000EA5E420BD75B5FC1A1413921CEFD5241,QN LCU GARAGE,30-19,122 STREET,30-19 122 STREET,FLUSHING,11354,QUEENS,4,4570021,4043500001,407,QN23,QN0701,19,25,109,090700,090700,DSNY GARAGE,SOLID WASTE TRANSFER AND CARTING,SOLID WASTE,CORE INFRASTRUCTURE AND TRANSPORTATION,Regional,NYC Department of Sanitation,NYCDSNY,Public,NYC Department of Sanitation,NYCDSNY,City,0,,40.7700873513,-73.8460813767,1026883.79331,219877.822811,dsny_garages,1bfacb49c3905547b9c06a7a2a2b6eaa
0101000020E6100000DA7E0748997A52C094AAC7AB75664440,0101000020110F00006B3097E465635FC120035AB62A025341,MN08A/11A GARAGE,720,EAST 132 STREET,720 EAST 132 STREET,BRONX,10454,BRONX,2,2003581,2025430060,201,BX39,BX0101,17,07,40,001900,001903,DSNY GARAGE,SOLID WASTE TRANSFER AND CARTING,SOLID WASTE,CORE INFRASTRUCTURE AND TRANSPORTATION,Regional,NYC Department of Sanitation,NYCDSNY,Public,NYC Department of Sanitation,NYCDSNY,City,0,,40.8004660341,-73.9156055524,1007615.69396,230919.613215,dsny_garages,1ff821843aeac5462fd72c8a4ace0b4d
0101000020E6100000F9624C48018052C03203677E24564440,0101000020110F00002B770BC2946C5FC1BB8B91A4E0EF5241,WASTE CONNECTIONS (IESI 577 COURT ST) BROOKLYN,563,COURT STREET,563 COURT STREET,BROOKLYN,11231,BROOKLYN,3,3259536,3004840006,306,BK33,BK0601,38,15,76,005300,005302,TRANSFER STATION,SOLID WASTE TRANSFER AND CARTING,SOLID WASTE,CORE INFRASTRUCTURE AND TRANSPORTATION,Regional,"Waste Connections of New York; Inc.",Non-public,Non-public,NYS Department of Environmental Conservation,NYSDEC,State,0,,40.6729887014,-74.0000782724,984228.287771,184464.336281,nysdec_solidwaste,26b6b3eae6c45c92f4832199cdf4b78a
0101000020E61000002F7B344C4B8152C089CF371E9E534440,0101000020110F000045307652C56E5FC127CBCCF00CED5241,BKS07G GARAGE,5100,1 AVENUE,5100 1 AVENUE,BROOKLYN,11232,BROOKLYN,3,0,3007250200,307,BK32,BK0702,38,15,72,001800,001803,DSNY GARAGE,SOLID WASTE TRANSFER AND CARTING,SOLID WASTE,CORE INFRASTRUCTURE AND TRANSPORTATION,Regional,NYC Department of Sanitation,NYCDSNY,Public,NYC Department of Sanitation,NYCDSNY,City,0,,40.6532628792,-74.0202208048,978639.227902,177278.31268,dsny_garages,29e51f884b3cfd5c07a82eec9e220867
0101000020E6100000F785D495CF7F52C0A89D48A7AE5E4440,0101000020110F0000B8FBA657406C5FC10E5043EC71F95241,SECTION 51/41-2,128,WEST 17 STREET,128 WEST 17 STREET,NEW YORK,10011,MANHATTAN,1,1014588,1007920053,104,MN13,MN0401,3,02,13,008100,008100,SANITATION SECTION STATION,SOLID WASTE TRANSFER AND CARTING,SOLID WASTE,CORE INFRASTRUCTURE AND TRANSPORTATION,Regional,NYC Department of Sanitation,NYCDSNY,Public,NYC Department of Sanitation,NYCDSNY,City,0,,40.739705,-73.997045,985068.876859,208771.103046,dcp_colp,2b5015539e3abffec6d130e4d351d784
0101000020E6100000360F9152867F52C0CE7BCF4AF35A4440,0101000020110F0000C829F3E5C36B5FC1D0FD6B4643F55241,DSNY PIKE SLIP HOUSEHOLD SPECIAL WASTE DROPOFF FACILITY,74,PIKE SLIP,74 PIKE SLIP,NEW YORK,10002,MANHATTAN,1,0,1002490056,103,MN27,MN0301,1,01,5,000800,000800,TRANSFER STATION,SOLID WASTE TRANSFER AND CARTING,SOLID WASTE,CORE INFRASTRUCTURE AND TRANSPORTATION,Regional,NYC Department of Sanitation,NYCDSNY,Public,NYC Department of Sanitation,NYCDSNY,City,0,,40.7105496893,-73.9925733964,986308.928919,198148.994377,nysdec_solidwaste,2b9ee08fd048ba73647014b9d0ec1232
0101000020E6100000CCAB77C4A78052C0677EAF2B085D4440,0101000020110F0000ACD6B08CAF6D5FC17EE75C6698F75241,MN05G GARAGE,353,SPRING STREET,353 SPRING STREET,NEW YORK,10014,MANHATTAN,1,1089625,1005967501,102,MN24,MN0201,3,02,1,003700,003700,DSNY GARAGE,SOLID WASTE TRANSFER AND CARTING,SOLID WASTE,CORE INFRASTRUCTURE AND TRANSPORTATION,Regional,NYC Department of Sanitation,NYCDSNY,Public,NYC Department of Sanitation,NYCDSNY,City,0,,40.7268118488,-74.0102397121,981411.866022,204073.875848,dsny_garages,2c02ab03eccb3df89217984df2337db0
0101000020E6100000E63FA4F6657B52C0DA89D5321E4F4440,0101000020110F00003B0AE890C1645FC138B606BF03E85241,BKS15A GARAGE,1750,EAST 49 STREET,1750 EAST 49 STREET,BROOKLYN,11234,BROOKLYN,3,3220944,3078930052,318,BK58,BK1801,46,22,63,067200,067200,DSNY GARAGE,SOLID WASTE TRANSFER AND CARTING,SOLID WASTE,CORE INFRASTRUCTURE AND TRANSPORTATION,Regional,NYC Department of Sanitation,NYCDSNY,Public,NYC Department of Sanitation,NYCDSNY,City,0,,40.6181090875,-73.9280983546,1004211.43483,164478.383124,dsny_garages,3124a327320d9269cfb6e3cf92970311
0101000020E61000007AA66B74F67852C0E057E5C7BA534440,0101000020110F00000CB54B799E605FC1DA4421072DED5241,BKN16G GARAGE,922,GEORGIA AVENUE,922 GEORGIA AVENUE,BROOKLYN,11207,BROOKLYN,3,3097871,3043880001,305,BK82,BK0503,42,19,75,110400,110400,DSNY GARAGE,SOLID WASTE TRANSFER AND CARTING,SOLID WASTE,CORE INFRASTRUCTURE AND TRANSPORTATION,Regional,NYC Department of Sanitation,NYCDSNY,Public,NYC Department of Sanitation,NYCDSNY,City,0,,40.6541375992,-73.8900424049,1014760.09918,177615.498892,dsny_garages,3524ff3803d0e85abea9d6bbdd5927ce
0101000020E61000000B422EE2EF7A52C05598625C746B4440,0101000020110F0000D8DED2FEF8635FC1639BC9C0C5075341,BX05G GARAGE,1331,CROMWELL AVENUE,1331 CROMWELL AVENUE,BRONX,10452,BRONX,2,2008640,2028710077,204,BX26,BX0403,16,09,44,021900,021900,DSNY GARAGE,SOLID WASTE TRANSFER AND CARTING,SOLID WASTE,CORE INFRASTRUCTURE AND TRANSPORTATION,Regional,NYC Department of Sanitation,NYCDSNY,Public,NYC Department of Sanitation,NYCDSNY,City,0,,40.8394885519,-73.9208913276,1006139.41959,245135.555604,dsny_garages,36adcc47b6b7635fa2c3c8d2c39edc35
0101000020E610000032BE5CF4628552C067C360C474514440,0101000020110F000086DA6ADFB8755FC16F75D18FA1EA5241,SI01G GARAGE,539,JERSEY STREET,539 JERSEY STREET,STATEN ISLAND,10301,STATEN ISLAND,5,5106487,5000340001,501,SI22,SI0101,49,31,120,001100,001100,DSNY GARAGE,SOLID WASTE TRANSFER AND CARTING,SOLID WASTE,CORE INFRASTRUCTURE AND TRANSPORTATION,Regional,NYC Department of Sanitation,NYCDSNY,Public,NYC Department of Sanitation,NYCDSNY,City,0,,40.6363759496,-74.0841647062,960890.472441,171136.517191,dsny_garages,3939f645ac404696d8bb600e9d841b43
0101000020E610000003E3CC16877B52C00D6685EA3E5B4440,0101000020110F0000E5324FD5F9645FC10E20F50198F55241,WMNY VARICK 1 TRANSFER STATION,215,VARICK AVENUE,215 VARICK AVENUE,BROOKLYN,11237,BROOKLYN,3,3332350,3029500001,301,BK90,BK0104,34,14,90,044900,044902,TRANSFER STATION,SOLID WASTE TRANSFER AND CARTING,SOLID WASTE,CORE INFRASTRUCTURE AND TRANSPORTATION,Regional,"Waste Management of NY; LLC",Non-public,Non-public,NYS Department of Environmental Conservation,NYSDEC,State,0,,40.7128575467,-73.9301201823,1003622.59473,198997.456635,nysdec_solidwaste,398ea20bad67af345098b2e07a21e8b3
0101000020E61000007A5FD7C0567C52C007C33B18B1634440,0101000020110F000048B462925A665FC1C207CBDB0FFF5241,91 ST MARINE TRANSFER STATION,1740,YORK AVENUE,1740 YORK AVENUE,NEW YORK,10128,MANHATTAN,1,0,1015870027,0,,,0,,0,,015200,SOLID WASTE TRANSFER STATION,SOLID WASTE TRANSFER AND CARTING,SOLID WASTE,CORE INFRASTRUCTURE AND TRANSPORTATION,Regional,NYC Department of Sanitation,NYCDSNY,Public,NYC Department of Sanitation,NYCDSNY,City,0,,40.778842,-73.942795,1000093.09013,223035.151683,dcp_colp,3ca5d1a7fec5a29f2cbf866b0b1efca7
0101000020E6100000A97D19E7007952C0410CA0B7BE6B4440,0101000020110F000091DC8138B0605FC18727333A19085341,BX06G GARAGE,800,EAST 176 STREET,800 EAST 176 STREET,BRONX,10460,BRONX,2,2097277,2029530021,206,BX17,BX0602,17,12,48,036700,036700,DSNY GARAGE,SOLID WASTE TRANSFER AND CARTING,SOLID WASTE,CORE INFRASTRUCTURE AND TRANSPORTATION,Regional,NYC Department of Sanitation,NYCDSNY,Public,NYC Department of Sanitation,NYCDSNY,City,0,,40.8417577296,-73.8906800984,1014497.85025,245971.292209,dsny_garages,3e10a4a74ea6c1581c5331310d926a8c
0101000020E6100000D474B96E1C7A52C0ADBAC8E5F75D4440,0101000020110F00007F1C19D391625FC1B5BAB613A5F85241,QW04G GARAGE,52-35,58 STREET,52-35 58 STREET,WOODSIDE,11377,QUEENS,4,4462505,4023610268,402,QN50,QN0203,30,24,108,024300,024300,DSNY GARAGE,SOLID WASTE TRANSFER AND CARTING,SOLID WASTE,CORE INFRASTRUCTURE AND TRANSPORTATION,Regional,NYC Department of Sanitation,NYCDSNY,Public,NYC Department of Sanitation,NYCDSNY,City,0,,40.7341277338,-73.9079853833,1009750.82363,206752.508656,dsny_garages,40d95d40de4417dde096beb09c68324e
0101000020E6100000116246787B7B52C0F79FFEBA015B4440,0101000020110F00007455C718E6645FC1C44CBE7353F55241,BKN01G GARAGE,161,VARICK AVENUE,161 VARICK AVENUE,BROOKLYN,11237,BROOKLYN,3,3400387,3029620001,301,BK90,BK0104,34,14,90,044900,044902,DSNY GARAGE,SOLID WASTE TRANSFER AND CARTING,SOLID WASTE,CORE INFRASTRUCTURE AND TRANSPORTATION,Regional,NYC Department of Sanitation,NYCDSNY,Public,NYC Department of Sanitation,NYCDSNY,City,0,,40.7109903092,-73.9294110006,1003819.74744,198317.323286,dsny_garages,41027e94671b480ce667d6d99572eea0
0101000020E6100000CCAB77C4A78052C0677EAF2B085D4440,0101000020110F0000ACD6B08CAF6D5FC17EE75C6698F75241,MN02G GARAGE,353,SPRING STREET,353 SPRING STREET,NEW YORK,10014,MANHATTAN,1,1089625,1005967501,102,MN24,MN0201,3,02,1,003700,003700,DSNY GARAGE,SOLID WASTE TRANSFER AND CARTING,SOLID WASTE,CORE INFRASTRUCTURE AND TRANSPORTATION,Regional,NYC Department of Sanitation,NYCDSNY,Public,NYC Department of Sanitation,NYCDSNY,City,0,,40.7268118488,-74.0102397121,981411.866022,204073.875848,dsny_garages,41eb02c7895e0ed507dce3c598269572
0101000020E6100000AC1EA2A3BF7F52C043FD32C17C4B4440,0101000020110F0000C34CA141256C5FC1B181CA08F4E35241,BKS11G GARAGE,1824,SHORE PARKWAY,1824 SHORE PARKWAY,BROOKLYN,11214,BROOKLYN,3,3378180,3069430030,311,BK29,BK1103,43,21,62,030400,030400,DSNY GARAGE,SOLID WASTE TRANSFER AND CARTING,SOLID WASTE,CORE INFRASTRUCTURE AND TRANSPORTATION,Regional,NYC Department of Sanitation,NYCDSNY,Public,NYC Department of Sanitation,NYCDSNY,City,0,,40.5897447107,-73.9960717281,985341.035859,154136.341984,dsny_garages,456291d488478054f25995d5a120f2bc
0101000020E6100000F3D6555D927B52C0717115710B5D4440,0101000020110F0000272661FC0C655FC11852D6109CF75241,WMNY BQE TRANSFER STATION,75,THOMAS STREET,75 THOMAS STREET,BROOKLYN,11222,BROOKLYN,3,3319540,3028020014,301,BK90,BK0104,33,14,94,044900,044902,TRANSFER STATION,SOLID WASTE TRANSFER AND CARTING,SOLID WASTE,CORE INFRASTRUCTURE AND TRANSPORTATION,Regional,Waste Management of NY,Non-public,Non-public,NYS Department of Environmental Conservation,NYSDEC,State,0,,40.726911674,-73.9308083856,1003427.76153,204117.653485,nysdec_solidwaste,41cd84504116e74eb259b5f171bdd67e
0101000020E61000003A2A82EE6E7B52C019374675535A4440,0101000020110F0000A9D3AACCD0645FC102B4F33290F45241,"COGENT TRANSFER; LLC",105,THAMES STREET,105 THAMES STREET,BROOKLYN,11237,BROOKLYN,3,3325727,3030090025,301,BK77,BK0104,34,32,90,045300,045300,TRANSFER STATION,SOLID WASTE TRANSFER AND CARTING,SOLID WASTE,CORE INFRASTRUCTURE AND TRANSPORTATION,Regional,Unknown,Non-public,Non-public,NYS Department of Environmental Conservation,NYSDEC,State,0,,40.7056719395,-73.928645732,1004033.48504,196379.853463,nysdec_solidwaste,43f8e6b621f11fe21562a961317987e2
0101000020E61000003AA35573C07B52C0B0C8BFFF04674440,0101000020110F0000ACE677445B655FC17AA30D86CB025341,MN11G/LCU GARAGE (FUTURE) GARAGE,207,EAST 127 STREET,207 EAST 127 STREET,NEW YORK,10035,MANHATTAN,1,1087849,1017920005,111,MN34,MN1102,8,05,25,024200,024200,DSNY GARAGE,SOLID WASTE TRANSFER AND CARTING,SOLID WASTE,CORE INFRASTRUCTURE AND TRANSPORTATION,Regional,NYC Department of Sanitation,NYCDSNY,Public,NYC Department of Sanitation,NYCDSNY,City,0,,40.8048400578,-73.9336212482,1002626.60915,232508.930618,dsny_garages,45a0bb1b293f0a0c027d224075aade51
0101000020E6100000F7BE901DEC7552C0450CEFFA8E694440,0101000020110F0000C7A5DF62745B5FC1A8A464ECA4055341,BX11G GARAGE,800,ZEREGA AVENUE,800 ZEREGA AVENUE,BRONX,10473,BRONX,2,2094842,2037020001,209,BX09,BX0903,18,08,43,009000,009000,DSNY GARAGE,SOLID WASTE TRANSFER AND CARTING,SOLID WASTE,CORE INFRASTRUCTURE AND TRANSPORTATION,Regional,NYC Department of Sanitation,NYCDSNY,Public,NYC Department of Sanitation,NYCDSNY,City,0,,40.8246759096,-73.8425363458,1027829.97614,239768.048992,dsny_garages,46f64aa517f277691b3cf91ed0a4be72
0101000020E61000000E8419FB8ED961C000000000008056C0,,NYCDOS-NORTH SHORE MTS,,,,FLUSHING,11354,QUEENS,4,0,0,0,,,0,,0,,,TRANSFER STATION,SOLID WASTE TRANSFER AND CARTING,SOLID WASTE,CORE INFRASTRUCTURE AND TRANSPORTATION,Regional,NYC Department of Sanitation,NYCDSNY,Public,NYC Department of Sanitation,NYCDSNY,City,0,,0,0,0,0,nysdec_solidwaste,493cbe408857a2656d9f2229d2a37626
0101000020E61000009A9D573A1F7052C0727B4E2498544440,0101000020110F00006330BD279A515FC14DF87ED924EE5241,DOS SECTION STATION 136/7/8,145-31,228 STREET,145-31 228 STREET,SPRINGFIELD GARDENS,11413,QUEENS,4,4286887,4134850015,413,QN03,QN1306,31,29,105,068000,068000,SANITATION SECTION STATION,SOLID WASTE TRANSFER AND CARTING,SOLID WASTE,CORE INFRASTRUCTURE AND TRANSPORTATION,Regional,NYC Department of Sanitation,NYCDSNY,Public,NYC Department of Sanitation,NYCDSNY,City,0,,40.660893,-73.751906,1053081.97051,180155.003929,dcp_colp,4ac494f775c8a7f5ba45a08361bbfcf7
0101000020E610000072B5F146E67752C0389E98A59D664440,0101000020110F0000C6331727D05E5FC1C48F3A9057025341,S BRONX MARINE TRANSFER STN/SALT,2,FARRAGUT STREET,2 FARRAGUT STREET,BRONX,10474,BRONX,2,0,2027810306,202,BX27,BX0201,17,08,41,009300,009302,SOLID WASTE TRANSFER STATION,SOLID WASTE TRANSFER AND CARTING,SOLID WASTE,CORE INFRASTRUCTURE AND TRANSPORTATION,Regional,NYC Department of Sanitation,NYCDSNY,Public,NYC Department of Sanitation,NYCDSNY,City,0,,40.801686,-73.87343,1019291.89194,231378.150021,dcp_colp,4beac53a10a4d4b32435cd0f5961f49b
0101000020E6100000DD9FD804A97B52C0C299C244CB4B4440,0101000020110F0000F7AB6E7733655FC114E691D84BE45241,BKS15KN GARAGE,2501,KNAPP STREET,2501 KNAPP STREET,BROOKLYN,11235,BROOKLYN,3,3414032,3088350001,315,BK17,BK1503,48,22,61,062800,062800,DSNY GARAGE,SOLID WASTE TRANSFER AND CARTING,SOLID WASTE,CORE INFRASTRUCTURE AND TRANSPORTATION,Regional,NYC Department of Sanitation,NYCDSNY,Public,NYC Department of Sanitation,NYCDSNY,City,0,,40.5921407652,-73.932191097,1003082.52593,155016.549934,dsny_garages,4c2adb105b9a9174db52f1aa9a530593
0101000020E6100000E9F26F155D8C52C0B79E9AC63B4A4440,0101000020110F0000C9CFFBCA92815FC182EBD0138DE25241,NYCDOS STATEN ISLAND TRANSFER STATION,600,WEST SERVICE ROAD,600 WEST SERVICE ROAD,STATEN ISLAND,10314,STATEN ISLAND,5,5141714,5026850100,502,SI05,SI0291,50,31,121,022800,022802,TRANSFER STATION,SOLID WASTE TRANSFER AND CARTING,SOLID WASTE,CORE INFRASTRUCTURE AND TRANSPORTATION,Regional,NYC Department of Sanitation,NYCDSNY,Public,NYC Department of Sanitation,NYCDSNY,City,0,,40.5799492128,-74.1931813807,930588.09384,150626.743172,nysdec_solidwaste,4c34505b7f2153d44a944cc463037091
0101000020E61000000E8419FB8ED961C000000000008056C0,,DSNY SOUTH BRONX HOUSEHOLD SPECIAL WASTE DROP-OFF SITE,,,,BRONX,10474,BRONX,2,0,0,0,,,0,,0,,,TRANSFER STATION,SOLID WASTE TRANSFER AND CARTING,SOLID WASTE,CORE INFRASTRUCTURE AND TRANSPORTATION,Regional,NYC Department of Sanitation,NYCDSNY,Public,NYC Department of Sanitation,NYCDSNY,City,0,,0,0,0,0,nysdec_solidwaste,4e9442547ce6866f808550a11b8ac2db
0101000020E6100000FEF10DE1357952C0E87D18D0F76C4440,0101000020110F00003536DA340A615FC104FC4ABF78095341,BX LCU GARAGE,4401,3 AVENUE,4401 3 AVENUE,BRONX,10457,BRONX,2,2011508,2030470050,206,BX17,BX0602,15,10,48,037504,037504,DSNY GARAGE,SOLID WASTE TRANSFER AND CARTING,SOLID WASTE,CORE INFRASTRUCTURE AND TRANSPORTATION,Regional,NYC Department of Sanitation,NYCDSNY,Public,NYC Department of Sanitation,NYCDSNY,City,0,,40.8513126489,-73.8939135209,1013598.97529,249451.407697,dsny_garages,4e79c3b6e8addef95f355156fbd97735
0101000020E6100000DA7E0748997A52C094AAC7AB75664440,0101000020110F00006B3097E465635FC120035AB62A025341,BX03G GARAGE,680,EAST 132 STREET,680 EAST 132 STREET,BRONX,10454,BRONX,2,2003581,2025430060,201,BX39,BX0101,17,07,40,001900,001903,DSNY GARAGE,SOLID WASTE TRANSFER AND CARTING,SOLID WASTE,CORE INFRASTRUCTURE AND TRANSPORTATION,Regional,NYC Department of Sanitation,NYCDSNY,Public,NYC Department of Sanitation,NYCDSNY,City,0,,40.8004660341,-73.9156055524,1007615.69396,230919.613215,dsny_garages,4ebf90ca9d4855fdcfe53ed9b92bcdf5
0101000020E61000008F5F485C987F52C066FA4C093E5B4440,0101000020110F00004CF39A89E26B5FC193099B0597F55241,HENRY STREET GARAGE,80,HENRY STREET,80 HENRY STREET,NEW YORK,10002,MANHATTAN,1,1079607,1002750003,103,MN27,MN0301,1,02,5,000800,000800,DSNY GARAGE,SOLID WASTE TRANSFER AND CARTING,SOLID WASTE,CORE INFRASTRUCTURE AND TRANSPORTATION,Regional,NYC Department of Sanitation,NYCDSNY,Public,NYC Department of Sanitation,NYCDSNY,City,0,,40.7128306989,-73.9936743451,986003.645248,198980.011316,dcp_colp,4edb1e3c8daa41cba231cff2596d92b8
0101000020E6100000DA7E0748997A52C094AAC7AB75664440,0101000020110F00006B3097E465635FC120035AB62A025341,BX04G GARAGE,720,EAST 132 STREET,720 EAST 132 STREET,BRONX,10454,BRONX,2,2003581,2025430060,201,BX39,BX0101,17,07,40,001900,001903,DSNY GARAGE,SOLID WASTE TRANSFER AND CARTING,SOLID WASTE,CORE INFRASTRUCTURE AND TRANSPORTATION,Regional,NYC Department of Sanitation,NYCDSNY,Public,NYC Department of Sanitation,NYCDSNY,City,0,,40.8004660341,-73.9156055524,1007615.69396,230919.613215,dsny_garages,5000cacc91a7a826791ba6780f5e99e3
0101000020E61000004AD60A48FB7F52C06E1C8EB27E554440,0101000020110F0000A12D8F908A6C5FC151B1E6FD26EF5241,HAMILTON AVENUE TRANFER STATION,,19 STREET,None 19 STREET,BROOKLYN,,BROOKLYN,3,0,3006250250,0,,,0,,0,,001801,SOLID WASTE TRANSFER STATION,SOLID WASTE TRANSFER AND CARTING,SOLID WASTE,CORE INFRASTRUCTURE AND TRANSPORTATION,Regional,NYC Department of Sanitation,NYCDSNY,Public,NYC Department of Sanitation,NYCDSNY,City,0,,40.667929,-73.999712,984329.895294,182620.943435,dcp_colp,519bcc70efd9e19ce8b132fbb6ff8b31
0101000020E6100000E8DBA1B3688C52C05E9DB10DC3484440,0101000020110F00006CFCF386A6815FC1658D3BD9E7E05241,SI03G GARAGE,1000,WEST SERVICE ROAD,1000 WEST SERVICE ROAD,STATEN ISLAND,10309,STATEN ISLAND,5,5130986,5059000500,503,SI05,SI0391,51,31,123,022800,022801,DSNY GARAGE,SOLID WASTE TRANSFER AND CARTING,SOLID WASTE,CORE INFRASTRUCTURE AND TRANSPORTATION,Regional,NYC Department of Sanitation,NYCDSNY,Public,NYC Department of Sanitation,NYCDSNY,City,0,,40.5684525603,-74.1938904844,930381.848413,146438.673741,dsny_garages,51cd4d6d1646b5f63d1310d2cb09f4de
0101000020E6100000F590C4ECD57352C05749DED522554440,0101000020110F0000F3567C02E9575FC172B68C22C0EE5241,QE08G GARAGE,130-23,150 AVENUE,130-23 150 AVENUE,JAMAICA,11430,QUEENS,4,4257531,4118840001,410,QN55,QN1001,28,27,106,084602,084602,DSNY GARAGE,SOLID WASTE TRANSFER AND CARTING,SOLID WASTE,CORE INFRASTRUCTURE AND TRANSPORTATION,Regional,NYC Department of Sanitation,NYCDSNY,Public,NYC Department of Sanitation,NYCDSNY,City,0,,40.6651255924,-73.8099319377,1036979.75718,181656.789181,dsny_garages,52cfa4a35ca0afcaff670db7064d7418
0101000020E6100000B3E380E8967F52C03A28C0FD93624440,0101000020110F000050D01912E06B5FC1B25D0C1DD0FD5241,MN04A GARAGE,786,12 AVENUE,786 12 AVENUE,NEW YORK,10019,MANHATTAN,1,1027163,1011030044,104,MN15,MN0402,6,02,18,013500,013502,DSNY GARAGE,SOLID WASTE TRANSFER AND CARTING,SOLID WASTE,CORE INFRASTRUCTURE AND TRANSPORTATION,Regional,NYC Department of Sanitation,NYCDSNY,Public,NYC Department of Sanitation,NYCDSNY,City,0,,40.7701413338,-73.9935857069,986026.689254,219860.099194,dsny_garages,5354f4f502fa7a1fc664e3735ff45533
0101000020E61000000E8419FB8ED961C000000000008056C0,,DSNY MULDOON AVE HOUSEHOLD SPECIAL WASTE DROP-OFF FACILITY,,,,STATEN ISLAND,10312,STATEN ISLAND,5,0,0,0,,,0,,0,,,TRANSFER STATION,SOLID WASTE TRANSFER AND CARTING,SOLID WASTE,CORE INFRASTRUCTURE AND TRANSPORTATION,Regional,NYC Department of Sanitation,NYCDSNY,Public,NYC Department of Sanitation,NYCDSNY,City,0,,0,0,0,0,nysdec_solidwaste,54161b0e3da066edfd267e3c52443f74
0101000020E6100000C9B5CBE4487B52C09B25BB42C35A4440,0101000020110F0000D1AE2E3090645FC1D3FDB3750DF55241,BKN03G GARAGE,525,JOHNSON AVENUE,525 JOHNSON AVENUE,BROOKLYN,11237,BROOKLYN,3,3070584,3029870016,301,BK90,BK0104,34,14,90,044900,044902,DSNY GARAGE,SOLID WASTE TRANSFER AND CARTING,SOLID WASTE,CORE INFRASTRUCTURE AND TRANSPORTATION,Regional,NYC Department of Sanitation,NYCDSNY,Public,NYC Department of Sanitation,NYCDSNY,City,0,,40.7090838826,-73.9263240799,1004676.13414,197623.459411,dsny_garages,541e34cc9dabf0c57d5d1d568051143a
0101000020E6100000D49A450F7C7852C0EEBF04560E6B4440,0101000020110F00004030CA92CE5F5FC1C136E13853075341,SEC. STATION 92  BRONX FORCEMENT,1787,WEST FARMS ROAD,1787 WEST FARMS ROAD,BRONX,10460,BRONX,2,2010955,2030150058,203,BX75,BX0303,17,12,42,016100,016100,SANITATION SECTION STATION,SOLID WASTE TRANSFER AND CARTING,SOLID WASTE,CORE INFRASTRUCTURE AND TRANSPORTATION,Regional,NYC Department of Sanitation,NYCDSNY,Public,NYC Department of Sanitation,NYCDSNY,City,0,,40.836375,-73.882572,1016743.91709,244013.068343,dcp_colp,55f9fd3f04d3f51335c8c75ea035a220
0101000020E6100000230C3B8C497652C0CCBEEA059F624440,0101000020110F0000C1282217135C5FC137CB2A7CDCFD5241,QE07G GARAGE,,,,FLUSHING,11354,QUEENS,4,0,4043460075,407,QN23,QN0701,19,25,109,090700,090700,DSNY GARAGE,SOLID WASTE TRANSFER AND CARTING,SOLID WASTE,CORE INFRASTRUCTURE AND TRANSPORTATION,Regional,NYC Department of Sanitation,NYCDSNY,Public,NYC Department of Sanitation,NYCDSNY,City,0,,40.770478,-73.848239,1026285.90903,220019.106169,dsny_garages,571c3a9db9c95cab31e81d0ae10ad3f3
0101000020E610000096386166736F52C05DB6257F075F4440,0101000020110F00003520C24976505FC1E8BDCE82D5F95241,QE11G GARAGE,75-05,DOUGLASTON PARKWAY,75-05 DOUGLASTON PARKWAY,OAKLAND GARDENS,11364,QUEENS,4,4445411,4078500020,411,QN45,QN1191,23,26,105,152901,138502,DSNY GARAGE,SOLID WASTE TRANSFER AND CARTING,SOLID WASTE,CORE INFRASTRUCTURE AND TRANSPORTATION,Regional,NYC Department of Sanitation,NYCDSNY,Public,NYC Department of Sanitation,NYCDSNY,City,0,,40.7424162804,-73.7414184517,1055903.9838,209864.653879,dsny_garages,57c17b3eb2eb4a29ca38df1edf444d84
0101000020E610000016DD2F0DC37952C0DCAF6F067F6B4440,0101000020110F000095108100FA615FC1A51390B9D1075341,SECTION STATION 31/42-3/52-3,1595,WASHINGTON AVENUE,1595 WASHINGTON AVENUE,BRONX,10457,BRONX,2,2009477,2029040034,203,BX01,BX0302,16,09,42,016700,016700,SANITATION SECTION STATION,SOLID WASTE TRANSFER AND CARTING,SOLID WASTE,CORE INFRASTRUCTURE AND TRANSPORTATION,Regional,NYC Department of Sanitation,NYCDSNY,Public,NYC Department of Sanitation,NYCDSNY,City,0,,40.839814,-73.90253,1011219.87668,245259.249147,dcp_colp,57ce684867a9e99c956de18d55c22dcf
0101000020E610000096386166736F52C05DB6257F075F4440,0101000020110F00003520C24976505FC1E8BDCE82D5F95241,QE13A GARAGE,75-05,DOUGLASTON PARKWAY,75-05 DOUGLASTON PARKWAY,OAKLAND GARDENS,11364,QUEENS,4,4445411,4078500020,411,QN45,QN1191,23,26,105,152901,138502,DSNY GARAGE,SOLID WASTE TRANSFER AND CARTING,SOLID WASTE,CORE INFRASTRUCTURE AND TRANSPORTATION,Regional,NYC Department of Sanitation,NYCDSNY,Public,NYC Department of Sanitation,NYCDSNY,City,0,,40.7424162804,-73.7414184517,1055903.9838,209864.653879,dsny_garages,5880dc3c8cf2a7222c86ca73f960d0a1
0101000020E6100000373F1C5FA67C52C084BC2E8B13544440,0101000020110F0000E976B8CFE1665FC16C7AE96590ED5241,BKN09G GARAGE,690,NEW YORK AVENUE,690 NEW YORK AVENUE,BROOKLYN,11203,BROOKLYN,3,3327687,3048270039,309,BK60,BK0902,40,17,71,080400,080400,DSNY GARAGE,SOLID WASTE TRANSFER AND CARTING,SOLID WASTE,CORE INFRASTRUCTURE AND TRANSPORTATION,Regional,NYC Department of Sanitation,NYCDSNY,Public,NYC Department of Sanitation,NYCDSNY,City,0,,40.6568464254,-73.9476545122,998773.794376,178587.589896,dsny_garages,5a0e430db09ff3ddcf363640fa8d626e
0101000020E6100000AC1EA2A3BF7F52C043FD32C17C4B4440,0101000020110F0000C34CA141256C5FC1B181CA08F4E35241,NYCDOS SOUTHWEST BROOKLYN MTS,400,BAY 41 STREET,400 BAY 41 STREET,BROOKLYN,11214,BROOKLYN,3,3378180,3069430030,311,BK29,BK1103,43,21,62,030400,030400,TRANSFER STATION,SOLID WASTE TRANSFER AND CARTING,SOLID WASTE,CORE INFRASTRUCTURE AND TRANSPORTATION,Regional,NYC Department of Sanitation,NYCDSNY,Public,NYC Department of Sanitation,NYCDSNY,City,0,,40.5897447107,-73.9960717281,985341.035859,154136.341984,nysdec_solidwaste,5b0dea8bf5c125d5024c0acc1e3da16c
0101000020E6100000F590C4ECD57352C05749DED522554440,0101000020110F0000F3567C02E9575FC172B68C22C0EE5241,QE10G GARAGE,130-23,150 AVENUE,130-23 150 AVENUE,JAMAICA,11430,QUEENS,4,4257531,4118840001,410,QN55,QN1001,28,27,106,084602,084602,DSNY GARAGE,SOLID WASTE TRANSFER AND CARTING,SOLID WASTE,CORE INFRASTRUCTURE AND TRANSPORTATION,Regional,NYC Department of Sanitation,NYCDSNY,Public,NYC Department of Sanitation,NYCDSNY,City,0,,40.6651255924,-73.8099319377,1036979.75718,181656.789181,dsny_garages,5df60b73628a5955edca58373d82801b
0101000020E6100000866F96B9328152C0FC3E7A7A30534440,0101000020110F0000600E37959B6E5FC13C89B93492EC5241,"WASTE-CONNECTIONS 50TH STREET; BROOKLYN",110,50 STREET,110 50 STREET,BROOKLYN,11232,BROOKLYN,3,3013144,3007880009,307,BK32,BK0702,38,15,72,001800,001803,TRANSFER STATION,SOLID WASTE TRANSFER AND CARTING,SOLID WASTE,CORE INFRASTRUCTURE AND TRANSPORTATION,Regional,Waste Connections of NY,Non-public,Non-public,NYS Department of Environmental Conservation,NYSDEC,State,0,,40.6499169442,-74.0187210048,979055.124692,176059.203716,nysdec_solidwaste,5ee9c0cd5f3fbaad17cb463cdf5d944c
0101000020E6100000116246787B7B52C0F79FFEBA015B4440,0101000020110F00007455C718E6645FC1C44CBE7353F55241,BKN04G GARAGE,161,VARICK AVENUE,161 VARICK AVENUE,BROOKLYN,11237,BROOKLYN,3,3400387,3029620001,301,BK90,BK0104,34,14,90,044900,044902,DSNY GARAGE,SOLID WASTE TRANSFER AND CARTING,SOLID WASTE,CORE INFRASTRUCTURE AND TRANSPORTATION,Regional,NYC Department of Sanitation,NYCDSNY,Public,NYC Department of Sanitation,NYCDSNY,City,0,,40.7109903092,-73.9294110006,1003819.74744,198317.323286,dsny_garages,5fe26d83b661a4eb77991f7e7f2dbe06
0101000020E6100000F3BF8203077B52C02C6EAB8D615C4440,0101000020110F00006874CC4820645FC16E73C3ADDDF65241,QW05A GARAGE,58-02,48 STREET,58-02 48 STREET,MASPETH,11378,QUEENS,4,4544131,4026000001,405,QN31,QN0501,30,24,104,021900,021900,DSNY GARAGE,SOLID WASTE TRANSFER AND CARTING,SOLID WASTE,CORE INFRASTRUCTURE AND TRANSPORTATION,Regional,NYC Department of Sanitation,NYCDSNY,Public,NYC Department of Sanitation,NYCDSNY,City,0,,40.7217270934,-73.9223030829,1005786.84149,202230.727804,dsny_garages,623446cc4d3d336a647eeef3fa927ce1
0101000020E61000009290BA63077D52C0A09E322957594440,0101000020110F0000715B379B86675FC12EF0268E75F35241,BKN03G (FUTURE) GARAGE,60,NOSTRAND AVENUE,60 NOSTRAND AVENUE,BROOKLYN,11205,BROOKLYN,3,0,3017180001,303,BK75,BK0301,33,14,79,123700,123700,DSNY GARAGE,SOLID WASTE TRANSFER AND CARTING,SOLID WASTE,CORE INFRASTRUCTURE AND TRANSPORTATION,Regional,NYC Department of Sanitation,NYCDSNY,Public,NYC Department of Sanitation,NYCDSNY,City,0,,40.6979724408,-73.9535760229,997122.869684,193570.050045,dsny_garages,6352bac8c6047de22ca0fac53e1e4e69
0101000020E61000003D94AD6FA57B52C069973749A8564440,0101000020110F0000F7A887612D655FC1F45F503A74F05241,BKN08G GARAGE,1755,PACIFIC STREET,1755 PACIFIC STREET,BROOKLYN,11213,BROOKLYN,3,3330693,3013360018,308,BK61,BK0802,36,16,77,030900,030900,DSNY GARAGE,SOLID WASTE TRANSFER AND CARTING,SOLID WASTE,CORE INFRASTRUCTURE AND TRANSPORTATION,Regional,NYC Department of Sanitation,NYCDSNY,Public,NYC Department of Sanitation,NYCDSNY,City,0,,40.6770106813,-73.9319724267,1003119.24446,185936.985449,dsny_garages,6672f941602d81391460c512ca9afad8
0101000020E6100000F590C4ECD57352C05749DED522554440,0101000020110F0000F3567C02E9575FC172B68C22C0EE5241,QE12G GARAGE,130-23,150 AVENUE,130-23 150 AVENUE,JAMAICA,11430,QUEENS,4,4257531,4118840001,410,QN55,QN1001,28,27,106,084602,084602,DSNY GARAGE,SOLID WASTE TRANSFER AND CARTING,SOLID WASTE,CORE INFRASTRUCTURE AND TRANSPORTATION,Regional,NYC Department of Sanitation,NYCDSNY,Public,NYC Department of Sanitation,NYCDSNY,City,0,,40.6651255924,-73.8099319377,1036979.75718,181656.789181,dsny_garages,6acad3f9b0d4ae41ce9a19de8aeaa48b
0101000020E6100000D8FA4317D47352C04A3A6F97FD584440,0101000020110F00000923FDE4E5575FC1C140623811F35241,SECTION STATION 121/122,97-22,CRESSKILL PLACE,97-22 CRESSKILL PLACE,JAMAICA,11435,QUEENS,4,4214221,4100110014,412,QN61,QN1201,28,28,103,020600,020600,SANITATION SECTION STATION,SOLID WASTE TRANSFER AND CARTING,SOLID WASTE,CORE INFRASTRUCTURE AND TRANSPORTATION,Regional,NYC Department of Sanitation,NYCDSNY,Public,NYC Department of Sanitation,NYCDSNY,City,0,,40.695239,-73.80982,1036986.9923,192628.013539,dcp_colp,6bc051d481099e551eab2cf01955e10f
0101000020E6100000D474B96E1C7A52C0ADBAC8E5F75D4440,0101000020110F00007F1C19D391625FC1B5BAB613A5F85241,QW03G GARAGE,52-35,58 STREET,52-35 58 STREET,WOODSIDE,11377,QUEENS,4,4462505,4023610268,402,QN50,QN0203,30,24,108,024300,024300,DSNY GARAGE,SOLID WASTE TRANSFER AND CARTING,SOLID WASTE,CORE INFRASTRUCTURE AND TRANSPORTATION,Regional,NYC Department of Sanitation,NYCDSNY,Public,NYC Department of Sanitation,NYCDSNY,City,0,,40.7341277338,-73.9079853833,1009750.82363,206752.508656,dsny_garages,6be5e59c67ae1ea58f16391b23d653ef
0101000020E6100000CB2F9542207F52C017BCD98CD35A4440,0101000020110F00000BA5F088166B5FC13495EFB51FF55241,MN06G GARAGE,,,,NEW YORK,10002,MANHATTAN,1,1078939,1002410013,103,MN28,MN0301,1,01,7,000201,000201,DSNY GARAGE,SOLID WASTE TRANSFER AND CARTING,SOLID WASTE,CORE INFRASTRUCTURE AND TRANSPORTATION,Regional,NYC Department of Sanitation,NYCDSNY,Public,NYC Department of Sanitation,NYCDSNY,City,0,,40.709581,-73.986344,988036.002795,197796.279444,dsny_garages,6dec910eef3d6c9aff689ee171bdf853
0101000020E61000009A56C96E668052C074749013265C4440,0101000020110F0000F9437092406D5FC12EE560079BF65241,SECTION STATION 11/13,7,NO MOORE STREET,7 NO MOORE STREET,NEW YORK,10013,MANHATTAN,1,1002174,1001900047,101,MN24,MN0102,1,02,1,003300,003300,SANITATION SECTION STATION,SOLID WASTE TRANSFER AND CARTING,SOLID WASTE,CORE INFRASTRUCTURE AND TRANSPORTATION,Regional,NYC Department of Sanitation,NYCDSNY,Public,NYC Department of Sanitation,NYCDSNY,City,0,,40.719912,-74.006252,982516.958038,201559.943965,dcp_colp,74aba35d5d413ac90532e70ce850e879
0101000020E6100000D01A93DDDA7B52C0C97B720C8A614440,0101000020110F0000E64BD02288655FC1B19026E5A5FC5241,QW01G GARAGE,34-28,21 STREET,34-28 21 STREET,ASTORIA,11106,QUEENS,4,4005787,4005230012,401,QN68,QN0105,26,30,114,004300,004300,DSNY GARAGE,SOLID WASTE TRANSFER AND CARTING,SOLID WASTE,CORE INFRASTRUCTURE AND TRANSPORTATION,Regional,NYC Department of Sanitation,NYCDSNY,Public,NYC Department of Sanitation,NYCDSNY,City,0,,40.76202541,-73.9352334916,1002191.80137,216909.76748,dsny_garages,783d61e988523ba7118e96d728077570
0101000020E61000000E8419FB8ED961C000000000008056C0,,NYCDOS EAST 91ST ST. MTS,,,,NEW YORK,10128,MANHATTAN,1,0,0,0,,,0,,0,,,TRANSFER STATION,SOLID WASTE TRANSFER AND CARTING,SOLID WASTE,CORE INFRASTRUCTURE AND TRANSPORTATION,Regional,Unknown,Non-public,Non-public,NYS Department of Environmental Conservation,NYSDEC,State,0,,0,0,0,0,nysdec_solidwaste,7a8c882f902eed86b5651b2901ff3de7
0101000020E6100000D9B9AC0BFF7152C0BB1B6076E54C4440,0101000020110F000086C6832CC9545FC14FF2C97B87E55241,QS LCU GARAGE,51-10,ALMEDA AVENUE,51-10 ALMEDA AVENUE,FAR ROCKAWAY,11691,QUEENS,4,4616024,4159800100,414,QN12,QN1491,31,27,101,097203,097207,DSNY GARAGE,SOLID WASTE TRANSFER AND CARTING,SOLID WASTE,CORE INFRASTRUCTURE AND TRANSPORTATION,Regional,NYC Department of Sanitation,NYCDSNY,Public,NYC Department of Sanitation,NYCDSNY,City,0,,40.6007526373,-73.7811917486,1045011.59,158222.673264,dsny_garages,7acc9d74aee8cb7f14a58b564eccaf68
0101000020E6100000C8BDBBB7647B52C011D8319AFC5A4440,0101000020110F0000DA6B3573BF645FC17C73D6B44DF55241,HI-TECH RESOURCE RECOVERY INC,130,VARICK AVENUE,130 VARICK AVENUE,BROOKLYN,11237,BROOKLYN,3,3070558,3029690001,301,BK90,BK0104,34,14,90,044900,044902,TRANSFER STATION,SOLID WASTE TRANSFER AND CARTING,SOLID WASTE,CORE INFRASTRUCTURE AND TRANSPORTATION,Regional,Hi-Tech Resource Recovery Inc.,Non-public,Non-public,NYS Department of Environmental Conservation,NYSDEC,State,0,,40.7108338109,-73.9280223206,1004204.78502,198260.61953,nysdec_solidwaste,7bf10b56e9c4baa7546719238b3f41a8
0101000020E6100000629DD945777A52C04768BE28476F4440,0101000020110F0000B7E244202C635FC15DB2DCCD100C5341,MN08G GARAGE,4036,9 AVENUE,4036 9 AVENUE,NEW YORK,10034,MANHATTAN,1,1082037,1022120001,112,MN01,MN1203,10,06,34,029900,029900,DSNY GARAGE,SOLID WASTE TRANSFER AND CARTING,SOLID WASTE,CORE INFRASTRUCTURE AND TRANSPORTATION,Regional,NYC Department of Sanitation,NYCDSNY,Public,NYC Department of Sanitation,NYCDSNY,City,0,,40.8693591053,-73.9135298375,1008165.60495,256020.461523,dsny_garages,7dce29502a25ff460fff6a7e6cdd24fe
0101000020E6100000DD4B1805C17E52C0B56BE653C75E4440,0101000020110F0000798887C2746A5FC1EFA1B7948DF95241,SECTION STATION 62,223,EAST 26 STREET,223 EAST 26 STREET,NEW YORK,10016,MANHATTAN,1,1082142,1009070015,106,MN20,MN0603,2,02,13,006600,006600,SANITATION SECTION STATION,SOLID WASTE TRANSFER AND CARTING,SOLID WASTE,CORE INFRASTRUCTURE AND TRANSPORTATION,Regional,NYC Department of Sanitation,NYCDSNY,Public,NYC Department of Sanitation,NYCDSNY,City,0,,40.740458,-73.980531,989645.104321,209046.030552,dcp_colp,7f68723d83e718b730e15aab76741f46
0101000020E6100000F19D2E70697C52C0EA1739A291644440,0101000020110F0000140A5F4F7A665FC1BEC3B5B50B005341,MN11G GARAGE,343,EAST 99 STREET,343 EAST 99 STREET,NEW YORK,10029,MANHATTAN,1,1089407,1016710020,111,MN33,MN1101,8,04,23,016400,016400,DSNY GARAGE,SOLID WASTE TRANSFER AND CARTING,SOLID WASTE,CORE INFRASTRUCTURE AND TRANSPORTATION,Regional,NYC Department of Sanitation,NYCDSNY,Public,NYC Department of Sanitation,NYCDSNY,City,0,,40.7856943869,-73.9439354374,999775.644886,225531.504214,dsny_garages,7f9666b6929178bce815f36092d823e2
0101000020E6100000D4E2F4860C7752C06C3126500E554440,0101000020110F00009D7A51485E5D5FC1BCBE2C28A9EE5241,BK LCU GARAGE,803,FORBELL STREET,803 FORBELL STREET,BROOKLYN,11208,BROOKLYN,3,3099064,3045550001,305,BK82,BK0505,42,19,75,122000,122000,DSNY GARAGE,SOLID WASTE TRANSFER AND CARTING,SOLID WASTE,CORE INFRASTRUCTURE AND TRANSPORTATION,Regional,NYC Department of Sanitation,NYCDSNY,Public,NYC Department of Sanitation,NYCDSNY,City,0,,40.6644993005,-73.860139598,1023051.24229,181402.382623,dsny_garages,80bbd0694d4be15d1060c4d8233da0d9
0101000020E61000003EFE0F0DB67252C02C8D7208F2594440,0101000020110F0000360CEA0600565FC13070390D23F45241,JAMAICA RECYCLING (LIBERTY),94-29,165 STREET,94-29 165 STREET,JAMAICA,11433,QUEENS,4,4312838,4101550063,412,QN61,QN1201,27,28,103,044400,044400,TRANSFER STATION,SOLID WASTE TRANSFER AND CARTING,SOLID WASTE,CORE INFRASTRUCTURE AND TRANSPORTATION,Regional,Michael Bellino,Non-public,Non-public,NYS Department of Environmental Conservation,NYSDEC,State,0,,40.7026987608,-73.7923615129,1041821.78703,195356.811405,nysdec_solidwaste,862debf0850f8b2ea59264692abff198
0101000020E6100000155E5DDACF7F52C045770E7F8A554440,0101000020110F0000ABAA10CC406C5FC1211D003434EF5241,NYCDOS MTS @ HAMILTON AVE.,500,HAMILTON AVENUE,500 HAMILTON AVENUE,BROOKLYN,11232,BROOKLYN,3,3336714,3006250002,307,BK32,BK0702,38,15,72,001800,001801,TRANSFER STATION,SOLID WASTE TRANSFER AND CARTING,SOLID WASTE,CORE INFRASTRUCTURE AND TRANSPORTATION,Regional,New York City Department of Sanitation,Non-public,Non-public,NYS Department of Environmental Conservation,NYSDEC,State,0,,40.6682890723,-73.997061339,985065.221932,182752.141497,nysdec_solidwaste,91bc961bc26d9b79d62fbc7dfbefaea3
0101000020E61000006F193E72D68A52C03ABE7685184B4440,0101000020110F000056857E41FB7E5FC1199190EF83E35241,SI02G GARAGE,2500,RICHMOND AVENUE,2500 RICHMOND AVENUE,STATEN ISLAND,10314,STATEN ISLAND,5,5041599,5025200001,502,SI05,SI0291,51,31,121,022800,022802,DSNY GARAGE,SOLID WASTE TRANSFER AND CARTING,SOLID WASTE,CORE INFRASTRUCTURE AND TRANSPORTATION,Regional,NYC Department of Sanitation,NYCDSNY,Public,NYC Department of Sanitation,NYCDSNY,City,0,,40.5866858316,-74.1693387613,937215.830182,153067.352895,dsny_garages,89014a04c02598084beaf960d8eca9d2
0101000020E610000003B618390B8052C0BEF10EB743554440,0101000020110F000084F8A3A4A56C5FC1EB8A0CF3E4EE5241,HAMILTON AVENUE TRANSFER STATION,75,20 STREET,75 20 STREET,BROOKLYN,11232,BROOKLYN,3,0,3006350013,307,BK32,BK0702,38,15,72,001800,001801,SOLID WASTE TRANSFER STATION,SOLID WASTE TRANSFER AND CARTING,SOLID WASTE,CORE INFRASTRUCTURE AND TRANSPORTATION,Regional,NYC Department of Sanitation,NYCDSNY,Public,NYC Department of Sanitation,NYCDSNY,City,0,,40.666129,-74.000685,984059.966134,181965.153182,dcp_colp,8e968d32b9c9bb95a20fe018e71c7538
0101000020E61000002E6FDC90867A52C0648D0EED526F4440,0101000020110F0000362B4F1A46635FC13A5608051E0C5341,BX07G GARAGE,423,WEST 215 STREET,423 WEST 215 STREET,NEW YORK,10034,MANHATTAN,1,1082036,1022120001,112,MN01,MN1203,10,06,34,029900,029900,DSNY GARAGE,SOLID WASTE TRANSFER AND CARTING,SOLID WASTE,CORE INFRASTRUCTURE AND TRANSPORTATION,Regional,NYC Department of Sanitation,NYCDSNY,Public,NYC Department of Sanitation,NYCDSNY,City,0,,40.8697182007,-73.9144632483,1007907.31788,256151.040549,dsny_garages,900a159a7ea29f9235004ddbd94d0c01
0101000020E61000002E6FDC90867A52C0648D0EED526F4440,0101000020110F0000362B4F1A46635FC13A5608051E0C5341,BX08G GARAGE,423,WEST 215 STREET,423 WEST 215 STREET,NEW YORK,10034,MANHATTAN,1,1082036,1022120001,112,MN01,MN1203,10,06,34,029900,029900,DSNY GARAGE,SOLID WASTE TRANSFER AND CARTING,SOLID WASTE,CORE INFRASTRUCTURE AND TRANSPORTATION,Regional,NYC Department of Sanitation,NYCDSNY,Public,NYC Department of Sanitation,NYCDSNY,City,0,,40.8697182007,-73.9144632483,1007907.31788,256151.040549,dsny_garages,90435c1552416520dbcdd612274b8a62
0101000020E6100000E8DBA1B3688C52C05E9DB10DC3484440,0101000020110F00006CFCF386A6815FC1658D3BD9E7E05241,SI01G/SI03G GARAGE,1000,WEST SERVICE ROAD,1000 WEST SERVICE ROAD,STATEN ISLAND,10309,STATEN ISLAND,5,5130986,5059000500,503,SI05,SI0391,51,31,123,022800,022801,DSNY GARAGE,SOLID WASTE TRANSFER AND CARTING,SOLID WASTE,CORE INFRASTRUCTURE AND TRANSPORTATION,Regional,NYC Department of Sanitation,NYCDSNY,Public,NYC Department of Sanitation,NYCDSNY,City,0,,40.5684525603,-74.1938904844,930381.848413,146438.673741,dsny_garages,91a4ef6b5066f1ec81512f37f289a860
0101000020E61000008A1DF240647D52C04EB05D2F4D694440,0101000020110F0000D0E56A5824685FC108E43C145B055341,135 ST MARINE TRANSFER STATION,,WEST 135 STREET,None WEST 135 STREET,NEW YORK,,MANHATTAN,1,1062477,1021010120,109,MN06,MN0902,7,06,30,022301,022301,SOLID WASTE TRANSFER STATION,SOLID WASTE TRANSFER AND CARTING,SOLID WASTE,CORE INFRASTRUCTURE AND TRANSPORTATION,Regional,NYC Department of Sanitation,NYCDSNY,Public,NYC Department of Sanitation,NYCDSNY,City,0,,40.822668,-73.959244,995530.063359,238999.949222,dcp_colp,94169d77fa57f4db4bb4c03b6a226168
0101000020E61000000E8419FB8ED961C000000000008056C0,,WMNY REVIEW TRANSFER STATION,,,,LONG ISLAND CITY,11101,QUEENS,4,0,0,0,,,0,,0,,,TRANSFER STATION,SOLID WASTE TRANSFER AND CARTING,SOLID WASTE,CORE INFRASTRUCTURE AND TRANSPORTATION,Regional,"Waste Management of NY; LLC",Non-public,Non-public,NYS Department of Environmental Conservation,NYSDEC,State,0,,0,0,0,0,nysdec_solidwaste,944a7d0819f9b21465246a1738e8f571
0101000020E610000073E0AC4D638852C0ED398121AB4B4440,0101000020110F00009DD098FDD17A5FC16326EFE627E45241,SEAVIEW HOSPITAL,460,BRIELLE AVENUE,460 BRIELLE AVENUE,STATEN ISLAND,10314,STATEN ISLAND,5,0,5009550100,502,SI24,SI0203,50,31,122,018100,018100,SANITATION SECTION STATION,SOLID WASTE TRANSFER AND CARTING,SOLID WASTE,CORE INFRASTRUCTURE AND TRANSPORTATION,Regional,NYC Department of Sanitation,NYCDSNY,Public,NYC Department of Sanitation,NYCDSNY,City,0,,40.59116,-74.131061,947849.982483,154679.173653,nysparks_historicplaces,95dae1cee78a090154760704d8e68c4b
0101000020E6100000A97D19E7007952C0410CA0B7BE6B4440,0101000020110F000091DC8138B0605FC18727333A19085341,BX06A GARAGE,800,EAST 176 STREET,800 EAST 176 STREET,BRONX,10460,BRONX,2,2097277,2029530021,206,BX17,BX0602,17,12,48,036700,036700,DSNY GARAGE,SOLID WASTE TRANSFER AND CARTING,SOLID WASTE,CORE INFRASTRUCTURE AND TRANSPORTATION,Regional,NYC Department of Sanitation,NYCDSNY,Public,NYC Department of Sanitation,NYCDSNY,City,0,,40.8417577296,-73.8906800984,1014497.85025,245971.292209,dsny_garages,970467bea32c7ac15dcb9d9eb4ce927e
0101000020E610000044B12F7DFA7B52C0F446B399C2664440,0101000020110F0000BE5406DABD655FC12D4A390681025341,MN LCU GARAGE,177,EAST 123 STREET,177 EAST 123 STREET,NEW YORK,10035,MANHATTAN,1,1054433,1017720031,111,MN34,MN1102,8,05,25,019600,019600,DSNY GARAGE,SOLID WASTE TRANSFER AND CARTING,SOLID WASTE,CORE INFRASTRUCTURE AND TRANSPORTATION,Regional,NYC Department of Sanitation,NYCDSNY,Public,NYC Department of Sanitation,NYCDSNY,City,0,,40.8028137331,-73.9371636359,1001646.44744,231769.946121,dsny_garages,972f03e3da21c624c13172497f1ac668
0101000020E61000007003EAA6597A52C020146A5518664440,0101000020110F0000D9AAE3CFF9625FC14DA5C7FEC1015341,ACTION ENVIRONMENTAL SYSTEMS INC BRONX TS,920,EAST 132 STREET,920 EAST 132 STREET,BRONX,10454,BRONX,2,2117474,2025830050,201,BX39,BX0101,17,07,40,001900,001903,TRANSFER STATION,SOLID WASTE TRANSFER AND CARTING,SOLID WASTE,CORE INFRASTRUCTURE AND TRANSPORTATION,Regional,Action Carting Environmental Services LLC,Non-public,Non-public,NYS Department of Environmental Conservation,NYSDEC,State,0,,40.7976176041,-73.9117219238,1008691.97226,229882.891007,nysdec_solidwaste,a2785613ccf6ecb6c740116df4c44e19
0101000020E6100000F33D9CB9E27552C0CB7ADCD254614440,0101000020110F0000DD94836F645B5FC11B9F08376AFC5241,TULLY ENVIRONMENTAL INC FLUSHING,127-20,34 AVENUE,127-20 34 AVENUE,CORONA,11368,QUEENS,4,4045065,4018300010,407,QN99,QN0707,21,25,110,038301,038301,TRANSFER STATION,SOLID WASTE TRANSFER AND CARTING,SOLID WASTE,CORE INFRASTRUCTURE AND TRANSPORTATION,Regional,Tully Environmental Inc.,Non-public,Non-public,NYS Department of Environmental Conservation,NYSDEC,State,0,,40.7604011134,-73.8419631987,1028030.84963,216350.843352,nysdec_solidwaste,a5a5bb80a186377466559cba2555935f
0101000020E6100000A7F92549647A52C00C007FF9356F4440,0101000020110F0000ABCAE0DF0B635FC1F7040A81FD0B5341,MN12G GARAGE,301,WEST 215 STREET,301 WEST 215 STREET,NEW YORK,10034,MANHATTAN,1,1064485,1021960001,112,MN01,MN1203,10,06,34,029900,029900,DSNY GARAGE,SOLID WASTE TRANSFER AND CARTING,SOLID WASTE,CORE INFRASTRUCTURE AND TRANSPORTATION,Regional,NYC Department of Sanitation,NYCDSNY,Public,NYC Department of Sanitation,NYCDSNY,City,0,,40.8688346741,-73.912370956,1008486.31523,255829.70928,dsny_garages,9dd871f6ca79b04333453245bf45fac4
0101000020E61000007CFE15607C7E52C0B1E910D164504440,0101000020110F0000A55B0129006A5FC16836F83771E95241,BKS18G GARAGE,105,FOSTER AVENUE,105 FOSTER AVENUE,BROOKLYN,11230,BROOKLYN,3,3398029,3054260001,314,BK42,BK1402,44,20,70,048000,048000,DSNY GARAGE,SOLID WASTE TRANSFER AND CARTING,SOLID WASTE,CORE INFRASTRUCTURE AND TRANSPORTATION,Regional,NYC Department of Sanitation,NYCDSNY,Public,NYC Department of Sanitation,NYCDSNY,City,0,,40.6280766809,-73.9763412679,990817.189991,168102.535718,dsny_garages,9eb48663d95d32d756e5de738839c0c6
0101000020E6100000779A8032267652C0C822EA3892624440,0101000020110F0000EA5E420BD75B5FC1A1413921CEFD5241,QN07A GARAGE,30-19,122 STREET,30-19 122 STREET,FLUSHING,11354,QUEENS,4,4570021,4043500001,407,QN23,QN0701,19,25,109,090700,090700,DSNY GARAGE,SOLID WASTE TRANSFER AND CARTING,SOLID WASTE,CORE INFRASTRUCTURE AND TRANSPORTATION,Regional,NYC Department of Sanitation,NYCDSNY,Public,NYC Department of Sanitation,NYCDSNY,City,0,,40.7700873513,-73.8460813767,1026883.79331,219877.822811,dsny_garages,a06b8bc8f95723f5567c0de4e8bfd15f
0101000020E6100000CB2F9542207F52C017BCD98CD35A4440,0101000020110F00000BA5F088166B5FC13495EFB51FF55241,MN03G GARAGE,,,,NEW YORK,10002,MANHATTAN,1,1078939,1002410013,103,MN28,MN0301,1,01,7,000201,000201,DSNY GARAGE,SOLID WASTE TRANSFER AND CARTING,SOLID WASTE,CORE INFRASTRUCTURE AND TRANSPORTATION,Regional,NYC Department of Sanitation,NYCDSNY,Public,NYC Department of Sanitation,NYCDSNY,City,0,,40.709581,-73.986344,988036.002795,197796.279444,dsny_garages,aa75762e62fef8748609a12827d186bc
0101000020E610000017CFF6AB007652C057C38B2B2E644440,0101000020110F0000955B964D975B5FC1F74703259CFF5241,DISTRICT7\SECTION STATION #75,18-15,124 STREET,18-15 124 STREET,COLLEGE POINT,11356,QUEENS,4,4098888,4041300013,407,QN23,QN0701,19,25,109,092500,092500,SANITATION SECTION STATION,SOLID WASTE TRANSFER AND CARTING,SOLID WASTE,CORE INFRASTRUCTURE AND TRANSPORTATION,Regional,NYC Department of Sanitation,NYCDSNY,Public,NYC Department of Sanitation,NYCDSNY,City,0,,40.782659,-73.843791,1027510.03437,224459.212994,dcp_colp,aa158b1bfd8b841355779133c6485fd2
0101000020E6100000639CEFD4457452C0DBCA703131594440,0101000020110F0000CE384818A7585FC1F01F04064BF35241,QW09G GARAGE,132-05,ATLANTIC AVENUE,132-05 ATLANTIC AVENUE,RICHMOND HILL,11418,QUEENS,4,4196969,4093750261,409,QN54,QN0902,28,28,102,014202,014202,DSNY GARAGE,SOLID WASTE TRANSFER AND CARTING,SOLID WASTE,CORE INFRASTRUCTURE AND TRANSPORTATION,Regional,NYC Department of Sanitation,NYCDSNY,Public,NYC Department of Sanitation,NYCDSNY,City,0,,40.6968137555,-73.8167621942,1035060.72172,193197.639076,dsny_garages,abaaef10dfb83c78a97eedce129ecf7b
0101000020E61000006E4DB29AAE7F52C0D67615C1FF624440,0101000020110F00004EDE2352086C5FC1659C22F748FE5241,PIER 99- TRANSFER STATION,,PIER 99,None PIER 99,NEW YORK,,MANHATTAN,1,0,1011090099,0,,,0,,0,,013502,SOLID WASTE TRANSFER STATION,SOLID WASTE TRANSFER AND CARTING,SOLID WASTE,CORE INFRASTRUCTURE AND TRANSPORTATION,Regional,NYC Department of Sanitation,NYCDSNY,Public,NYC Department of Sanitation,NYCDSNY,City,0,,40.77343,-73.995032,985626.013887,221058.244026,dcp_colp,af4db0c1cf7b6f6aa7b31a50e14ca98d
0101000020E6100000341B89C0E67B52C08AE28A2978674440,0101000020110F0000A1CA96539C655FC1FBE809BE4C035341,MN10G GARAGE,110,EAST 131 STREET,110 EAST 131 STREET,NEW YORK,10037,MANHATTAN,1,1054511,1017790001,111,MN34,MN1102,9,05,25,024200,024200,DSNY GARAGE,SOLID WASTE TRANSFER AND CARTING,SOLID WASTE,CORE INFRASTRUCTURE AND TRANSPORTATION,Regional,NYC Department of Sanitation,NYCDSNY,Public,NYC Department of Sanitation,NYCDSNY,City,0,,40.8083545614,-73.9359589895,1001978.48174,233788.90641,dsny_garages,b0b6b9ef44569d74bcd37e451fd9732b
0101000020E61000009411E6FCDF7852C042CBEA244F674440,0101000020110F00009FD6C14F78605FC19000A2B71E035341,WASTE CONNECTIONS CASANOVA TRANSFER STATION,325,CASANOVA STREET,325 CASANOVA STREET,BRONX,10474,BRONX,2,2006936,2027740142,202,BX27,BX0201,17,08,41,009300,009302,TRANSFER STATION,SOLID WASTE TRANSFER AND CARTING,SOLID WASTE,CORE INFRASTRUCTURE AND TRANSPORTATION,Regional,"Waste Connections of New York; Inc.",Non-public,Non-public,NYS Department of Environmental Conservation,NYSDEC,State,0,,40.8071027893,-73.8886711356,1015069.75889,233345.945679,nysdec_solidwaste,b4e2a53cbfdbc14e359b660685e27d16
0101000020E6100000D474B96E1C7A52C0ADBAC8E5F75D4440,0101000020110F00007F1C19D391625FC1B5BAB613A5F85241,QW06G GARAGE,58-73,53 AVENUE,58-73 53 AVENUE,WOODSIDE,11377,QUEENS,4,4462505,4023610268,402,QN50,QN0203,30,24,108,024300,024300,DSNY GARAGE,SOLID WASTE TRANSFER AND CARTING,SOLID WASTE,CORE INFRASTRUCTURE AND TRANSPORTATION,Regional,NYC Department of Sanitation,NYCDSNY,Public,NYC Department of Sanitation,NYCDSNY,City,0,,40.7341277338,-73.9079853833,1009750.82363,206752.508656,dsny_garages,b81dbfd9afa72360fe68960f63bae981
0101000020E6100000C3B880CD397452C07894C748F6644440,0101000020110F00006A158EA992585FC18D9E969C7C005341,QUEENS SECTION STATION 76/8,1257,149 STREET,1257 149 STREET,WHITESTONE,11357,QUEENS,4,4102461,4045050005,407,QN49,QN0702,19,25,109,098100,098100,SANITATION SECTION STATION,SOLID WASTE TRANSFER AND CARTING,SOLID WASTE,CORE INFRASTRUCTURE AND TRANSPORTATION,Regional,NYC Department of Sanitation,NYCDSNY,Public,NYC Department of Sanitation,NYCDSNY,City,0,,40.788766,-73.816028,1035193.94983,226699.125966,dcp_colp,b8a784b1f556798faf06ffb666efcac2
0101000020E6100000711E2EFEEB7552C04125AF03A6694440,0101000020110F00006706902D745B5FC19608ABC6BE055341,BX09G GARAGE,850,ZEREGA AVENUE,850 ZEREGA AVENUE,BRONX,10473,BRONX,2,2094841,2037020001,209,BX09,BX0903,18,08,43,009000,009000,DSNY GARAGE,SOLID WASTE TRANSFER AND CARTING,SOLID WASTE,CORE INFRASTRUCTURE AND TRANSPORTATION,Regional,NYC Department of Sanitation,NYCDSNY,Public,NYC Department of Sanitation,NYCDSNY,City,0,,40.8253788572,-73.8425288628,1027831.58675,240024.161751,dsny_garages,c3bd3fe11fdeef2d5f35b3383e876d94
0101000020E6100000711E2EFEEB7552C04125AF03A6694440,0101000020110F00006706902D745B5FC19608ABC6BE055341,BX10G GARAGE,850,ZEREGA AVENUE,850 ZEREGA AVENUE,BRONX,10473,BRONX,2,2094841,2037020001,209,BX09,BX0903,18,08,43,009000,009000,DSNY GARAGE,SOLID WASTE TRANSFER AND CARTING,SOLID WASTE,CORE INFRASTRUCTURE AND TRANSPORTATION,Regional,NYC Department of Sanitation,NYCDSNY,Public,NYC Department of Sanitation,NYCDSNY,City,0,,40.8253788572,-73.8425288628,1027831.58675,240024.161751,dsny_garages,c4fafbe55dd42e5f9b2cbccf290d8f88
0101000020E6100000D9F99285EB7E52C0F958EA46C54F4440,0101000020110F000088461EF4BC6A5FC1FFBE82B1BEE85241,BKS12G GARAGE,5602,19 AVENUE,5602 19 AVENUE,BROOKLYN,11204,BROOKLYN,3,3328495,3054940089,312,BK88,BK1204,44,20,66,046800,046800,DSNY GARAGE,SOLID WASTE TRANSFER AND CARTING,SOLID WASTE,CORE INFRASTRUCTURE AND TRANSPORTATION,Regional,NYC Department of Sanitation,NYCDSNY,Public,NYC Department of Sanitation,NYCDSNY,City,0,,40.6232079171,-73.9831251077,988934.47372,166328.280082,dsny_garages,c77bf271e6ecdadaa1f4139a85a57628
0101000020E61000002F7B344C4B8152C089CF371E9E534440,0101000020110F000045307652C56E5FC127CBCCF00CED5241,BKS10G GARAGE,5100,1 AVENUE,5100 1 AVENUE,BROOKLYN,11232,BROOKLYN,3,0,3007250200,307,BK32,BK0702,38,15,72,001800,001803,DSNY GARAGE,SOLID WASTE TRANSFER AND CARTING,SOLID WASTE,CORE INFRASTRUCTURE AND TRANSPORTATION,Regional,NYC Department of Sanitation,NYCDSNY,Public,NYC Department of Sanitation,NYCDSNY,City,0,,40.6532628792,-74.0202208048,978639.227902,177278.31268,dsny_garages,ceb4d15bdb5ed1c4c6a0c2665ac46a09
0101000020E6100000B1DD7BEE928C52C0F03CC526A5494440,0101000020110F00006FBA4542EE815FC14F373EA6E4E15241,SI01 ANNEX GARAGE,3,MULDOON AVENUE,3 MULDOON AVENUE,STATEN ISLAND,10309,STATEN ISLAND,5,5158125,5059000500,503,SI05,SI0391,51,31,123,022800,022801,DSNY GARAGE,SOLID WASTE TRANSFER AND CARTING,SOLID WASTE,CORE INFRASTRUCTURE AND TRANSPORTATION,Regional,NYC Department of Sanitation,NYCDSNY,Public,NYC Department of Sanitation,NYCDSNY,City,0,,40.5753525224,-74.1964679919,929671.384716,148954.089347,dsny_garages,cf8436cb1b0b81a9ec6f82da4865247a
0101000020E61000006CF70780C77F52C044F5D1A1B3554440,0101000020110F00006EEBE39B326C5FC154A5974362EF5241,BKN02G GARAGE,465,HAMILTON AVENUE,465 HAMILTON AVENUE,BROOKLYN,11232,BROOKLYN,3,3023562,3010380001,306,BK37,BK0601,39,15,78,011900,011902,DSNY GARAGE,SOLID WASTE TRANSFER AND CARTING,SOLID WASTE,CORE INFRASTRUCTURE AND TRANSPORTATION,Regional,NYC Department of Sanitation,NYCDSNY,Public,NYC Department of Sanitation,NYCDSNY,City,0,,40.6695444371,-73.9965515209,985206.633959,183209.511654,dsny_garages,d40d05b8edcce89fb4365e70c1b56bd3
0101000020E6100000A2C397C54C7252C02CF7965B405A4440,0101000020110F0000468721334D555FC12096D6CC7AF45241,AMERICAN RECYCLING MANAGEMENT LLC,172-33,DOUGLAS AVENUE,172-33 DOUGLAS AVENUE,JAMAICA,11433,QUEENS,4,4438775,4102190062,412,QN61,QN1201,27,29,103,044400,044400,TRANSFER STATION,SOLID WASTE TRANSFER AND CARTING,SOLID WASTE,CORE INFRASTRUCTURE AND TRANSPORTATION,Regional,Christopher Hein,Non-public,Non-public,NYS Department of Environmental Conservation,NYSDEC,State,0,,40.7050890437,-73.7859357815,1043601.31376,196231.94893,nysdec_solidwaste,e82925fab3bec6f8876721860e77fe54
0101000020E610000066641FBAA07D52C0C684BE4F55614440,0101000020110F0000071BC1108B685FC185990FC36AFC5241,QUEENSBORO BRIDGE/MAN 81 AND 63SEC,1130,2 AVENUE,1130 2 AVENUE,NEW YORK,10022,MANHATTAN,1,0,1014340001,108,MN31,MN0801,5,02,19,011000,011000,SANITATION SECTION STATION,SOLID WASTE TRANSFER AND CARTING,SOLID WASTE,CORE INFRASTRUCTURE AND TRANSPORTATION,Regional,NYC Department of Sanitation,NYCDSNY,Public,NYC Department of Sanitation,NYCDSNY,City,0,,40.760416,-73.962935,994518.099884,216318.946206,dcp_colp,d9c8c6f0bdfe73abfcefd160b0c51b5a
0101000020E6100000203B0D63507852C0CC11DE553D674440,0101000020110F00007B8B0F64845F5FC10B7A24BC0A035341,METROPOLITAN TRANSFER STATION,287,HALLECK STREET,287 HALLECK STREET,BRONX,10474,BRONX,2,2102044,2027770420,202,BX27,BX0201,17,08,41,009300,009302,TRANSFER STATION,SOLID WASTE TRANSFER AND CARTING,SOLID WASTE,CORE INFRASTRUCTURE AND TRANSPORTATION,Regional,Waste Connections,Non-public,Non-public,NYS Department of Environmental Conservation,NYSDEC,State,0,,40.8065593088,-73.8799064281,1017496.40927,233151.141796,nysdec_solidwaste,ee29d7501d3971581d3c69fec326f1bd
0101000020E61000007DEFD4F2EA7452C07A323115BB714440,0101000020110F00001025F48FBF595FC1467D4F22D20E5341,BX12G GARAGE,1635,EAST 233 STREET,1635 EAST 233 STREET,BRONX,10466,BRONX,2,2090261,2049740028,212,BX03,BX1202,12,11,47,045600,045600,DSNY GARAGE,SOLID WASTE TRANSFER AND CARTING,SOLID WASTE,CORE INFRASTRUCTURE AND TRANSPORTATION,Regional,NYC Department of Sanitation,NYCDSNY,Public,NYC Department of Sanitation,NYCDSNY,City,0,,40.8885218131,-73.8268401221,1032128.10831,263037.71828,dsny_garages,dc0c377fa0cfe6092ec94be153dc08db
0101000020E6100000D474B96E1C7A52C0ADBAC8E5F75D4440,0101000020110F00007F1C19D391625FC1B5BAB613A5F85241,QW02G GARAGE,52-35,58 STREET,52-35 58 STREET,WOODSIDE,11377,QUEENS,4,4462505,4023610268,402,QN50,QN0203,30,24,108,024300,024300,DSNY GARAGE,SOLID WASTE TRANSFER AND CARTING,SOLID WASTE,CORE INFRASTRUCTURE AND TRANSPORTATION,Regional,NYC Department of Sanitation,NYCDSNY,Public,NYC Department of Sanitation,NYCDSNY,City,0,,40.7341277338,-73.9079853833,1009750.82363,206752.508656,dsny_garages,ded89df7c60e67585f4062de9427fbbb
0101000020E6100000069EDA19A67752C0E6F4DF63B0664440,0101000020110F000063B0A024635E5FC15592C0976C025341,L.U.W. ADJ TO HUNTS POINT MKT,690,FOOD CENTER DRIVE,690 FOOD CENTER DRIVE,BRONX,,BRONX,2,0,2027810301,0,,,0,,0,,011702,SOLID WASTE TRANSFER STATION,SOLID WASTE TRANSFER AND CARTING,SOLID WASTE,CORE INFRASTRUCTURE AND TRANSPORTATION,Regional,NYC Department of Sanitation,NYCDSNY,Public,NYC Department of Sanitation,NYCDSNY,City,0,,40.802258,-73.869513,1020376.03272,231588.140636,dcp_colp,e1009a0f11b22498e59906d907d5a346
0101000020E6100000B3A887BA0F7C52C035EF641D8E664440,0101000020110F0000B567E6EDE1655FC183F0152346025341,HARLEM COURTHOUSE,170-174,EAST 121 STREET,170-174 EAST 121 STREET,NEW YORK,10035,MANHATTAN,1,1054382,1017690045,111,MN34,MN1102,8,04,25,019600,019600,SANITATION SECTION STATION,SOLID WASTE TRANSFER AND CARTING,SOLID WASTE,CORE INFRASTRUCTURE AND TRANSPORTATION,Regional,NYC Department of Sanitation,NYCDSNY,Public,NYC Department of Sanitation,NYCDSNY,City,0,,40.801212,-73.93846,1001287.95496,231186.123903,dcp_colp,e42e72a62734e3d476507fa62468c6b4
0101000020E61000008E83E54A9D7952C01D1E27469E534440,0101000020110F0000355056DDB9615FC18F6E811D0DED5241,BKN17G GARAGE,10502,AVENUE D,10502 AVENUE D,BROOKLYN,11236,BROOKLYN,3,3256921,3081380001,318,BK82,BK0503,42,18,69,109800,109800,DSNY GARAGE,SOLID WASTE TRANSFER AND CARTING,SOLID WASTE,CORE INFRASTRUCTURE AND TRANSPORTATION,Regional,NYC Department of Sanitation,NYCDSNY,Public,NYC Department of Sanitation,NYCDSNY,City,0,,40.6532676403,-73.9002253764,1011934.97706,177295.166498,dsny_garages,e56b8f3014a804085b77be68e4b5de26
0101000020E6100000C0129AAE277D52C0212BAE2825684440,0101000020110F00002D015575BD675FC11C8B9FDD0E045341,SECTION STATION 91/92,468,WEST 126 STREET,468 WEST 126 STREET,NEW YORK,10027,MANHATTAN,1,1059559,1019660106,109,MN09,MN0901,7,05,26,020901,020901,SANITATION SECTION STATION,SOLID WASTE TRANSFER AND CARTING,SOLID WASTE,CORE INFRASTRUCTURE AND TRANSPORTATION,Regional,NYC Department of Sanitation,NYCDSNY,Public,NYC Department of Sanitation,NYCDSNY,City,0,,40.813634,-73.955547,996554.954548,235709.03557,dcp_colp,e7e33ef7fbce03229e14aba831c73b47
0101000020E6100000AE4DD8A8487252C023113918345A4440,0101000020110F0000D4C7EE3646555FC1BED0B30F6DF45241,REGAL RECYCLING INC,172-06,DOUGLAS AVENUE,172-06 DOUGLAS AVENUE,JAMAICA,11433,QUEENS,4,4217728,4102200025,412,QN61,QN1201,27,29,103,044400,044400,TRANSFER STATION,SOLID WASTE TRANSFER AND CARTING,SOLID WASTE,CORE INFRASTRUCTURE AND TRANSPORTATION,Regional,Regal Recycling Company Inc,Non-public,Non-public,NYS Department of Environmental Conservation,NYSDEC,State,0,,40.7047148018,-73.7856847865,1043671.23793,196095.771945,nysdec_solidwaste,e80c4be76a3e4a3565325d5c101ecf92
0101000020E6100000270938B54B8052C010910FDEB6574440,0101000020110F0000D9F7582D136D5FC10F1ECE42A3F15241,BKS06A GARAGE,87,VAN BRUNT STREET,87 VAN BRUNT STREET,BROOKLYN,11231,BROOKLYN,3,3004232,3003350001,306,BK33,BK0601,39,15,76,005100,005100,DSNY GARAGE,SOLID WASTE TRANSFER AND CARTING,SOLID WASTE,CORE INFRASTRUCTURE AND TRANSPORTATION,Regional,NYC Department of Sanitation,NYCDSNY,Public,NYC Department of Sanitation,NYCDSNY,City,0,,40.6852681711,-74.0046208427,982968.445784,188938.134387,dsny_garages,e99154e853980e2479ac23c2cd41bda3
0101000020E6100000CCAB77C4A78052C0677EAF2B085D4440,0101000020110F0000ACD6B08CAF6D5FC17EE75C6698F75241,MN01G GARAGE,353,SPRING STREET,353 SPRING STREET,NEW YORK,10014,MANHATTAN,1,1089625,1005967501,102,MN24,MN0201,3,02,1,003700,003700,DSNY GARAGE,SOLID WASTE TRANSFER AND CARTING,SOLID WASTE,CORE INFRASTRUCTURE AND TRANSPORTATION,Regional,NYC Department of Sanitation,NYCDSNY,Public,NYC Department of Sanitation,NYCDSNY,City,0,,40.7268118488,-74.0102397121,981411.866022,204073.875848,dsny_garages,e995622f4aa97d3147963f02de7838c9
0101000020E6100000DA7E0748997A52C094AAC7AB75664440,0101000020110F00006B3097E465635FC120035AB62A025341,BX01G GARAGE,680,EAST 132 STREET,680 EAST 132 STREET,BRONX,10454,BRONX,2,2003581,2025430060,201,BX39,BX0101,17,07,40,001900,001903,DSNY GARAGE,SOLID WASTE TRANSFER AND CARTING,SOLID WASTE,CORE INFRASTRUCTURE AND TRANSPORTATION,Regional,NYC Department of Sanitation,NYCDSNY,Public,NYC Department of Sanitation,NYCDSNY,City,0,,40.8004660341,-73.9156055524,1007615.69396,230919.613215,dsny_garages,ebb9d53a7a810bff289c78f29b3a8c2d
0101000020E61000006E720461EE7852C08F5C3BCE06684440,0101000020110F0000797C9AC190605FC1439AF1CDEC035341,BX02G GARAGE,650,CASANOVA STREET,650 CASANOVA STREET,BRONX,10474,BRONX,2,2006621,2027650177,202,BX27,BX0201,17,08,41,009300,009301,DSNY GARAGE,SOLID WASTE TRANSFER AND CARTING,SOLID WASTE,CORE INFRASTRUCTURE AND TRANSPORTATION,Regional,NYC Department of Sanitation,NYCDSNY,Public,NYC Department of Sanitation,NYCDSNY,City,0,,40.8127076901,-73.8895494982,1014824.02242,235387.700826,dsny_garages,ed463cec532aa928b0b14e61c4cd1a5d
0101000020E6100000D90F198EE77F52C0D484C47C79554440,0101000020110F0000AE72B80E696C5FC1111C722821EF5241,HAMILTON AVENUE MARINE TRANSFER,550,HAMILTON AVENUE,550 HAMILTON AVENUE,BROOKLYN,11232,BROOKLYN,3,3008890,3006250065,307,BK32,BK0702,38,15,72,001800,001801,SOLID WASTE TRANSFER STATION,SOLID WASTE TRANSFER AND CARTING,SOLID WASTE,CORE INFRASTRUCTURE AND TRANSPORTATION,Regional,NYC Department of Sanitation,NYCDSNY,Public,NYC Department of Sanitation,NYCDSNY,City,0,,40.66777,-73.998508,984663.902996,182563.01863,dcp_colp,f03d417d21c3e615b68bb769a2acb5d2
0101000020E6100000C81BB8718B7E52C003CDFCA204534440,0101000020110F0000C36595C1196A5FC15C282C2161EC5241,DOS SECTION STATION 71,2826,FT HAMILTON PARKWAY,2826 FT HAMILTON PARKWAY,BROOKLYN,11218,BROOKLYN,3,3123994,3053180001,307,BK40,BK0701,39,15,72,050000,050001,SANITATION SECTION STATION,SOLID WASTE TRANSFER AND CARTING,SOLID WASTE,CORE INFRASTRUCTURE AND TRANSPORTATION,Regional,NYC Department of Sanitation,NYCDSNY,Public,NYC Department of Sanitation,NYCDSNY,City,0,,40.648579,-73.977261,990559.951791,175572.017695,dcp_colp,f4d86595c822ecb6e16e43bd6e81f4a7
0101000020E6100000619D0DD00F7B52C00A1B2CCC415C4440,0101000020110F0000F5F9F73A2F645FC15DE9C817BAF65241,QW05G GARAGE,48-01,58 ROAD,48-01 58 ROAD,MASPETH,11378,QUEENS,4,4307983,4026000001,405,QN31,QN0501,30,24,104,021900,021900,DSNY GARAGE,SOLID WASTE TRANSFER AND CARTING,SOLID WASTE,CORE INFRASTRUCTURE AND TRANSPORTATION,Regional,NYC Department of Sanitation,NYCDSNY,Public,NYC Department of Sanitation,NYCDSNY,City,0,,40.7207579818,-73.9228401313,1005638.28786,201877.519183,dsny_garages,f7d41c7b5c355ac651d8491e1600b1fc
0101000020E6100000DA96A316CF7A52C09C9C98764A524440,0101000020110F0000B0BE264AC1635FC11F1008BD90EB5241,BKS14G GARAGE,1397,RALPH AVENUE,1397 RALPH AVENUE,BROOKLYN,11236,BROOKLYN,3,3221978,3079180145,318,BK50,BK1803,45,18,69,096000,096000,DSNY GARAGE,SOLID WASTE TRANSFER AND CARTING,SOLID WASTE,CORE INFRASTRUCTURE AND TRANSPORTATION,Regional,NYC Department of Sanitation,NYCDSNY,Public,NYC Department of Sanitation,NYCDSNY,City,0,,40.6428974385,-73.9188896752,1006759.59825,173511.671729,dsny_garages,f7e28433caf128beee4e54d24d1d73ff
0101000020E6100000A51655FCDF7F52C0CE08274BAD554440,0101000020110F000092133B335C6C5FC1139EA12A5BEF5241,HAMILTON AVENUE ASPHALT PLANT,448,HAMILTON AVENUE,448 HAMILTON AVENUE,BROOKLYN,11232,BROOKLYN,3,0,3006250002,307,BK32,BK0702,38,15,72,001800,001801,SOLID WASTE TRANSFER STATION,SOLID WASTE TRANSFER AND CARTING,SOLID WASTE,CORE INFRASTRUCTURE AND TRANSPORTATION,Regional,NYC Department of Sanitation,NYCDSNY,Public,NYC Department of Sanitation,NYCDSNY,City,0,,40.669351,-73.998046,984792.055821,183139.024232,dcp_colp,f80a09d035b909790b3a25418ffbf630
0101000020E6100000779A8032267652C0C822EA3892624440,0101000020110F0000EA5E420BD75B5FC1A1413921CEFD5241,QE11A GARAGE,30-19,122 STREET,30-19 122 STREET,FLUSHING,11354,QUEENS,4,4570021,4043500001,407,QN23,QN0701,19,25,109,090700,090700,DSNY GARAGE,SOLID WASTE TRANSFER AND CARTING,SOLID WASTE,CORE INFRASTRUCTURE AND TRANSPORTATION,Regional,NYC Department of Sanitation,NYCDSNY,Public,NYC Department of Sanitation,NYCDSNY,City,0,,40.7700873513,-73.8460813767,1026883.79331,219877.822811,dsny_garages,f813accbd12aa5b3b70628d618939660
0101000020E610000017C1EA89F97752C01C4AFD63F1544440,0101000020110F0000C41CD8DEF05E5FC11A0F22C688EE5241,ACTION ENVIRONMENTAL SERVICES - STANLEY AVE,941,STANLEY AVENUE,941 STANLEY AVENUE,BROOKLYN,11208,BROOKLYN,3,3098793,3045000028,305,BK82,BK0503,42,19,75,111600,111600,TRANSFER STATION,SOLID WASTE TRANSFER AND CARTING,SOLID WASTE,CORE INFRASTRUCTURE AND TRANSPORTATION,Regional,Action Environmental Systems LLC,Non-public,Non-public,NYS Department of Environmental Conservation,NYSDEC,State,0,,40.663616656,-73.874605636,1019038.41627,181074.734364,nysdec_solidwaste,f9e97e19b610ac4d0a9751f691eb0e6b
0101000020E61000001D30D311977F52C01410A3EBA3624440,0101000020110F0000411E4A58E06B5FC1A04123FAE1FD5241,MN04G GARAGE,650,WEST 57 STREET,650 WEST 57 STREET,NEW YORK,10019,MANHATTAN,1,1087609,1011040001,104,MN15,MN0402,6,02,18,013500,013502,DSNY GARAGE,SOLID WASTE TRANSFER AND CARTING,SOLID WASTE,CORE INFRASTRUCTURE AND TRANSPORTATION,Regional,NYC Department of Sanitation,NYCDSNY,Public,NYC Department of Sanitation,NYCDSNY,City,0,,40.7706274551,-73.9935955587,986023.947474,220037.209152,dsny_garages,fd25fee06d7b0a26ee789acc054d4cc0
